station,valid,tmpf,dwpf,relh,drct,sknt,p01i,alti,mslp,vsby,gust,skyc1,skyc2,skyc3,skyc4,skyl1,skyl2,skyl3,skyl4,wxcodes,ice_accretion_1hr,ice_accretion_3hr,ice_accretion_6hr,peak_wind_gust,peak_wind_drct,peak_wind_time,feel,metar
MTN,2019-07-01 00:03,73.40,57.20,56.88,320.00,3.00,0.00,29.92,M,10.00,M,CLR,M,M,M,M,M,M,M,M,M,M,M,M,M,M,73.40,KMTN 010403Z AUTO 32003KT 10SM CLR 23/14 A2992 RMK AO2
MTN,2019-07-01 00:21,73.40,57.20,56.88,310.00,3.00,0.00,29.93,M,10.00,M,CLR,M,M,M,M,M,M,M,M,M,M,M,M,M,M,73.40,KMTN 010421Z AUTO 31003KT 10SM CLR 23/14 A2993 RMK AO2
MTN,2019-07-01 00:42,71.60,55.40,56.63,330.00,3.00,0.00,29.94,M,10.00,M,CLR,M,M,M,M,M,M,M,M,M,M,M,M,M,M,71.60,KMTN 010442Z AUTO 33003KT 10SM CLR 22/13 A2994 RMK AO2
MTN,2019-07-01 01:03,69.80,55.40,60.21,320.00,3.00,0.00,29.94,M,10.00,M,CLR,M,M,M,M,M,M,M,M,M,M,M,M,M,M,69.80,KMTN 010503Z AUTO 32003KT 10SM CLR 21/13 A2994 RMK AO2
MTN,2019-07-01 01:21,69.80,55.40,60.21,310.00,3.00,0.00,29.95,M,10.00,M,CLR,M,M,M,M,M,M,M,M,M,M,M,M,M,M,69.80,KMTN 010521Z AUTO 31003KT 10SM CLR 21/13 A2995 RMK AO2
MTN,2019-07-01 01:42,68.00,55.40,64.04,0.00,0.00,0.00,29.96,M,10.00,M,CLR,M,M,M,M,M,M,M,M,M,M,M,M,M,M,68.00,KMTN 010542Z AUTO 00000KT 10SM CLR 20/13 A2996 RMK AO2
MTN,2019-07-01 02:03,68.00,55.40,64.04,0.00,0.00,0.00,29.96,M,10.00,M,CLR,M,M,M,M,M,M,M,M,M,M,M,M,M,M,68.00,KMTN 010603Z AUTO 00000KT 10SM CLR 20/13 A2996 RMK AO2
MTN,2019-07-01 02:21,68.00,55.40,64.04,0.00,0.00,0.00,29.96,M,10.00,M,CLR,M,M,M,M,M,M,M,M,M,M,M,M,M,M,68.00,KMTN 010621Z AUTO 00000KT 10SM CLR 20/13 A2996 RMK AO2
MTN,2019-07-01 03:03,66.20,55.40,68.15,0.00,0.00,0.00,29.96,M,10.00,M,CLR,M,M,M,M,M,M,M,M,M,M,M,M,M,M,66.20,KMTN 010703Z AUTO 00000KT 10SM CLR 19/13 A2996 RMK AO2
MTN,2019-07-01 03:21,66.20,55.40,68.15,0.00,0.00,0.00,29.96,M,10.00,M,CLR,M,M,M,M,M,M,M,M,M,M,M,M,M,M,66.20,KMTN 010721Z AUTO 00000KT 10SM CLR 19/13 A2996 RMK AO2
MTN,2019-07-01 03:42,66.20,55.40,68.15,300.00,5.00,0.00,29.96,M,10.00,M,CLR,M,M,M,M,M,M,M,M,M,M,M,M,M,M,66.20,KMTN 010742Z AUTO 30005KT 10SM CLR 19/13 A2996 RMK AO2
MTN,2019-07-01 04:03,66.20,55.40,68.15,310.00,4.00,0.00,29.96,M,10.00,M,CLR,M,M,M,M,M,M,M,M,M,M,M,M,M,M,66.20,KMTN 010803Z AUTO 31004KT 10SM CLR 19/13 A2996 RMK AO2
MTN,2019-07-01 04:21,64.40,55.40,72.56,290.00,4.00,0.00,29.96,M,10.00,M,CLR,M,M,M,M,M,M,M,M,M,M,M,M,M,M,64.40,KMTN 010821Z AUTO 29004KT 10SM CLR 18/13 A2996 RMK AO2
MTN,2019-07-01 04:42,64.40,55.40,72.56,300.00,3.00,0.00,29.96,M,10.00,M,CLR,M,M,M,M,M,M,M,M,M,M,M,M,M,M,64.40,KMTN 010842Z AUTO 30003KT 10SM CLR 18/13 A2996 RMK AO2
MTN,2019-07-01 05:03,64.40,57.20,77.45,300.00,3.00,0.00,29.97,M,10.00,M,CLR,M,M,M,M,M,M,M,M,M,M,M,M,M,M,64.40,KMTN 010903Z AUTO 30003KT 10SM CLR 18/14 A2997 RMK AO2
MTN,2019-07-01 05:21,62.60,55.40,77.29,300.00,4.00,0.00,29.97,M,10.00,M,CLR,M,M,M,M,M,M,M,M,M,M,M,M,M,M,62.60,KMTN 010921Z AUTO 30004KT 10SM CLR 17/13 A2997 RMK AO2
MTN,2019-07-01 05:30,62.60,55.40,77.29,300.00,4.00,0.00,29.96,M,10.00,M,CLR,M,M,M,M,M,M,M,M,M,M,M,M,M,M,62.60,KMTN 010930Z AUTO 30004KT 10SM CLR 17/13 A2996 RMK AO2
MTN,2019-07-01 05:50,62.60,57.20,82.50,320.00,5.00,0.00,29.97,M,10.00,M,CLR,M,M,M,M,M,M,M,M,M,M,M,M,M,M,62.60,KMTN 010950Z 32005KT 10SM SKC 17/14 A2997
MTN,2019-07-01 06:45,66.20,59.00,77.60,320.00,5.00,0.00,29.98,M,10.00,M,CLR,M,M,M,M,M,M,M,M,M,M,M,M,M,M,66.20,KMTN 011045Z 32005KT 10SM SKC 19/15 A2998
MTN,2019-07-01 07:45,69.80,59.00,68.55,320.00,5.00,0.00,29.99,M,10.00,M,FEW,M,M,M,25000.00,M,M,M,M,M,M,M,M,M,M,69.80,KMTN 011145Z 32005KT 10SM FEW250 21/15 A2999
MTN,2019-07-01 08:45,73.40,59.00,60.67,310.00,6.00,0.00,30.01,M,10.00,M,FEW,M,M,M,25000.00,M,M,M,M,M,M,M,M,M,M,73.40,KMTN 011245Z 31006KT 10SM FEW250 23/15 A3001
MTN,2019-07-01 09:45,75.20,60.80,60.90,310.00,5.00,0.00,30.01,M,10.00,M,SCT,M,M,M,25000.00,M,M,M,M,M,M,M,M,M,M,75.20,KMTN 011345Z 31005KT 10SM SCT250 24/16 A3001
MTN,2019-07-01 10:45,77.00,60.80,57.36,310.00,6.00,0.00,30.01,M,10.00,M,SCT,M,M,M,25000.00,M,M,M,M,M,M,M,M,M,M,77.00,KMTN 011445Z 31006KT 10SM SCT250 25/16 A3001
MTN,2019-07-01 11:54,78.80,60.80,54.05,140.00,5.00,0.00,29.99,M,10.00,M,SCT,M,M,M,5500.00,M,M,M,M,M,M,M,M,M,M,78.80,KMTN 011554Z 14005KT 10SM SCT055 26/16 A2999
MTN,2019-07-01 12:54,80.60,60.80,50.95,M,4.00,0.00,29.99,M,10.00,M,SCT,M,M,M,5000.00,M,M,M,M,M,M,M,M,M,M,81.46,KMTN 011654Z VRB04KT 10SM SCT050 27/16 A2999
MTN,2019-07-01 13:45,80.60,62.60,54.30,150.00,5.00,0.00,29.99,M,10.00,M,SCT,M,M,M,5000.00,M,M,M,M,M,M,M,M,M,M,81.84,KMTN 011745Z 15005KT 10SM SCT050 27/17 A2999
MTN,2019-07-01 14:45,82.40,64.40,54.55,140.00,7.00,0.00,29.98,M,10.00,M,SCT,SCT,M,M,5500.00,25000.00,M,M,M,M,M,M,M,M,M,83.98,KMTN 011845Z 14007KT 10SM SCT055 SCT250 28/18 A2998
MTN,2019-07-01 15:45,82.40,62.60,51.21,130.00,5.00,0.00,29.97,M,10.00,M,SCT,BKN,M,M,5500.00,25000.00,M,M,M,M,M,M,M,M,M,83.41,KMTN 011945Z 13005KT 10SM SCT055 BKN250 28/17 A2997
MTN,2019-07-01 16:45,84.20,62.60,48.32,160.00,6.00,0.00,29.96,M,10.00,M,FEW,FEW,SCT,M,5000.00,6500.00,25000.00,M,M,M,M,M,M,M,M,85.03,KMTN 012045Z 16006KT 10SM FEW050 FEW065 SCT250 29/17 A2996
MTN,2019-07-01 17:54,82.40,62.60,51.21,130.00,5.00,0.00,29.94,M,10.00,M,BKN,M,M,M,25000.00,M,M,M,M,M,M,M,M,M,M,83.41,KMTN 012154Z 13005KT 10SM BKN250 28/17 A2994
MTN,2019-07-01 18:45,82.40,62.60,51.21,140.00,4.00,0.00,29.94,M,10.00,M,BKN,M,M,M,25000.00,M,M,M,M,M,M,M,M,M,M,83.41,KMTN 012245Z 14004KT 10SM BKN250 28/17 A2994
MTN,2019-07-01 19:45,78.80,62.60,57.60,170.00,4.00,0.00,29.94,M,10.00,M,BKN,M,M,M,25000.00,M,M,M,M,M,M,M,M,M,M,80.31,KMTN 012345Z 17004KT 10SM BKN250 26/17 A2994
MTN,2019-07-01 20:45,77.00,64.40,65.12,170.00,4.00,0.00,29.95,M,10.00,M,BKN,M,M,M,25000.00,M,M,M,M,M,M,M,M,M,M,77.00,KMTN 020045Z 17004KT 10SM BKN250 25/18 A2995
MTN,2019-07-01 21:45,77.00,64.40,65.12,180.00,4.00,0.00,29.95,M,10.00,M,BKN,M,M,M,25000.00,M,M,M,M,M,M,M,M,M,M,77.00,KMTN 020145Z 18004KT 10SM BKN250 25/18 A2995
MTN,2019-07-01 22:03,77.00,64.40,65.12,170.00,5.00,0.00,29.95,M,10.00,M,CLR,M,M,M,M,M,M,M,M,M,M,M,M,M,M,77.00,KMTN 020203Z AUTO 17005KT 10SM CLR 25/18 A2995 RMK AO2
MTN,2019-07-01 22:21,77.00,64.40,65.12,170.00,5.00,0.00,29.95,M,10.00,M,CLR,M,M,M,M,M,M,M,M,M,M,M,M,M,M,77.00,KMTN 020221Z AUTO 17005KT 10SM CLR 25/18 A2995 RMK AO2
MTN,2019-07-01 22:42,77.00,64.40,65.12,190.00,3.00,0.00,29.96,M,10.00,M,CLR,M,M,M,M,M,M,M,M,M,M,M,M,M,M,77.00,KMTN 020242Z AUTO 19003KT 10SM CLR 25/18 A2996 RMK AO2
MTN,2019-07-01 23:03,75.20,64.40,69.14,0.00,0.00,0.00,29.96,M,10.00,M,CLR,M,M,M,M,M,M,M,M,M,M,M,M,M,M,75.20,KMTN 020303Z AUTO 00000KT 10SM CLR 24/18 A2996 RMK AO2
MTN,2019-07-01 23:21,71.60,64.40,78.04,0.00,0.00,0.00,29.96,M,10.00,M,CLR,M,M,M,M,M,M,M,M,M,M,M,M,M,M,71.60,KMTN 020321Z AUTO 00000KT 10SM CLR 22/18 A2996 RMK AO2
MTN,2019-07-01 23:42,71.60,64.40,78.04,0.00,0.00,0.00,29.96,M,10.00,M,CLR,M,M,M,M,M,M,M,M,M,M,M,M,M,M,71.60,KMTN 020342Z AUTO 00000KT 10SM CLR 22/18 A2996 RMK AO2
MTN,2019-07-02 00:03,71.60,64.40,78.04,0.00,0.00,0.00,29.95,M,10.00,M,CLR,M,M,M,M,M,M,M,M,M,M,M,M,M,M,71.60,KMTN 020403Z AUTO 00000KT 10SM CLR 22/18 A2995 RMK AO2
MTN,2019-07-02 00:21,71.60,66.20,83.09,0.00,0.00,0.00,29.95,M,10.00,M,CLR,M,M,M,M,M,M,M,M,M,M,M,M,M,M,71.60,KMTN 020421Z AUTO 00000KT 10SM CLR 22/19 A2995 RMK AO2
MTN,2019-07-02 00:42,73.40,66.20,78.19,0.00,0.00,0.00,29.95,M,10.00,M,CLR,M,M,M,M,M,M,M,M,M,M,M,M,M,M,73.40,KMTN 020442Z AUTO 00000KT 10SM CLR 23/19 A2995 RMK AO2
MTN,2019-07-02 01:03,71.60,66.20,83.09,0.00,0.00,0.00,29.95,M,10.00,M,CLR,M,M,M,M,M,M,M,M,M,M,M,M,M,M,71.60,KMTN 020503Z AUTO 00000KT 10SM CLR 22/19 A2995 RMK AO2
MTN,2019-07-02 01:21,69.80,66.20,88.34,0.00,0.00,0.00,29.95,M,10.00,M,CLR,M,M,M,M,M,M,M,M,M,M,M,M,M,M,69.80,KMTN 020521Z AUTO 00000KT 10SM CLR 21/19 A2995 RMK AO2
MTN,2019-07-02 01:42,71.60,66.20,83.09,210.00,3.00,0.00,29.95,M,10.00,M,CLR,M,M,M,M,M,M,M,M,M,M,M,M,M,M,71.60,KMTN 020542Z AUTO 21003KT 10SM CLR 22/19 A2995 RMK AO2
MTN,2019-07-02 02:03,73.40,66.20,78.19,220.00,3.00,0.00,29.95,M,10.00,M,CLR,M,M,M,M,M,M,M,M,M,M,M,M,M,M,73.40,KMTN 020603Z AUTO 22003KT 10SM CLR 23/19 A2995 RMK AO2
MTN,2019-07-02 02:21,73.40,66.20,78.19,210.00,3.00,0.00,29.94,M,10.00,M,CLR,M,M,M,M,M,M,M,M,M,M,M,M,M,M,73.40,KMTN 020621Z AUTO 21003KT 10SM CLR 23/19 A2994 RMK AO2
MTN,2019-07-02 02:42,69.80,64.40,82.98,0.00,0.00,0.00,29.94,M,10.00,M,CLR,M,M,M,M,M,M,M,M,M,M,M,M,M,M,69.80,KMTN 020642Z AUTO 00000KT 10SM CLR 21/18 A2994 RMK AO2
MTN,2019-07-02 03:03,68.00,64.40,88.26,0.00,0.00,0.00,29.94,M,10.00,M,CLR,M,M,M,M,M,M,M,M,M,M,M,M,M,M,68.00,KMTN 020703Z AUTO 00000KT 10SM CLR 20/18 A2994 RMK AO2
MTN,2019-07-02 03:21,68.00,64.40,88.26,0.00,0.00,0.00,29.94,M,10.00,M,CLR,M,M,M,M,M,M,M,M,M,M,M,M,M,M,68.00,KMTN 020721Z AUTO 00000KT 10SM CLR 20/18 A2994 RMK AO2
MTN,2019-07-02 03:42,68.00,64.40,88.26,0.00,0.00,0.00,29.94,M,10.00,M,CLR,M,M,M,M,M,M,M,M,M,M,M,M,M,M,68.00,KMTN 020742Z AUTO 00000KT 10SM CLR 20/18 A2994 RMK AO2
MTN,2019-07-02 04:03,68.00,64.40,88.26,0.00,0.00,0.00,29.94,M,10.00,M,CLR,M,M,M,M,M,M,M,M,M,M,M,M,M,M,68.00,KMTN 020803Z AUTO 00000KT 10SM CLR 20/18 A2994 RMK AO2
MTN,2019-07-02 04:21,68.00,64.40,88.26,0.00,0.00,0.00,29.94,M,10.00,M,CLR,M,M,M,M,M,M,M,M,M,M,M,M,M,M,68.00,KMTN 020821Z AUTO 00000KT 10SM CLR 20/18 A2994 RMK AO2
MTN,2019-07-02 04:42,68.00,64.40,88.26,0.00,0.00,0.00,29.94,M,10.00,M,CLR,M,M,M,M,M,M,M,M,M,M,M,M,M,M,68.00,KMTN 020842Z AUTO 00000KT 10SM CLR 20/18 A2994 RMK AO2
MTN,2019-07-02 05:03,68.00,64.40,88.26,220.00,3.00,0.00,29.94,M,10.00,M,CLR,M,M,M,M,M,M,M,M,M,M,M,M,M,M,68.00,KMTN 020903Z AUTO 22003KT 10SM CLR 20/18 A2994 RMK AO2
MTN,2019-07-02 05:21,68.00,64.40,88.26,0.00,0.00,0.00,29.94,M,10.00,M,CLR,M,M,M,M,M,M,M,M,M,M,M,M,M,M,68.00,KMTN 020921Z AUTO 00000KT 10SM CLR 20/18 A2994 RMK AO2
MTN,2019-07-02 05:30,68.00,64.40,88.26,0.00,0.00,0.00,29.93,M,10.00,M,CLR,M,M,M,M,M,M,M,M,M,M,M,M,M,M,68.00,KMTN 020930Z AUTO 00000KT 10SM CLR 20/18 A2993 RMK AO2
MTN,2019-07-02 05:45,71.60,66.20,83.09,230.00,3.00,0.00,29.93,M,10.00,M,SCT,M,M,M,25000.00,M,M,M,M,M,M,M,M,M,M,71.60,KMTN 020945Z 23003KT 10SM SCT250 22/19 A2993
MTN,2019-07-02 06:45,73.40,66.20,78.19,230.00,4.00,0.00,29.92,M,10.00,M,FEW,M,M,M,25000.00,M,M,M,M,M,M,M,M,M,M,73.40,KMTN 021045Z 23004KT 10SM FEW250 23/19 A2992
MTN,2019-07-02 07:45,75.20,66.20,73.61,260.00,3.00,0.00,29.93,M,10.00,M,FEW,M,M,M,25000.00,M,M,M,M,M,M,M,M,M,M,75.20,KMTN 021145Z 26003KT 10SM FEW250 24/19 A2993
MTN,2019-07-02 07:56,75.20,66.20,73.61,270.00,6.00,0.00,29.93,M,10.00,M,FEW,M,M,M,25000.00,M,M,M,M,M,M,M,M,M,M,75.20,KMTN 021156Z 27006KT 10SM FEW250 24/19 A2993
MTN,2019-07-02 08:45,80.60,64.40,57.84,250.00,3.00,0.00,29.93,M,10.00,M,SCT,M,M,M,25000.00,M,M,M,M,M,M,M,M,M,M,82.27,KMTN 021245Z 25003KT 10SM SCT250 27/18 A2993
MTN,2019-07-02 09:54,84.20,66.20,54.80,190.00,4.00,0.00,29.91,M,7.00,M,SCT,M,M,M,25000.00,M,M,M,M,M,M,M,M,M,M,86.50,KMTN 021354Z 19004KT 7SM SCT250 29/19 A2991
MTN,2019-07-02 10:24,84.20,64.40,51.47,200.00,7.00,0.00,29.91,M,10.00,M,FEW,SCT,M,M,5000.00,25000.00,M,M,M,M,M,M,M,M,M,85.71,KMTN 021424Z 20007KT 10SM FEW050 SCT250 29/18 A2991
MTN,2019-07-02 10:54,87.80,66.20,48.84,160.00,7.00,0.00,29.90,M,10.00,M,SCT,SCT,M,M,5000.00,25000.00,M,M,M,M,M,M,M,M,M,90.31,KMTN 021454Z 16007KT 10SM SCT050 SCT250 31/19 A2990
MTN,2019-07-02 11:45,87.80,66.20,48.84,170.00,9.00,0.00,29.90,M,10.00,M,SCT,SCT,M,M,6500.00,25000.00,M,M,M,M,M,M,M,M,M,90.31,KMTN 021545Z 17009KT 10SM SCT065 SCT250 31/19 A2990
MTN,2019-07-02 12:45,89.60,68.00,49.10,180.00,10.00,0.00,29.88,M,10.00,M,SCT,SCT,SCT,M,5000.00,6500.00,25000.00,M,M,M,M,M,M,M,M,93.47,KMTN 021645Z 18010KT 10SM SCT050 SCT065 SCT250 32/20 A2988
MTN,2019-07-02 13:45,89.60,71.60,55.53,160.00,10.00,0.00,29.86,M,10.00,16.00,SCT,SCT,BKN,M,6500.00,10000.00,25000.00,M,M,M,M,M,M,M,M,96.41,KMTN 021745Z 16010G16KT 120V200 10SM SCT065 SCT100 BKN250 32/22 A2986
MTN,2019-07-02 14:45,89.60,71.60,55.53,200.00,4.00,0.00,29.84,M,10.00,M,SCT,BKN,M,M,5000.00,6500.00,M,M,M,M,M,M,M,M,M,96.41,KMTN 021845Z 20004KT 10SM SCT050 BKN065 32/22 A2984
MTN,2019-07-02 15:45,91.40,73.40,55.77,240.00,6.00,0.00,29.82,M,10.00,M,SCT,BKN,M,M,5500.00,6500.00,M,M,M,M,M,M,M,M,M,100.52,KMTN 021945Z 24006KT 10SM SCT055 BKN065 33/23 A2982
MTN,2019-07-02 16:45,89.60,75.20,62.68,140.00,7.00,0.00,29.81,M,10.00,M,BKN,BKN,M,M,5500.00,7500.00,M,M,M,M,M,M,M,M,M,100.23,KMTN 022045Z 14007KT 10SM BKN055 BKN075 32/24 A2981
MTN,2019-07-02 17:45,87.80,75.20,66.35,130.00,7.00,0.00,29.80,M,10.00,M,SCT,BKN,M,M,6000.00,8000.00,M,M,M,M,M,M,M,M,M,97.76,KMTN 022145Z 13007KT 10SM SCT060 BKN080 31/24 A2980
MTN,2019-07-02 18:54,89.60,69.80,52.23,220.00,10.00,0.00,29.79,M,10.00,15.00,SCT,SCT,BKN,M,6000.00,10000.00,25000.00,M,M,M,M,M,M,M,M,94.85,KMTN 022254Z 22010G15KT 10SM SCT060 SCT100 BKN250 32/21 A2979 RMK CB DSNT W-NW MOV SE
MTN,2019-07-02 19:50,86.00,69.80,58.55,270.00,17.00,0.00,29.81,M,10.00,22.00,SCT,SCT,BKN,M,6000.00,7000.00,25000.00,M,TS,M,M,M,M,M,M,90.58,KMTN 022350Z 27017G22KT 10SM TS SCT060 SCT070 BKN250 30/21 A2981 RMK TSB49 OCNL LTG CCCG TS NW MOV SE
MTN,2019-07-02 20:35,80.60,69.80,69.71,250.00,9.00,0.00,29.83,M,10.00,16.00,SCT,BKN,M,M,12000.00,25000.00,M,M,-RA,M,M,M,M,M,M,83.90,KMTN 030035Z 25009G16KT 10SM -RA SCT120 BKN250 27/21 A2983 RMK TSE34 TS MOVD SE
MTN,2019-07-02 20:50,77.00,71.60,83.44,250.00,11.00,0.00,29.84,M,10.00,15.00,SCT,SCT,BKN,M,7000.00,12000.00,25000.00,M,-TSRA,M,M,M,M,M,M,78.32,KMTN 030050Z 25011G15KT 10SM -TSRA SCT070 SCT120 BKN250 25/22 A2984 RMK TSB49 OCNL LTGICCG TS OHD MOV E
MTN,2019-07-02 21:14,75.20,73.40,94.14,240.00,4.00,0.00,29.84,M,10.00,M,SCT,BKN,BKN,M,12000.00,16000.00,25000.00,M,RA,M,M,M,M,M,M,76.84,KMTN 030114Z 24004KT 10SM RA SCT120 BKN160 BKN250 24/23 A2984 RMK TSE13 TS MOVD E
MTN,2019-07-02 21:50,73.40,71.60,94.10,230.00,5.00,0.00,29.85,M,10.00,M,SCT,BKN,BKN,M,12000.00,16000.00,25000.00,M,-RA,M,M,M,M,M,M,74.86,KMTN 030150Z 23005KT 10SM -RA SCT120 BKN160 BKN250 23/22 A2985 RMK LAST
MTN,2019-07-02 22:03,73.40,71.60,94.10,250.00,4.00,0.00,29.85,M,10.00,M,SCT,M,M,M,12000.00,M,M,M,-RA,M,M,M,M,M,M,74.86,KMTN 030203Z AUTO 25004KT 10SM -RA SCT120 23/22 A2985 RMK AO2
MTN,2019-07-02 22:21,73.40,71.60,94.10,240.00,4.00,0.00,29.86,M,10.00,M,SCT,M,M,M,12000.00,M,M,M,M,M,M,M,M,M,M,74.86,KMTN 030221Z AUTO 24004KT 10SM SCT120 23/22 A2986 RMK AO2
MTN,2019-07-02 22:42,73.40,71.60,94.10,0.00,0.00,0.00,29.85,M,10.00,M,CLR,M,M,M,M,M,M,M,M,M,M,M,M,M,M,74.86,KMTN 030242Z AUTO 00000KT 10SM CLR 23/22 A2985 RMK AO2
MTN,2019-07-02 23:03,71.60,71.60,100.00,0.00,0.00,0.00,29.86,M,10.00,M,CLR,M,M,M,M,M,M,M,M,M,M,M,M,M,M,73.16,KMTN 030303Z AUTO 00000KT 10SM CLR 22/22 A2986 RMK AO2
MTN,2019-07-02 23:21,71.60,71.60,100.00,0.00,0.00,0.00,29.86,M,10.00,M,CLR,M,M,M,M,M,M,M,M,M,M,M,M,M,M,73.16,KMTN 030321Z AUTO 00000KT 10SM CLR 22/22 A2986 RMK AO2
MTN,2019-07-02 23:42,71.60,71.60,100.00,310.00,4.00,0.00,29.86,M,10.00,M,CLR,M,M,M,M,M,M,M,M,M,M,M,M,M,M,73.16,KMTN 030342Z AUTO 31004KT 10SM CLR 22/22 A2986 RMK AO2
MTN,2019-07-03 00:03,71.60,71.60,100.00,0.00,0.00,0.00,29.86,M,10.00,M,CLR,M,M,M,M,M,M,M,M,M,M,M,M,M,M,73.16,KMTN 030403Z AUTO 00000KT 10SM CLR 22/22 A2986 RMK AO2
MTN,2019-07-03 00:21,73.40,71.60,94.10,230.00,3.00,0.00,29.86,M,10.00,M,CLR,M,M,M,M,M,M,M,M,M,M,M,M,M,M,74.86,KMTN 030421Z AUTO 23003KT 10SM CLR 23/22 A2986 RMK AO2
MTN,2019-07-03 00:42,73.40,71.60,94.10,0.00,0.00,0.00,29.86,M,10.00,M,CLR,M,M,M,M,M,M,M,M,M,M,M,M,M,M,74.86,KMTN 030442Z AUTO 00000KT 10SM CLR 23/22 A2986 RMK AO2
MTN,2019-07-03 01:03,73.40,73.40,100.00,0.00,0.00,0.00,29.86,M,10.00,M,CLR,M,M,M,M,M,M,M,M,M,M,M,M,M,M,75.14,KMTN 030503Z AUTO 00000KT 10SM CLR 23/23 A2986 RMK AO2
MTN,2019-07-03 01:21,73.40,73.40,100.00,190.00,3.00,0.00,29.85,M,10.00,M,CLR,M,M,M,M,M,M,M,M,M,M,M,M,M,M,75.14,KMTN 030521Z AUTO 19003KT 10SM CLR 23/23 A2985 RMK AO2
MTN,2019-07-03 01:42,73.40,73.40,100.00,0.00,0.00,0.00,29.86,M,10.00,M,CLR,M,M,M,M,M,M,M,M,M,M,M,M,M,M,75.14,KMTN 030542Z AUTO 00000KT 10SM CLR 23/23 A2986 RMK AO2
MTN,2019-07-03 02:03,71.60,71.60,100.00,0.00,0.00,0.00,29.85,M,10.00,M,CLR,M,M,M,M,M,M,M,M,M,M,M,M,M,M,73.16,KMTN 030603Z AUTO 00000KT 10SM CLR 22/22 A2985 RMK AO2
MTN,2019-07-03 02:21,71.60,71.60,100.00,0.00,0.00,0.00,29.86,M,10.00,M,CLR,M,M,M,M,M,M,M,M,M,M,M,M,M,M,73.16,KMTN 030621Z AUTO 00000KT 10SM CLR 22/22 A2986 RMK AO2
MTN,2019-07-03 02:42,71.60,71.60,100.00,0.00,0.00,0.00,29.85,M,10.00,M,CLR,M,M,M,M,M,M,M,M,M,M,M,M,M,M,73.16,KMTN 030642Z AUTO 00000KT 10SM CLR 22/22 A2985 RMK AO2
MTN,2019-07-03 03:03,71.60,71.60,100.00,0.00,0.00,0.00,29.85,M,10.00,M,CLR,M,M,M,M,M,M,M,M,M,M,M,M,M,M,73.16,KMTN 030703Z AUTO 00000KT 10SM CLR 22/22 A2985 RMK AO2
MTN,2019-07-03 03:21,71.60,71.60,100.00,0.00,0.00,0.00,29.85,M,10.00,M,CLR,M,M,M,M,M,M,M,M,M,M,M,M,M,M,73.16,KMTN 030721Z AUTO 00000KT 10SM CLR 22/22 A2985 RMK AO2
MTN,2019-07-03 03:42,71.60,71.60,100.00,0.00,0.00,0.00,29.85,M,10.00,M,CLR,M,M,M,M,M,M,M,M,M,M,M,M,M,M,73.16,KMTN 030742Z AUTO 00000KT 10SM CLR 22/22 A2985 RMK AO2
MTN,2019-07-03 04:03,71.60,71.60,100.00,0.00,0.00,0.00,29.84,M,10.00,M,CLR,M,M,M,M,M,M,M,M,M,M,M,M,M,M,73.16,KMTN 030803Z AUTO 00000KT 10SM CLR 22/22 A2984 RMK AO2
MTN,2019-07-03 04:21,71.60,71.60,100.00,0.00,0.00,0.00,29.84,M,10.00,M,CLR,M,M,M,M,M,M,M,M,M,M,M,M,M,M,73.16,KMTN 030821Z AUTO 00000KT 10SM CLR 22/22 A2984 RMK AO2
MTN,2019-07-03 04:42,71.60,71.60,100.00,0.00,0.00,0.00,29.85,M,10.00,M,CLR,M,M,M,M,M,M,M,M,M,M,M,M,M,M,73.16,KMTN 030842Z AUTO 00000KT 10SM CLR 22/22 A2985 RMK AO2
MTN,2019-07-03 05:03,71.60,71.60,100.00,0.00,0.00,0.00,29.86,M,7.00,M,CLR,M,M,M,M,M,M,M,M,M,M,M,M,M,M,73.16,KMTN 030903Z AUTO 00000KT 7SM CLR 22/22 A2986 RMK AO2
MTN,2019-07-03 05:21,69.80,69.80,100.00,0.00,0.00,0.00,29.86,M,10.00,M,CLR,M,M,M,M,M,M,M,M,M,M,M,M,M,M,69.80,KMTN 030921Z AUTO 00000KT 10SM CLR 21/21 A2986 RMK AO2
MTN,2019-07-03 05:45,71.60,71.60,100.00,0.00,0.00,0.00,29.87,M,10.00,M,SCT,BKN,M,M,11000.00,25000.00,M,M,M,M,M,M,M,M,M,73.16,KMTN 030945Z 00000KT 10SM SCT110 BKN250 22/22 A2987 RMK FIRST
MTN,2019-07-03 06:45,73.40,73.40,100.00,0.00,0.00,0.00,29.87,M,10.00,M,SCT,SCT,BKN,M,9500.00,15000.00,25000.00,M,M,M,M,M,M,M,M,75.14,KMTN 031045Z 00000KT 10SM SCT095 SCT150 BKN250 23/23 A2987
MTN,2019-07-03 07:45,75.20,75.20,100.00,0.00,0.00,0.00,29.89,M,10.00,M,SCT,BKN,M,M,15000.00,25000.00,M,M,M,M,M,M,M,M,M,77.12,KMTN 031145Z 00000KT 10SM SCT150 BKN250 24/24 A2989
MTN,2019-07-03 08:45,80.60,75.20,83.66,310.00,3.00,0.00,29.90,M,10.00,M,BKN,BKN,M,M,12000.00,25000.00,M,M,M,M,M,M,M,M,M,86.17,KMTN 031245Z 31003KT 10SM BKN120 BKN250 27/24 A2990
MTN,2019-07-03 09:45,84.20,71.60,65.95,290.00,6.00,0.00,29.91,M,10.00,M,FEW,SCT,BKN,M,6000.00,12000.00,25000.00,M,M,M,M,M,M,M,M,89.60,KMTN 031345Z 29006KT 10SM FEW060 SCT120 BKN250 29/22 A2991
MTN,2019-07-03 10:45,84.20,71.60,65.95,260.00,6.00,0.00,29.91,M,10.00,M,FEW,SCT,BKN,M,5000.00,10000.00,25000.00,M,M,M,M,M,M,M,M,89.60,KMTN 031445Z 26006KT 10SM FEW050 SCT100 BKN250 29/22 A2991
MTN,2019-07-03 11:45,86.00,73.40,66.15,270.00,7.00,0.00,29.91,M,10.00,M,SCT,SCT,BKN,BKN,5000.00,10000.00,12000.00,25000.00,M,M,M,M,M,M,M,93.45,KMTN 031545Z 27007KT 10SM SCT050 SCT100 BKN120 BKN250 30/23 A2991
MTN,2019-07-03 12:45,89.60,73.40,59.01,330.00,4.00,0.00,29.91,M,10.00,M,SCT,BKN,BKN,M,4100.00,12000.00,25000.00,M,M,M,M,M,M,M,M,98.20,KMTN 031645Z 33004KT 10SM SCT041 BKN120 BKN250 32/23 A2991
MTN,2019-07-03 13:45,89.60,73.40,59.01,30.00,4.00,0.00,29.90,M,10.00,M,SCT,BKN,BKN,M,4500.00,12000.00,25000.00,M,M,M,M,M,M,M,M,98.20,KMTN 031745Z 03004KT 10SM SCT045 BKN120 BKN250 32/23 A2990
MTN,2019-07-03 14:55,89.60,75.20,62.68,120.00,5.00,0.00,29.89,M,10.00,M,SCT,SCT,M,M,4900.00,5500.00,M,M,M,M,M,M,M,M,M,100.23,KMTN 031855Z 12005KT 10SM SCT049 SCT055 32/24 A2989
MTN,2019-07-03 15:50,89.60,73.40,59.01,130.00,5.00,0.00,29.89,M,10.00,M,SCT,BKN,M,M,6500.00,10000.00,M,M,M,M,M,M,M,M,M,98.20,KMTN 031950Z 13005KT 10SM SCT065 BKN100 32/23 A2989
MTN,2019-07-03 16:45,91.40,73.40,55.77,120.00,5.00,0.00,29.87,M,10.00,M,SCT,SCT,SCT,M,5000.00,7500.00,20000.00,M,M,M,M,M,M,M,M,100.52,KMTN 032045Z 12005KT 10SM SCT050 SCT075 SCT200 33/23 A2987
MTN,2019-07-03 17:50,89.60,75.20,62.68,130.00,5.00,0.00,29.87,M,10.00,M,SCT,SCT,M,M,5000.00,20000.00,M,M,M,M,M,M,M,M,M,100.23,KMTN 032150Z 13005KT 10SM SCT050 SCT200 32/24 A2987
MTN,2019-07-03 18:50,86.00,73.40,66.15,0.00,0.00,0.00,29.87,M,10.00,M,BKN,BKN,M,M,5000.00,20000.00,M,M,M,M,M,M,M,M,M,93.45,KMTN 032250Z 00000KT 10SM BKN050 BKN200 30/23 A2987
MTN,2019-07-03 19:45,80.60,77.00,88.83,0.00,0.00,0.00,29.89,M,10.00,M,SCT,BKN,M,M,4500.00,6000.00,M,M,M,M,M,M,M,M,M,87.10,KMTN 032345Z 00000KT 10SM SCT045 BKN060 27/25 A2989
MTN,2019-07-03 20:45,78.80,78.80,100.00,0.00,0.00,0.00,29.91,M,10.00,M,SCT,M,M,M,3000.00,M,M,M,M,M,M,M,M,M,M,83.15,KMTN 040045Z 00000KT 10SM SCT030 26/26 A2991
MTN,2019-07-03 21:45,78.80,78.80,100.00,0.00,0.00,0.00,29.94,M,10.00,M,CLR,M,M,M,M,M,M,M,M,M,M,M,M,M,M,83.15,KMTN 040145Z 00000KT 10SM SKC 26/26 A2994
MTN,2019-07-03 22:03,77.00,77.00,100.00,0.00,0.00,0.00,29.94,M,10.00,M,SCT,M,M,M,12000.00,M,M,M,M,M,M,M,M,M,M,77.00,KMTN 040203Z AUTO 00000KT 10SM SCT120 25/25 A2994 RMK AO2
MTN,2019-07-03 22:21,77.00,77.00,100.00,0.00,0.00,0.00,29.94,M,10.00,M,SCT,M,M,M,12000.00,M,M,M,M,M,M,M,M,M,M,77.00,KMTN 040221Z AUTO 00000KT 10SM SCT120 25/25 A2994 RMK AO2
MTN,2019-07-03 22:42,77.00,77.00,100.00,0.00,0.00,0.00,29.95,M,10.00,M,SCT,M,M,M,11000.00,M,M,M,M,M,M,M,M,M,M,77.00,KMTN 040242Z AUTO 00000KT 10SM SCT110 25/25 A2995 RMK AO2
MTN,2019-07-03 23:03,77.00,77.00,100.00,0.00,0.00,0.00,29.95,M,7.00,M,CLR,M,M,M,M,M,M,M,M,M,M,M,M,M,M,77.00,KMTN 040303Z AUTO 00000KT 7SM CLR 25/25 A2995 RMK AO2
MTN,2019-07-03 23:21,77.00,77.00,100.00,0.00,0.00,0.00,29.96,M,10.00,M,CLR,M,M,M,M,M,M,M,M,M,M,M,M,M,M,77.00,KMTN 040321Z AUTO 00000KT 10SM CLR 25/25 A2996 RMK AO2
MTN,2019-07-03 23:42,77.00,77.00,100.00,0.00,0.00,0.00,29.96,M,10.00,M,CLR,M,M,M,M,M,M,M,M,M,M,M,M,M,M,77.00,KMTN 040342Z AUTO 00000KT 10SM CLR 25/25 A2996 RMK AO2
MTN,2019-07-04 00:03,77.00,77.00,100.00,0.00,0.00,0.00,29.96,M,10.00,M,CLR,M,M,M,M,M,M,M,M,M,M,M,M,M,M,77.00,KMTN 040403Z AUTO 00000KT 10SM CLR 25/25 A2996 RMK AO2 LTG DSNT SW
MTN,2019-07-04 00:21,77.00,77.00,100.00,0.00,0.00,0.00,29.96,M,10.00,M,CLR,M,M,M,M,M,M,M,M,M,M,M,M,M,M,77.00,KMTN 040421Z AUTO 00000KT 10SM CLR 25/25 A2996 RMK AO2
MTN,2019-07-04 00:42,77.00,75.20,94.19,0.00,0.00,0.00,29.96,M,10.00,M,CLR,M,M,M,M,M,M,M,M,M,M,M,M,M,M,78.83,KMTN 040442Z AUTO 00000KT 10SM CLR 25/24 A2996 RMK AO2
MTN,2019-07-04 01:03,75.20,75.20,100.00,0.00,0.00,0.00,29.96,M,10.00,M,CLR,M,M,M,M,M,M,M,M,M,M,M,M,M,M,77.12,KMTN 040503Z AUTO 00000KT 10SM CLR 24/24 A2996 RMK AO2
MTN,2019-07-04 01:21,75.20,75.20,100.00,0.00,0.00,0.00,29.96,M,10.00,M,CLR,M,M,M,M,M,M,M,M,M,M,M,M,M,M,77.12,KMTN 040521Z AUTO 00000KT 10SM CLR 24/24 A2996 RMK AO2
MTN,2019-07-04 01:42,75.20,75.20,100.00,0.00,0.00,0.00,29.97,M,10.00,M,CLR,M,M,M,M,M,M,M,M,M,M,M,M,M,M,77.12,KMTN 040542Z AUTO 00000KT 10SM CLR 24/24 A2997 RMK AO2
MTN,2019-07-04 02:03,75.20,75.20,100.00,0.00,0.00,0.00,29.97,M,10.00,M,SCT,M,M,M,4900.00,M,M,M,M,M,M,M,M,M,M,77.12,KMTN 040603Z AUTO 00000KT 10SM SCT049 24/24 A2997 RMK AO2
MTN,2019-07-04 02:21,75.20,73.40,94.14,0.00,0.00,0.00,29.97,M,10.00,M,SCT,M,M,M,4900.00,M,M,M,M,M,M,M,M,M,M,76.84,KMTN 040621Z AUTO 00000KT 10SM SCT049 24/23 A2997 RMK AO2
MTN,2019-07-04 02:42,75.20,75.20,100.00,0.00,0.00,0.00,29.97,M,10.00,M,SCT,M,M,M,4900.00,M,M,M,M,M,M,M,M,M,M,77.12,KMTN 040642Z AUTO 00000KT 10SM SCT049 24/24 A2997 RMK AO2
MTN,2019-07-04 03:03,75.20,75.20,100.00,0.00,0.00,0.00,29.97,M,7.00,M,CLR,M,M,M,M,M,M,M,M,M,M,M,M,M,M,77.12,KMTN 040703Z AUTO 00000KT 7SM CLR 24/24 A2997 RMK AO2
MTN,2019-07-04 03:21,75.20,75.20,100.00,0.00,0.00,0.00,29.97,M,10.00,M,CLR,M,M,M,M,M,M,M,M,M,M,M,M,M,M,77.12,KMTN 040721Z AUTO 00000KT 10SM CLR 24/24 A2997 RMK AO2
MTN,2019-07-04 03:42,75.20,73.40,94.14,0.00,0.00,0.00,29.97,M,10.00,M,CLR,M,M,M,M,M,M,M,M,M,M,M,M,M,M,76.84,KMTN 040742Z AUTO 00000KT 10SM CLR 24/23 A2997 RMK AO2
MTN,2019-07-04 04:03,75.20,75.20,100.00,0.00,0.00,0.00,29.98,M,10.00,M,CLR,M,M,M,M,M,M,M,M,M,M,M,M,M,M,77.12,KMTN 040803Z AUTO 00000KT 10SM CLR 24/24 A2998 RMK AO2
MTN,2019-07-04 04:21,75.20,75.20,100.00,320.00,3.00,0.00,29.98,M,10.00,M,CLR,M,M,M,M,M,M,M,M,M,M,M,M,M,M,77.12,KMTN 040821Z AUTO 32003KT 10SM CLR 24/24 A2998 RMK AO2
MTN,2019-07-04 04:42,75.20,75.20,100.00,0.00,0.00,0.00,29.98,M,10.00,M,CLR,M,M,M,M,M,M,M,M,M,M,M,M,M,M,77.12,KMTN 040842Z AUTO 00000KT 10SM CLR 24/24 A2998 RMK AO2
MTN,2019-07-04 05:03,75.20,73.40,94.14,0.00,0.00,0.00,29.98,M,10.00,M,CLR,M,M,M,M,M,M,M,M,M,M,M,M,M,M,76.84,KMTN 040903Z AUTO 00000KT 10SM CLR 24/23 A2998 RMK AO2
MTN,2019-07-04 05:21,73.40,73.40,100.00,0.00,0.00,0.00,29.99,M,10.00,M,CLR,M,M,M,M,M,M,M,M,M,M,M,M,M,M,75.14,KMTN 040921Z AUTO 00000KT 10SM CLR 23/23 A2999 RMK AO2
MTN,2019-07-04 05:30,75.20,73.40,94.14,0.00,0.00,0.00,29.99,M,10.00,M,CLR,M,M,M,M,M,M,M,M,M,M,M,M,M,M,76.84,KMTN 040930Z AUTO 00000KT 10SM CLR 24/23 A2999 RMK AO2
MTN,2019-07-04 05:45,75.20,75.20,100.00,0.00,0.00,0.00,30.00,M,10.00,M,SCT,SCT,M,M,4800.00,25000.00,M,M,M,M,M,M,M,M,M,77.12,KMTN 040945Z 00000KT 10SM SCT048 SCT250 24/24 A3000
MTN,2019-07-04 06:45,78.80,75.20,88.75,0.00,0.00,0.00,30.02,M,10.00,M,BKN,BKN,BKN,M,12000.00,17000.00,25000.00,M,M,M,M,M,M,M,M,82.38,KMTN 041045Z 00000KT 10SM BKN120 BKN170 BKN250 26/24 A3002
MTN,2019-07-04 07:55,80.60,78.80,94.27,0.00,0.00,0.00,30.04,M,10.00,M,SCT,BKN,BKN,M,12000.00,17000.00,20000.00,M,M,M,M,M,M,M,M,89.33,KMTN 041155Z 00000KT 10SM SCT120 BKN170 BKN200 27/26 A3004
MTN,2019-07-04 08:45,82.40,78.80,88.90,0.00,0.00,0.00,30.05,M,10.00,M,SCT,SCT,BKN,M,12000.00,17000.00,25000.00,M,M,M,M,M,M,M,M,92.40,KMTN 041245Z 00000KT 10SM SCT120 SCT170 BKN250 28/26 A3005
MTN,2019-07-04 09:55,86.00,78.80,79.18,60.00,4.00,0.00,30.04,M,10.00,M,FEW,SCT,SCT,M,4400.00,12000.00,20000.00,M,M,M,M,M,M,M,M,99.38,KMTN 041355Z 06004KT 10SM FEW044 SCT120 SCT200 30/26 A3004
MTN,2019-07-04 10:45,89.60,77.00,66.55,120.00,5.00,0.00,30.05,M,10.00,M,SCT,SCT,SCT,M,4400.00,12000.00,20000.00,M,M,M,M,M,M,M,M,102.54,KMTN 041445Z 12005KT 10SM SCT044 SCT120 SCT200 32/25 A3005
MTN,2019-07-04 11:45,89.60,78.80,70.63,100.00,8.00,0.00,30.06,M,10.00,M,SCT,SCT,M,M,4400.00,20000.00,M,M,M,M,M,M,M,M,M,105.15,KMTN 041545Z 10008KT 10SM SCT044 SCT200 32/26 A3006
MTN,2019-07-04 12:55,91.40,77.00,62.90,130.00,6.00,0.00,30.03,M,10.00,M,SCT,BKN,M,M,4400.00,10000.00,M,M,M,M,M,M,M,M,M,105.06,KMTN 041655Z 13006KT 10SM SCT044 BKN100 33/25 A3003
MTN,2019-07-04 13:25,91.40,77.00,62.90,130.00,6.00,0.00,30.05,M,10.00,M,BKN,BKN,M,M,4000.00,10000.00,M,M,M,M,M,M,M,M,M,105.06,KMTN 041725Z 13006KT 10SM BKN040 BKN100 33/25 A3005 RMK TSB1725 WSW MOV E
MTN,2019-07-04 13:55,87.80,77.00,70.45,160.00,5.00,0.00,30.04,M,10.00,M,BKN,BKN,M,M,4000.00,10000.00,M,M,M,M,M,M,M,M,M,99.92,KMTN 041755Z 16005KT 10SM BKN040 BKN100 31/25 A3004 RMK TS W MOV E
MTN,2019-07-04 14:50,84.20,75.20,74.44,250.00,5.00,0.00,30.04,M,10.00,M,SCT,SCT,BKN,M,2900.00,3700.00,12000.00,M,TS,M,M,M,M,M,M,92.45,KMTN 041850Z 25005KT 10SM TS SCT029 SCT037CB BKN120 29/24 A3004 RMK TS DSNT W-NE LTG DSNT NE CB ALQDS
MTN,2019-07-04 15:35,84.20,75.20,74.44,190.00,3.00,0.00,30.04,M,7.00,M,SCT,SCT,BKN,BKN,3500.00,4200.00,5000.00,12000.00,-DZ,M,M,M,M,M,M,92.45,KMTN 041935Z 19003KT 7SM -DZ SCT035 SCT042 BKN050 BKN120 29/24 A3004 RMK TSB1725E30
MTN,2019-07-04 15:54,82.40,75.20,78.90,0.00,0.00,0.00,30.05,M,7.00,M,SCT,SCT,BKN,BKN,3500.00,4200.00,6500.00,16000.00,-RA,M,M,M,M,M,M,89.48,KMTN 041954Z 00000KT 7SM -RA SCT035 SCT042 BKN065 BKN160 28/24 A3005
MTN,2019-07-04 17:50,80.60,77.00,88.83,130.00,6.00,0.00,30.04,M,10.00,M,BKN,BKN,M,M,4000.00,10000.00,M,M,M,M,M,M,M,M,M,87.10,KMTN 042150Z 13006KT 10SM BKN040 BKN100 27/25 A3004
MTN,2019-07-04 18:45,80.60,75.20,83.66,160.00,6.00,0.00,30.06,M,10.00,M,SCT,BKN,OVC,M,10000.00,16000.00,25000.00,M,M,M,M,M,M,M,M,86.17,KMTN 042245Z 16006KT 10SM SCT100 BKN160 OVC250 27/24 A3006
MTN,2019-07-04 19:45,80.60,77.00,88.83,160.00,3.00,0.00,30.06,M,10.00,M,BKN,OVC,M,M,16000.00,25000.00,M,M,M,M,M,M,M,M,M,87.10,KMTN 042345Z 16003KT 10SM BKN160 OVC250 27/25 A3006
MTN,2019-07-04 20:50,78.80,75.20,88.75,0.00,0.00,0.00,30.08,M,10.00,M,BKN,OVC,M,M,16000.00,25000.00,M,M,M,M,M,M,M,M,M,82.38,KMTN 050050Z 00000KT 10SM BKN160 OVC250 26/24 A3008
MTN,2019-07-04 21:50,78.80,75.20,88.75,0.00,0.00,0.00,30.09,M,10.00,M,SCT,BKN,M,M,3200.00,3800.00,M,M,M,M,M,M,M,M,M,82.38,KMTN 050150Z 00000KT 10SM SCT032 BKN038 26/24 A3009
MTN,2019-07-04 22:03,78.80,75.20,88.75,0.00,0.00,0.00,30.10,M,10.00,M,SCT,SCT,M,M,3200.00,4000.00,M,M,M,M,M,M,M,M,M,82.38,KMTN 050203Z AUTO 00000KT 10SM SCT032 SCT040 26/24 A3010 RMK AO2 LTG DSNT S
MTN,2019-07-04 22:21,78.80,75.20,88.75,0.00,0.00,0.00,30.10,M,10.00,M,CLR,M,M,M,M,M,M,M,M,M,M,M,M,M,M,82.38,KMTN 050221Z AUTO 00000KT 10SM CLR 26/24 A3010 RMK AO2
MTN,2019-07-04 22:42,78.80,73.40,83.55,0.00,0.00,0.00,30.10,M,10.00,M,CLR,M,M,M,M,M,M,M,VCTS,M,M,M,M,M,M,82.03,KMTN 050242Z AUTO 00000KT 10SM VCTS CLR 26/23 A3010 RMK AO2 LTG DSNT S
MTN,2019-07-04 23:03,77.00,73.40,88.67,0.00,0.00,0.00,30.10,M,10.00,M,SCT,M,M,M,2700.00,M,M,M,M,M,M,M,M,M,M,78.57,KMTN 050303Z AUTO 00000KT 10SM SCT027 25/23 A3010 RMK AO2 LTG DSNT S
MTN,2019-07-04 23:21,78.80,75.20,88.75,50.00,3.00,0.00,30.10,M,10.00,M,OVC,M,M,M,2700.00,M,M,M,M,M,M,M,M,M,M,82.38,KMTN 050321Z AUTO 05003KT 10SM OVC027 26/24 A3010 RMK AO2 LTG DSNT S
MTN,2019-07-04 23:42,78.80,75.20,88.75,0.00,0.00,0.00,30.10,M,10.00,M,SCT,BKN,BKN,M,2500.00,3100.00,3700.00,M,M,M,M,M,M,M,M,82.38,KMTN 050342Z AUTO 00000KT 10SM SCT025 BKN031 BKN037 26/24 A3010 RMK AO2 LTG DSNT S
MTN,2019-07-05 00:03,78.80,75.20,88.75,0.00,0.00,0.00,30.10,M,10.00,M,OVC,M,M,M,2300.00,M,M,M,M,M,M,M,M,M,M,82.38,KMTN 050403Z AUTO 00000KT 10SM OVC023 26/24 A3010 RMK AO2 LTG DSNT SE AND S
MTN,2019-07-05 00:21,78.80,75.20,88.75,80.00,4.00,0.00,30.10,M,10.00,M,OVC,M,M,M,2100.00,M,M,M,VCTS,M,M,M,M,M,M,82.38,KMTN 050421Z AUTO 08004KT 10SM VCTS OVC021 26/24 A3010 RMK AO2 LTG DSNT SE
MTN,2019-07-05 00:42,77.00,73.40,88.67,110.00,3.00,0.00,30.10,M,10.00,M,BKN,OVC,M,M,1500.00,2100.00,M,M,M,M,M,M,M,M,M,78.57,KMTN 050442Z AUTO 11003KT 10SM BKN015 OVC021 25/23 A3010 RMK AO2
MTN,2019-07-05 01:03,77.00,73.40,88.67,0.00,0.00,0.00,30.09,M,10.00,M,SCT,SCT,BKN,M,1700.00,2200.00,4300.00,M,M,M,M,M,M,M,M,78.57,KMTN 050503Z AUTO 00000KT 10SM SCT017 SCT022 BKN043 25/23 A3009 RMK AO2
MTN,2019-07-05 01:21,77.00,73.40,88.67,0.00,0.00,0.00,30.10,M,10.00,M,SCT,SCT,SCT,M,4300.00,5000.00,7000.00,M,M,M,M,M,M,M,M,78.57,KMTN 050521Z AUTO 00000KT 10SM SCT043 SCT050 SCT070 25/23 A3010 RMK AO2
MTN,2019-07-05 01:42,77.00,73.40,88.67,0.00,0.00,0.00,30.10,M,10.00,M,BKN,M,M,M,6000.00,M,M,M,VCTS,M,M,M,M,M,M,78.57,KMTN 050542Z AUTO 00000KT 10SM VCTS BKN060 25/23 A3010 RMK AO2 LTG DSNT SW
MTN,2019-07-05 02:03,77.00,73.40,88.67,0.00,0.00,0.00,30.10,M,10.00,M,SCT,M,M,M,6000.00,M,M,M,M,M,M,M,M,M,M,78.57,KMTN 050603Z AUTO 00000KT 10SM SCT060 25/23 A3010 RMK AO2
MTN,2019-07-05 02:21,77.00,73.40,88.67,0.00,0.00,0.00,30.10,M,10.00,M,SCT,SCT,M,M,9500.00,12000.00,M,M,M,M,M,M,M,M,M,78.57,KMTN 050621Z AUTO 00000KT 10SM SCT095 SCT120 25/23 A3010 RMK AO2
MTN,2019-07-05 02:42,77.00,73.40,88.67,0.00,0.00,0.00,30.10,M,10.00,M,SCT,SCT,SCT,M,3100.00,9500.00,12000.00,M,M,M,M,M,M,M,M,78.57,KMTN 050642Z AUTO 00000KT 10SM SCT031 SCT095 SCT120 25/23 A3010 RMK AO2
MTN,2019-07-05 03:03,77.00,73.40,88.67,0.00,0.00,0.00,30.10,M,10.00,M,CLR,M,M,M,M,M,M,M,M,M,M,M,M,M,M,78.57,KMTN 050703Z AUTO 00000KT 10SM CLR 25/23 A3010 RMK AO2
MTN,2019-07-05 03:21,75.20,73.40,94.14,0.00,0.00,0.00,30.10,M,10.00,M,SCT,M,M,M,7500.00,M,M,M,M,M,M,M,M,M,M,76.84,KMTN 050721Z AUTO 00000KT 10SM SCT075 24/23 A3010 RMK AO2
MTN,2019-07-05 03:42,77.00,73.40,88.67,0.00,0.00,0.00,30.10,M,10.00,M,SCT,BKN,M,M,7500.00,9000.00,M,M,M,M,M,M,M,M,M,78.57,KMTN 050742Z AUTO 00000KT 10SM SCT075 BKN090 25/23 A3010 RMK AO2
MTN,2019-07-05 04:03,77.00,73.40,88.67,0.00,0.00,0.00,30.11,M,10.00,M,SCT,SCT,OVC,M,6000.00,7500.00,9000.00,M,M,M,M,M,M,M,M,78.57,KMTN 050803Z AUTO 00000KT 10SM SCT060 SCT075 OVC090 25/23 A3011 RMK AO2
MTN,2019-07-05 04:21,75.20,75.20,100.00,0.00,0.00,0.00,30.11,M,10.00,M,SCT,BKN,BKN,M,2000.00,6000.00,9000.00,M,M,M,M,M,M,M,M,77.12,KMTN 050821Z AUTO 00000KT 10SM SCT020 BKN060 BKN090 24/24 A3011 RMK AO2
MTN,2019-07-05 04:42,77.00,75.20,94.19,80.00,3.00,0.00,30.11,M,10.00,M,SCT,BKN,BKN,M,900.00,2000.00,4900.00,M,M,M,M,M,M,M,M,78.83,KMTN 050842Z AUTO 08003KT 10SM SCT009 BKN020 BKN049 25/24 A3011 RMK AO2
MTN,2019-07-05 05:03,77.00,77.00,100.00,90.00,3.00,0.00,30.11,M,7.00,M,SCT,BKN,OVC,M,700.00,1100.00,1800.00,M,M,M,M,M,M,M,M,77.00,KMTN 050903Z AUTO 09003KT 7SM SCT007 BKN011 OVC018 25/25 A3011 RMK AO2
MTN,2019-07-05 05:21,77.00,77.00,100.00,80.00,3.00,0.00,30.11,M,5.00,M,BKN,OVC,M,M,700.00,1400.00,M,M,BR,M,M,M,M,M,M,77.00,KMTN 050921Z AUTO 08003KT 5SM BR BKN007 OVC014 25/25 A3011 RMK AO2
MTN,2019-07-05 05:30,77.00,77.00,100.00,80.00,5.00,0.00,30.11,M,5.00,M,BKN,BKN,OVC,M,700.00,1100.00,1600.00,M,BR,M,M,M,M,M,M,77.00,KMTN 050930Z AUTO 08005KT 5SM BR BKN007 BKN011 OVC016 25/25 A3011 RMK AO2
MTN,2019-07-05 05:45,78.80,78.80,100.00,0.00,0.00,0.00,30.11,M,2.50,M,OVC,M,M,M,500.00,M,M,M,BR,M,M,M,M,M,M,83.15,KMTN 050945Z 00000KT 2 1/2SM BR OVC005 26/26 A3011
MTN,2019-07-05 06:45,78.80,78.80,100.00,90.00,5.00,0.00,30.12,M,2.00,M,BKN,OVC,M,M,700.00,1600.00,M,M,BR,M,M,M,M,M,M,83.15,KMTN 051045Z 09005KT 2SM BR BKN007 OVC016 26/26 A3012
MTN,2019-07-05 07:45,78.80,78.80,100.00,110.00,5.00,0.00,30.13,M,5.00,M,BKN,OVC,M,M,700.00,1200.00,M,M,BR,M,M,M,M,M,M,83.15,KMTN 051145Z 11005KT 5SM BR BKN007 OVC012 26/26 A3013
MTN,2019-07-05 09:45,80.60,77.00,88.83,130.00,3.00,0.00,30.13,M,7.00,M,OVC,M,M,M,1500.00,M,M,M,M,M,M,M,M,M,M,87.10,KMTN 051345Z 13003KT 7SM OVC015 27/25 A3013
MTN,2019-07-05 10:45,84.20,78.80,83.88,130.00,5.00,0.00,30.13,M,7.00,M,OVC,M,M,M,2600.00,M,M,M,M,M,M,M,M,M,M,96.10,KMTN 051445Z 13005KT 7SM OVC026 29/26 A3013
MTN,2019-07-05 11:45,84.20,78.80,83.88,130.00,6.00,0.00,30.13,M,10.00,M,SCT,BKN,BKN,M,3000.00,10000.00,16000.00,M,M,M,M,M,M,M,M,96.10,KMTN 051545Z 13006KT 10SM SCT030 BKN100 BKN160 29/26 A3013
MTN,2019-07-05 12:45,87.80,78.80,74.77,120.00,6.00,0.00,30.12,M,10.00,M,BKN,M,M,M,3000.00,M,M,M,M,M,M,M,M,M,M,102.37,KMTN 051645Z 12006KT 10SM BKN030 31/26 A3012
MTN,2019-07-05 13:45,87.80,75.20,66.35,130.00,6.00,0.00,30.11,M,10.00,M,SCT,M,M,M,3000.00,M,M,M,M,M,M,M,M,M,M,97.76,KMTN 051745Z 13006KT 10SM SCT030 31/24 A3011
MTN,2019-07-05 14:54,89.60,78.80,70.63,150.00,7.00,0.00,30.08,M,10.00,M,SCT,M,M,M,3000.00,M,M,M,M,M,M,M,M,M,M,105.15,KMTN 051854Z 15007KT 10SM SCT030 32/26 A3008
MTN,2019-07-05 15:45,89.60,77.00,66.55,140.00,8.00,0.00,30.07,M,10.00,M,SCT,SCT,M,M,3400.00,12000.00,M,M,M,M,M,M,M,M,M,102.54,KMTN 051945Z 14008KT 10SM SCT034 SCT120 32/25 A3007
MTN,2019-07-05 16:45,89.60,78.80,70.63,150.00,7.00,0.00,30.05,M,10.00,M,SCT,M,M,M,12000.00,M,M,M,M,M,M,M,M,M,M,105.15,KMTN 052045Z 15007KT 10SM SCT120 32/26 A3005
MTN,2019-07-05 17:45,89.60,78.80,70.63,160.00,8.00,0.00,30.04,M,10.00,M,SCT,M,M,M,13000.00,M,M,M,M,M,M,M,M,M,M,105.15,KMTN 052145Z 16008KT 10SM SCT130 32/26 A3004
MTN,2019-07-05 18:45,86.00,77.00,74.61,140.00,7.00,0.00,30.04,M,10.00,M,SCT,SCT,M,M,4500.00,12000.00,M,M,M,M,M,M,M,M,M,97.15,KMTN 052245Z 14007KT 10SM SCT045TCU SCT120 30/25 A3004 RMK TCU NE-SE AND SW-W
MTN,2019-07-05 19:54,84.20,77.00,79.04,160.00,8.00,0.00,30.05,M,10.00,M,SCT,SCT,M,M,4700.00,12000.00,M,M,M,M,M,M,M,M,M,94.16,KMTN 052354Z 16008KT 10SM SCT047CB SCT120 29/25 A3005 RMK CB W-NW MOV N TCU DSNT N-NE
MTN,2019-07-05 20:45,84.20,77.00,79.04,180.00,4.00,0.00,30.05,M,M,M,SCT,BKN,M,M,3800.00,4900.00,M,M,M,M,M,M,M,M,M,94.16,KMTN 060045Z 18004KT 10 SCT038 BKN049 29/25 A3005
MTN,2019-07-05 21:45,84.20,78.80,83.88,150.00,7.00,0.00,30.06,M,10.00,M,SCT,SCT,BKN,M,5500.00,6500.00,10000.00,M,M,M,M,M,M,M,M,96.10,KMTN 060145Z 15007KT 10SM SCT055 SCT065 BKN100 29/26 A3006 RMK LAST
MTN,2019-07-05 22:03,82.40,78.80,88.90,170.00,4.00,0.00,30.06,M,10.00,M,SCT,BKN,BKN,M,4300.00,4900.00,11000.00,M,M,M,M,M,M,M,M,92.40,KMTN 060203Z AUTO 17004KT 10SM SCT043 BKN049 BKN110 28/26 A3006 RMK AO2 LTG DSNT NW
MTN,2019-07-05 22:21,82.40,78.80,88.90,170.00,4.00,0.00,30.06,M,10.00,M,SCT,SCT,SCT,M,4300.00,4900.00,6000.00,M,M,M,M,M,M,M,M,92.40,KMTN 060221Z AUTO 17004KT 10SM SCT043 SCT049 SCT060 28/26 A3006 RMK AO2
MTN,2019-07-05 22:42,82.40,78.80,88.90,170.00,4.00,0.00,30.05,M,10.00,M,SCT,M,M,M,6000.00,M,M,M,M,M,M,M,M,M,M,92.40,KMTN 060242Z AUTO 17004KT 10SM SCT060 28/26 A3005 RMK AO2
MTN,2019-07-05 23:03,82.40,78.80,88.90,0.00,0.00,0.00,30.05,M,10.00,M,CLR,M,M,M,M,M,M,M,M,M,M,M,M,M,M,92.40,KMTN 060303Z AUTO 00000KT 10SM CLR 28/26 A3005 RMK AO2
MTN,2019-07-05 23:21,82.40,78.80,88.90,170.00,5.00,0.00,30.04,M,10.00,M,CLR,M,M,M,M,M,M,M,M,M,M,M,M,M,M,92.40,KMTN 060321Z AUTO 17005KT 10SM CLR 28/26 A3004 RMK AO2
MTN,2019-07-05 23:42,82.40,78.80,88.90,170.00,6.00,0.00,30.04,M,10.00,M,CLR,M,M,M,M,M,M,M,M,M,M,M,M,M,M,92.40,KMTN 060342Z AUTO 17006KT 10SM CLR 28/26 A3004 RMK AO2
MTN,2019-07-06 00:03,82.40,78.80,88.90,200.00,4.00,0.00,30.04,M,10.00,M,CLR,M,M,M,M,M,M,M,M,M,M,M,M,M,M,92.40,KMTN 060403Z AUTO 20004KT 10SM CLR 28/26 A3004 RMK AO2
MTN,2019-07-06 00:21,80.60,78.80,94.27,0.00,0.00,0.00,30.04,M,10.00,M,CLR,M,M,M,M,M,M,M,M,M,M,M,M,M,M,89.33,KMTN 060421Z AUTO 00000KT 10SM CLR 27/26 A3004 RMK AO2
MTN,2019-07-06 00:42,80.60,78.80,94.27,0.00,0.00,0.00,30.04,M,10.00,M,CLR,M,M,M,M,M,M,M,M,M,M,M,M,M,M,89.33,KMTN 060442Z AUTO 00000KT 10SM CLR 27/26 A3004 RMK AO2
MTN,2019-07-06 01:03,77.00,75.20,94.19,290.00,4.00,0.00,30.04,M,10.00,M,CLR,M,M,M,M,M,M,M,M,M,M,M,M,M,M,78.83,KMTN 060503Z AUTO 29004KT 10SM CLR 25/24 A3004 RMK AO2
MTN,2019-07-06 01:21,77.00,75.20,94.19,300.00,3.00,0.00,30.03,M,10.00,M,CLR,M,M,M,M,M,M,M,M,M,M,M,M,M,M,78.83,KMTN 060521Z AUTO 30003KT 10SM CLR 25/24 A3003 RMK AO2
MTN,2019-07-06 01:42,77.00,75.20,94.19,0.00,0.00,0.00,30.03,M,10.00,M,CLR,M,M,M,M,M,M,M,M,M,M,M,M,M,M,78.83,KMTN 060542Z AUTO 00000KT 10SM CLR 25/24 A3003 RMK AO2
MTN,2019-07-06 02:03,77.00,75.20,94.19,0.00,0.00,0.00,30.02,M,10.00,M,CLR,M,M,M,M,M,M,M,M,M,M,M,M,M,M,78.83,KMTN 060603Z AUTO 00000KT 10SM CLR 25/24 A3002 RMK AO2
MTN,2019-07-06 02:21,77.00,75.20,94.19,0.00,0.00,0.00,30.02,M,10.00,M,CLR,M,M,M,M,M,M,M,M,M,M,M,M,M,M,78.83,KMTN 060621Z AUTO 00000KT 10SM CLR 25/24 A3002 RMK AO2
MTN,2019-07-06 02:42,77.00,75.20,94.19,0.00,0.00,0.00,30.00,M,10.00,M,CLR,M,M,M,M,M,M,M,M,M,M,M,M,M,M,78.83,KMTN 060642Z AUTO 00000KT 10SM CLR 25/24 A3000 RMK AO2
MTN,2019-07-06 03:03,77.00,77.00,100.00,0.00,0.00,0.00,30.00,M,10.00,M,CLR,M,M,M,M,M,M,M,M,M,M,M,M,M,M,77.00,KMTN 060703Z AUTO 00000KT 10SM CLR 25/25 A3000 RMK AO2
MTN,2019-07-06 03:21,77.00,77.00,100.00,0.00,0.00,0.00,29.99,M,10.00,M,CLR,M,M,M,M,M,M,M,M,M,M,M,M,M,M,77.00,KMTN 060721Z AUTO 00000KT 10SM CLR 25/25 A2999 RMK AO2
MTN,2019-07-06 03:42,77.00,77.00,100.00,0.00,0.00,0.00,29.99,M,10.00,M,CLR,M,M,M,M,M,M,M,M,M,M,M,M,M,M,77.00,KMTN 060742Z AUTO 00000KT 10SM CLR 25/25 A2999 RMK AO2
MTN,2019-07-06 04:03,77.00,77.00,100.00,0.00,0.00,0.00,29.99,M,10.00,M,CLR,M,M,M,M,M,M,M,M,M,M,M,M,M,M,77.00,KMTN 060803Z AUTO 00000KT 10SM CLR 25/25 A2999 RMK AO2
MTN,2019-07-06 04:21,75.20,75.20,100.00,0.00,0.00,0.00,29.99,M,10.00,M,CLR,M,M,M,M,M,M,M,M,M,M,M,M,M,M,77.12,KMTN 060821Z AUTO 00000KT 10SM CLR 24/24 A2999 RMK AO2
MTN,2019-07-06 04:42,75.20,75.20,100.00,0.00,0.00,0.00,29.99,M,10.00,M,CLR,M,M,M,M,M,M,M,M,M,M,M,M,M,M,77.12,KMTN 060842Z AUTO 00000KT 10SM CLR 24/24 A2999 RMK AO2
MTN,2019-07-06 05:03,75.20,75.20,100.00,0.00,0.00,0.00,29.99,M,10.00,M,SCT,M,M,M,4000.00,M,M,M,M,M,M,M,M,M,M,77.12,KMTN 060903Z AUTO 00000KT 10SM SCT040 24/24 A2999 RMK AO2
MTN,2019-07-06 05:21,75.20,75.20,100.00,0.00,0.00,0.00,29.99,M,10.00,M,BKN,BKN,M,M,4000.00,4900.00,M,M,M,M,M,M,M,M,M,77.12,KMTN 060921Z AUTO 00000KT 10SM BKN040 BKN049 24/24 A2999 RMK AO2
MTN,2019-07-06 05:45,75.20,75.20,100.00,0.00,0.00,0.00,29.99,M,10.00,M,SCT,M,M,M,4000.00,M,M,M,M,M,M,M,M,M,M,77.12,KMTN 060945Z 00000KT 10SM SCT040 24/24 A2999 RMK FIRST
MTN,2019-07-06 06:50,78.80,77.00,94.23,0.00,0.00,0.00,30.01,M,10.00,M,BKN,M,M,M,4000.00,M,M,M,M,M,M,M,M,M,M,82.75,KMTN 061050Z 00000KT 10SM BKN040 26/25 A3001
MTN,2019-07-06 07:45,80.60,78.80,94.27,0.00,0.00,0.00,30.01,M,10.00,M,SCT,BKN,M,M,3500.00,4400.00,M,M,M,M,M,M,M,M,M,89.33,KMTN 061145Z 00000KT 10SM SCT035 BKN044 27/26 A3001
MTN,2019-07-06 08:45,80.60,78.80,94.27,0.00,0.00,0.00,30.00,M,10.00,M,SCT,BKN,M,M,3500.00,10000.00,M,M,M,M,M,M,M,M,M,89.33,KMTN 061245Z 00000KT 10SM SCT035 BKN100 27/26 A3000
MTN,2019-07-06 09:54,84.20,78.80,83.88,140.00,4.00,0.00,29.99,M,10.00,M,SCT,SCT,M,M,2000.00,15000.00,M,M,M,M,M,M,M,M,M,96.10,KMTN 061354Z 14004KT 10SM SCT020 SCT150 29/26 A2999
MTN,2019-07-06 10:45,87.80,78.80,74.77,180.00,6.00,0.00,29.99,M,10.00,M,SCT,SCT,M,M,2500.00,15000.00,M,M,M,M,M,M,M,M,M,102.37,KMTN 061445Z 18006KT 10SM SCT025 SCT150 31/26 A2999
MTN,2019-07-06 11:45,87.80,80.60,79.31,140.00,8.00,0.00,29.97,M,10.00,M,SCT,BKN,M,M,3000.00,4000.00,M,M,M,M,M,M,M,M,M,105.14,KMTN 061545Z 14008KT 10SM SCT030 BKN040 31/27 A2997
MTN,2019-07-06 12:50,89.60,80.60,74.93,150.00,11.00,0.00,29.95,M,10.00,M,BKN,BKN,BKN,M,3500.00,5000.00,7000.00,M,M,M,M,M,M,M,M,108.11,KMTN 061650Z 15011KT 10SM BKN035CB BKN050 BKN070 32/27 A2995 RMK LTG DSNT S CB ALQDS
MTN,2019-07-06 13:45,84.20,78.80,83.88,170.00,11.00,0.00,29.92,M,10.00,M,SCT,BKN,BKN,M,4500.00,6000.00,8500.00,M,M,M,M,M,M,M,M,96.10,KMTN 061745Z 17011KT 10SM SCT045TCU BKN060 BKN085 29/26 A2992 RMK TCU OHD AND ALQDS
MTN,2019-07-06 14:45,91.40,80.60,70.81,160.00,13.00,0.00,29.89,M,10.00,M,SCT,SCT,BKN,M,5000.00,9000.00,11000.00,M,M,M,M,M,M,M,M,110.88,KMTN 061845Z 16013KT 10SM SCT050TCU SCT090 BKN110 33/27 A2989 RMK TCU OHD AND ALQDS LTG DSNT S
MTN,2019-07-06 15:45,91.40,80.60,70.81,160.00,12.00,0.00,29.87,M,10.00,M,SCT,SCT,BKN,M,4600.00,9000.00,25000.00,M,M,M,M,M,M,M,M,110.88,KMTN 061945Z 16012KT 10SM SCT046TCU SCT090 BKN250 33/27 A2987 RMK TCU ODH AND ALQDS LTG DSNT S
MTN,2019-07-06 16:45,87.80,78.80,74.77,180.00,9.00,0.00,29.87,M,10.00,M,SCT,BKN,BKN,M,5000.00,6000.00,25000.00,M,M,M,M,M,M,M,M,102.37,KMTN 062045Z 18009KT 10SM SCT050CB BKN060TCU BKN250 31/26 A2987 RMK CB OHD AND SW-N MOV SE TCU OHD AND ALQDS LTG DSNT N
MTN,2019-07-06 17:26,91.40,78.80,66.75,150.00,6.00,0.00,29.86,M,10.00,M,SCT,SCT,SCT,M,3500.00,6000.00,11000.00,M,M,M,M,M,M,M,M,107.79,KMTN 062126Z 15006KT 10SM SCT035TCU SCT060 SCT110 33/26 A2986 RMK TCU OHD AND ALQDS LTG DSNT S
MTN,2019-07-06 17:54,89.60,80.60,74.93,150.00,9.00,0.00,29.85,M,10.00,M,SCT,SCT,BKN,M,6000.00,13000.00,25000.00,M,M,M,M,M,M,M,M,108.11,KMTN 062154Z 15009KT 130V190 10SM SCT060TCU SCT130 BKN250 32/27 A2985 RMK TCU ALQDS LTG DSNT N-NE AND S
MTN,2019-07-06 18:45,87.80,80.60,79.31,140.00,4.00,0.00,29.86,M,10.00,M,SCT,SCT,BKN,M,4600.00,5000.00,7000.00,M,M,M,M,M,M,M,M,105.14,KMTN 062245Z 14004KT 10SM SCT046CB SCT050 BKN070TCU 31/27 A2986 RMK CB OHD AND W MOV SE TCU ALQDS
MTN,2019-07-06 19:54,84.20,80.60,88.98,150.00,5.00,0.00,29.86,M,10.00,M,SCT,BKN,M,M,5000.00,7000.00,M,M,M,M,M,M,M,M,M,98.28,KMTN 062354Z 15005KT 10SM SCT050CB BKN070TCU 29/27 A2986 RMK CH OHD AND NW MOV SE TCU OHD AND ALQDS LTG DSNT NE
MTN,2019-07-06 20:12,84.20,80.60,88.98,310.00,7.00,0.00,29.87,M,10.00,M,SCT,BKN,BKN,M,5000.00,6000.00,7000.00,M,M,M,M,M,M,M,M,98.28,KMTN 070012Z 31007KT 10SM SCT050CB BKN060 BKN070TCU 29/27 A2987 RMK CB OHD AND W-NE MOV SE TCU OHD AND ALQDS LTG DSNT NE AND E
MTN,2019-07-06 20:18,84.20,80.60,88.98,320.00,20.00,0.00,29.87,M,10.00,29.00,SCT,BKN,BKN,M,3300.00,5000.00,7000.00,M,TS,M,M,M,M,M,M,98.28,KMTN 070018Z 32020G29KT 10SM TS SCT033CB BKN050 BKN070TCU 29/27 A2987 RMK TSB18 CB OHD AND W-NE MOV SE TCU OHD AND ALQDS OCNL LTGICCG ALQDS TS SW MOV E
MTN,2019-07-06 20:38,82.40,73.40,74.28,320.00,9.00,0.00,29.87,M,10.00,20.00,SCT,BKN,BKN,M,3300.00,5000.00,7000.00,M,TS,M,M,M,M,M,M,88.26,KMTN 070038Z 32009G20KT 10SM TS SCT033CB BKN050 BKN070TCU 28/23 A2987 RMK TSB18 CONS LTGICCG ALQDS TS W-E MOV SE CB OHD AND ALQDS MOV SE TCU OHD AND ALQDS
MTN,2019-07-06 20:54,82.40,73.40,74.28,310.00,9.00,0.00,29.89,M,10.00,17.00,SCT,SCT,SCT,M,5000.00,9000.00,11000.00,M,TS,M,M,M,M,M,M,88.26,KMTN 070054Z 31009G17KT 10SM TS SCT050CB SCT090 SCT110 28/23 A2989 RMK TSB18 CONS LTGICCG ALQDS CB OHD AND ALQDS MOV SE TS NW-E MOV SE
MTN,2019-07-06 21:22,82.40,71.60,69.90,240.00,10.00,0.00,29.93,M,10.00,15.00,BKN,BKN,OVC,M,3600.00,7000.00,9000.00,M,-TSRA,M,M,M,M,M,M,87.18,KMTN 070122Z 24010G15KT 10SM -TSRA BKN036CB BKN070 OVC090 28/22 A2993 RMK TSB0018 CONS LTGICCG ALQDS TS W-SE MOV SE CB OHD AND ALQDS
MTN,2019-07-06 21:45,78.80,73.40,83.55,290.00,9.00,0.00,29.91,M,6.00,M,SCT,SCT,BKN,M,3400.00,8500.00,11000.00,M,-TSRA,M,M,M,M,M,M,82.03,KMTN 070145Z 29009KT 6SM -TSRA SCT034CB SCT085 BKN110 26/23 A2991 RMK TSB0018 OCNL LTGICCG SW-E CB OHD AND ALQDS TS SW-E MOV SE RAB22
MTN,2019-07-06 22:03,75.20,73.40,94.14,290.00,7.00,0.01,29.90,M,10.00,M,SCT,M,M,M,12000.00,M,M,M,RA,M,M,M,M,M,M,76.84,KMTN 070203Z AUTO 29007KT 10SM RA SCT120 24/23 A2990 RMK AO2 P0001 LTG DSNT E AND SW
MTN,2019-07-06 22:21,73.40,73.40,100.00,300.00,4.00,0.04,29.89,M,10.00,M,CLR,M,M,M,M,M,M,M,RA,M,M,M,M,M,M,75.14,KMTN 070221Z AUTO 30004KT 10SM RA CLR 23/23 A2989 RMK AO2 P0004
MTN,2019-07-06 22:42,73.40,73.40,100.00,0.00,0.00,0.04,29.90,M,10.00,M,CLR,M,M,M,M,M,M,M,RA,M,M,M,M,M,M,75.14,KMTN 070242Z AUTO 00000KT 10SM RA CLR 23/23 A2990 RMK AO2 P0004 LTG DSNT E AND S
MTN,2019-07-06 23:03,75.20,73.40,94.14,240.00,3.00,0.00,29.91,M,10.00,M,CLR,M,M,M,M,M,M,M,M,M,M,M,M,M,M,76.84,KMTN 070303Z AUTO 24003KT 10SM CLR 24/23 A2991 RMK AO2 LTG DSNT S
MTN,2019-07-06 23:21,73.40,73.40,100.00,0.00,0.00,0.00,29.92,M,10.00,M,CLR,M,M,M,M,M,M,M,M,M,M,M,M,M,M,75.14,KMTN 070321Z AUTO 00000KT 10SM CLR 23/23 A2992 RMK AO2 LTG DSNT S
MTN,2019-07-06 23:42,73.40,73.40,100.00,0.00,0.00,0.00,29.91,M,10.00,M,CLR,M,M,M,M,M,M,M,M,M,M,M,M,M,M,75.14,KMTN 070342Z AUTO 00000KT 10SM CLR 23/23 A2991 RMK AO2
MTN,2019-07-07 00:03,73.40,73.40,100.00,0.00,0.00,0.00,29.91,M,10.00,M,CLR,M,M,M,M,M,M,M,M,M,M,M,M,M,M,75.14,KMTN 070403Z AUTO 00000KT 10SM CLR 23/23 A2991 RMK AO2 LTG DSNT S
MTN,2019-07-07 00:21,75.20,75.20,100.00,230.00,3.00,0.00,29.91,M,10.00,M,CLR,M,M,M,M,M,M,M,M,M,M,M,M,M,M,77.12,KMTN 070421Z AUTO 23003KT 10SM CLR 24/24 A2991 RMK AO2 LTG DSNT S
MTN,2019-07-07 00:42,75.20,75.20,100.00,240.00,3.00,0.00,29.92,M,10.00,M,CLR,M,M,M,M,M,M,M,M,M,M,M,M,M,M,77.12,KMTN 070442Z AUTO 24003KT 10SM CLR 24/24 A2992 RMK AO2 LTG DSNT E
MTN,2019-07-07 01:03,73.40,73.40,100.00,260.00,3.00,0.00,29.91,M,10.00,M,CLR,M,M,M,M,M,M,M,M,M,M,M,M,M,M,75.14,KMTN 070503Z AUTO 26003KT 10SM CLR 23/23 A2991 RMK AO2
MTN,2019-07-07 01:21,73.40,73.40,100.00,290.00,3.00,0.00,29.90,M,10.00,M,CLR,M,M,M,M,M,M,M,M,M,M,M,M,M,M,75.14,KMTN 070521Z AUTO 29003KT 10SM CLR 23/23 A2990 RMK AO2
MTN,2019-07-07 01:42,73.40,73.40,100.00,280.00,4.00,0.00,29.89,M,10.00,M,CLR,M,M,M,M,M,M,M,M,M,M,M,M,M,M,75.14,KMTN 070542Z AUTO 28004KT 10SM CLR 23/23 A2989 RMK AO2
MTN,2019-07-07 02:03,73.40,73.40,100.00,300.00,3.00,0.00,29.89,M,10.00,M,CLR,M,M,M,M,M,M,M,M,M,M,M,M,M,M,75.14,KMTN 070603Z AUTO 30003KT 10SM CLR 23/23 A2989 RMK AO2
MTN,2019-07-07 02:21,73.40,73.40,100.00,0.00,0.00,0.01,29.89,M,10.00,M,CLR,M,M,M,M,M,M,M,M,M,M,M,M,M,M,75.14,KMTN 070621Z AUTO 00000KT 10SM CLR 23/23 A2989 RMK AO2 P0001
MTN,2019-07-07 02:42,73.40,73.40,100.00,300.00,3.00,0.01,29.88,M,10.00,M,CLR,M,M,M,M,M,M,M,M,M,M,M,M,M,M,75.14,KMTN 070642Z AUTO 30003KT 10SM CLR 23/23 A2988 RMK AO2 P0001 LTG DSNT S
MTN,2019-07-07 03:03,73.40,73.40,100.00,300.00,5.00,0.00,29.88,M,10.00,M,CLR,M,M,M,M,M,M,M,M,M,M,M,M,M,M,75.14,KMTN 070703Z AUTO 30005KT 10SM CLR 23/23 A2988 RMK AO2
MTN,2019-07-07 03:21,73.40,73.40,100.00,0.00,0.00,0.00,29.87,M,10.00,M,CLR,M,M,M,M,M,M,M,M,M,M,M,M,M,M,75.14,KMTN 070721Z AUTO 00000KT 10SM CLR 23/23 A2987 RMK AO2
MTN,2019-07-07 03:42,71.60,71.60,100.00,0.00,0.00,0.00,29.88,M,10.00,M,CLR,M,M,M,M,M,M,M,M,M,M,M,M,M,M,73.16,KMTN 070742Z AUTO 00000KT 10SM CLR 22/22 A2988 RMK AO2
MTN,2019-07-07 04:03,71.60,71.60,100.00,0.00,0.00,0.00,29.88,M,10.00,M,CLR,M,M,M,M,M,M,M,M,M,M,M,M,M,M,73.16,KMTN 070803Z AUTO 00000KT 10SM CLR 22/22 A2988 RMK AO2
MTN,2019-07-07 04:21,71.60,71.60,100.00,0.00,0.00,0.00,29.87,M,10.00,M,CLR,M,M,M,M,M,M,M,M,M,M,M,M,M,M,73.16,KMTN 070821Z AUTO 00000KT 10SM CLR 22/22 A2987 RMK AO2
MTN,2019-07-07 04:42,71.60,71.60,100.00,0.00,0.00,0.00,29.87,M,10.00,M,CLR,M,M,M,M,M,M,M,M,M,M,M,M,M,M,73.16,KMTN 070842Z AUTO 00000KT 10SM CLR 22/22 A2987 RMK AO2
MTN,2019-07-07 05:03,71.60,71.60,100.00,0.00,0.00,0.00,29.88,M,10.00,M,CLR,M,M,M,M,M,M,M,M,M,M,M,M,M,M,73.16,KMTN 070903Z AUTO 00000KT 10SM CLR 22/22 A2988 RMK AO2
MTN,2019-07-07 05:21,71.60,71.60,100.00,290.00,3.00,0.00,29.89,M,10.00,M,CLR,M,M,M,M,M,M,M,M,M,M,M,M,M,M,73.16,KMTN 070921Z AUTO 29003KT 10SM CLR 22/22 A2989 RMK AO2
MTN,2019-07-07 05:30,71.60,71.60,100.00,290.00,3.00,0.00,29.89,M,10.00,M,CLR,M,M,M,M,M,M,M,M,M,M,M,M,M,M,73.16,KMTN 070930Z AUTO 29003KT 10SM CLR 22/22 A2989 RMK AO2
MTN,2019-07-07 05:50,73.40,73.40,100.00,320.00,3.00,0.00,29.90,M,10.00,M,SCT,SCT,M,M,16000.00,25000.00,M,M,M,M,M,M,M,M,M,75.14,KMTN 070950Z 32003KT 10SM SCT160 SCT250 23/23 A2990
MTN,2019-07-07 06:54,75.20,73.40,94.14,320.00,3.00,0.00,29.92,M,10.00,M,SCT,BKN,M,M,16000.00,25000.00,M,M,M,M,M,M,M,M,M,76.84,KMTN 071054Z 32003KT 10SM SCT160 BKN250 24/23 A2992
MTN,2019-07-07 07:45,75.20,73.40,94.14,300.00,5.00,0.00,29.92,M,10.00,M,BKN,M,M,M,20000.00,M,M,M,M,M,M,M,M,M,M,76.84,KMTN 071145Z 30005KT 10SM BKN200 24/23 A2992
MTN,2019-07-07 08:45,80.60,75.20,83.66,320.00,5.00,0.00,29.92,M,10.00,M,FEW,SCT,BKN,M,2000.00,18000.00,20000.00,M,M,M,M,M,M,M,M,86.17,KMTN 071245Z 32005KT 10SM FEW020 SCT180 BKN200 27/24 A2992
MTN,2019-07-07 09:45,80.60,75.20,83.66,40.00,4.00,0.00,29.92,M,10.00,M,BKN,BKN,BKN,M,1900.00,17000.00,25000.00,M,M,M,M,M,M,M,M,86.17,KMTN 071345Z 04004KT 10SM BKN019 BKN170 BKN250 27/24 A2992
MTN,2019-07-07 10:45,82.40,75.20,78.90,0.00,0.00,0.00,29.93,M,10.00,M,SCT,BKN,M,M,2100.00,2600.00,M,M,M,M,M,M,M,M,M,89.48,KMTN 071445Z 00000KT 10SM SCT021 BKN026 28/24 A2993
MTN,2019-07-07 11:45,82.40,75.20,78.90,60.00,3.00,0.00,29.93,M,10.00,M,BKN,BKN,M,M,2600.00,3300.00,M,M,M,M,M,M,M,M,M,89.48,KMTN 071545Z 06003KT 10SM BKN026 BKN033 28/24 A2993
MTN,2019-07-07 12:54,82.40,77.00,83.77,150.00,5.00,0.00,29.94,M,10.00,M,BKN,BKN,BKN,M,2500.00,14000.00,17000.00,M,M,M,M,M,M,M,M,90.85,KMTN 071654Z 15005KT 10SM BKN025 BKN140 BKN170 28/25 A2994
MTN,2019-07-07 13:45,84.20,82.40,94.35,160.00,5.00,0.00,29.91,M,10.00,M,SCT,BKN,M,M,2400.00,14000.00,M,M,M,M,M,M,M,M,M,100.74,KMTN 071745Z 16005KT 10SM SCT024 BKN140 29/28 A2991
MTN,2019-07-07 14:45,86.00,77.00,74.61,120.00,3.00,0.00,29.88,M,10.00,M,SCT,SCT,BKN,BKN,3000.00,4500.00,15000.00,20000.00,M,M,M,M,M,M,M,97.15,KMTN 071845Z 12003KT 10SM SCT030 SCT045 BKN150 BKN200 30/25 A2988
MTN,2019-07-07 15:45,87.80,78.80,74.77,120.00,7.00,0.00,29.87,M,10.00,M,SCT,BKN,BKN,M,3000.00,15000.00,20000.00,M,M,M,M,M,M,M,M,102.37,KMTN 071945Z 12007KT 10SM SCT030TCU BKN150 BKN200 31/26 A2987 RMK TCU DSNT NW AND E
MTN,2019-07-07 16:45,89.60,75.20,62.68,120.00,8.00,0.00,29.86,M,10.00,M,SCT,SCT,SCT,M,3000.00,7000.00,15000.00,M,M,M,M,M,M,M,M,100.23,KMTN 072045Z 12008KT 10SM SCT030TCU SCT070 SCT150 32/24 A2986 RMK TCU OHD AND NW-E
MTN,2019-07-07 17:45,80.60,78.80,94.27,110.00,9.00,0.00,29.88,M,4.00,14.00,SCT,SCT,BKN,M,2600.00,3200.00,4600.00,M,M,M,M,M,M,M,M,89.33,KMTN 072145Z 11009G14KT 4SM SCT026 SCT32 BKN046 27/26 A2988
MTN,2019-07-07 18:45,78.80,77.00,94.23,100.00,6.00,0.00,29.87,M,10.00,M,SCT,BKN,BKN,M,5000.00,9000.00,11000.00,M,M,M,M,M,M,M,M,82.75,KMTN 072245Z 10006KT 10SM SCT050 BKN090 BKN110 26/25 A2987
MTN,2019-07-07 19:45,78.80,77.00,94.23,90.00,5.00,0.00,29.88,M,10.00,M,SCT,BKN,M,M,3600.00,12000.00,M,M,M,M,M,M,M,M,M,82.75,KMTN 072345Z 09005KT 10SM SCT036 BKN120 26/25 A2988
MTN,2019-07-07 20:45,78.80,77.00,94.23,110.00,4.00,0.00,29.91,M,10.00,M,SCT,SCT,SCT,M,2800.00,6000.00,12000.00,M,M,M,M,M,M,M,M,82.75,KMTN 080045Z 11004KT 10SM SCT028 SCT060 SCT120 26/25 A2991
MTN,2019-07-07 22:03,77.00,75.20,94.19,90.00,9.00,0.00,29.92,M,10.00,M,SCT,BKN,BKN,M,1200.00,3500.00,12000.00,M,M,M,M,M,M,M,M,78.83,KMTN 080203Z AUTO 09009KT 10SM SCT012 BKN035 BKN120 25/24 A2992 RMK AO2
MTN,2019-07-07 22:21,77.00,75.20,94.19,90.00,9.00,0.00,29.92,M,10.00,M,BKN,OVC,M,M,1200.00,3500.00,M,M,M,M,M,M,M,M,M,78.83,KMTN 080221Z AUTO 09009KT 10SM BKN012 OVC035 25/24 A2992 RMK AO2
MTN,2019-07-07 22:42,77.00,73.40,88.67,100.00,9.00,0.00,29.92,M,10.00,M,OVC,M,M,M,1200.00,M,M,M,M,M,M,M,M,M,M,78.57,KMTN 080242Z AUTO 10009KT 10SM OVC012 25/23 A2992 RMK AO2 LTG DSNT S
MTN,2019-07-07 23:03,77.00,73.40,88.67,80.00,7.00,0.00,29.93,M,10.00,M,OVC,M,M,M,1400.00,M,M,M,M,M,M,M,M,M,M,78.57,KMTN 080303Z AUTO 08007KT 10SM OVC014 25/23 A2993 RMK AO2
MTN,2019-07-07 23:21,77.00,73.40,88.67,70.00,4.00,0.00,29.93,M,10.00,M,OVC,M,M,M,1400.00,M,M,M,M,M,M,M,M,M,M,78.57,KMTN 080321Z AUTO 07004KT 10SM OVC014 25/23 A2993 RMK AO2 LTG DSNT N
MTN,2019-07-07 23:42,77.00,73.40,88.67,80.00,5.00,0.00,29.92,M,10.00,M,OVC,M,M,M,1400.00,M,M,M,M,M,M,M,M,M,M,78.57,KMTN 080342Z AUTO 08005KT 10SM OVC014 25/23 A2992 RMK AO2
MTN,2019-07-08 00:03,77.00,73.40,88.67,70.00,9.00,0.00,29.92,M,10.00,M,BKN,BKN,OVC,M,1400.00,2100.00,3800.00,M,M,M,M,M,M,M,M,78.57,KMTN 080403Z AUTO 07009KT 10SM BKN014 BKN021 OVC038 25/23 A2992 RMK AO2
MTN,2019-07-08 00:21,77.00,73.40,88.67,60.00,6.00,0.00,29.91,M,10.00,M,BKN,BKN,BKN,M,1400.00,1900.00,3800.00,M,M,M,M,M,M,M,M,78.57,KMTN 080421Z AUTO 06006KT 10SM BKN014 BKN019 BKN038 25/23 A2991 RMK AO2
MTN,2019-07-08 00:42,77.00,73.40,88.67,60.00,4.00,0.00,29.91,M,10.00,M,SCT,SCT,M,M,1400.00,4400.00,M,M,M,M,M,M,M,M,M,78.57,KMTN 080442Z AUTO 06004KT 10SM SCT014 SCT044 25/23 A2991 RMK AO2
MTN,2019-07-08 01:03,77.00,73.40,88.67,80.00,4.00,0.00,29.92,M,10.00,M,BKN,M,M,M,1400.00,M,M,M,M,M,M,M,M,M,M,78.57,KMTN 080503Z AUTO 08004KT 10SM BKN014 25/23 A2992 RMK AO2
MTN,2019-07-08 01:21,77.00,73.40,88.67,70.00,7.00,0.00,29.92,M,10.00,M,BKN,OVC,M,M,1400.00,1900.00,M,M,M,M,M,M,M,M,M,78.57,KMTN 080521Z AUTO 07007KT 10SM BKN014 OVC019 25/23 A2992 RMK AO2
MTN,2019-07-08 01:42,77.00,73.40,88.67,50.00,3.00,0.00,29.93,M,10.00,M,OVC,M,M,M,1400.00,M,M,M,M,M,M,M,M,M,M,78.57,KMTN 080542Z AUTO 05003KT 10SM OVC014 25/23 A2993 RMK AO2
MTN,2019-07-08 02:03,77.00,73.40,88.67,80.00,7.00,0.00,29.91,M,10.00,M,OVC,M,M,M,1400.00,M,M,M,RA,M,M,M,M,M,M,78.57,KMTN 080603Z AUTO 08007KT 10SM RA OVC014 25/23 A2991 RMK AO2
MTN,2019-07-08 02:21,75.20,73.40,94.14,70.00,5.00,0.00,29.91,M,10.00,M,OVC,M,M,M,1400.00,M,M,M,-DZ,M,M,M,M,M,M,76.84,KMTN 080621Z AUTO 07005KT 10SM -DZ OVC014 24/23 A2991 RMK AO2
MTN,2019-07-08 02:42,75.20,73.40,94.14,80.00,5.00,0.00,29.91,M,10.00,M,OVC,M,M,M,1200.00,M,M,M,-RA,M,M,M,M,M,M,76.84,KMTN 080642Z AUTO 08005KT 10SM -RA OVC012 24/23 A2991 RMK AO2
MTN,2019-07-08 03:03,75.20,73.40,94.14,70.00,6.00,0.01,29.90,M,10.00,M,BKN,OVC,M,M,1200.00,2500.00,M,M,-RA,M,M,M,M,M,M,76.84,KMTN 080703Z AUTO 07006KT 10SM -RA BKN012 OVC025 24/23 A2990 RMK AO2 P0001
MTN,2019-07-08 03:21,73.40,73.40,100.00,80.00,7.00,0.02,29.89,M,7.00,M,SCT,BKN,OVC,M,1100.00,1600.00,2300.00,M,RA,M,M,M,M,M,M,75.14,KMTN 080721Z AUTO 08007KT 7SM RA SCT011 BKN016 OVC023 23/23 A2989 RMK AO2 P0002
MTN,2019-07-08 03:42,73.40,73.40,100.00,80.00,6.00,0.05,29.89,M,7.00,M,OVC,M,M,M,1300.00,M,M,M,RA,M,M,M,M,M,M,75.14,KMTN 080742Z AUTO 08006KT 7SM RA OVC013 23/23 A2989 RMK AO2 P0005
MTN,2019-07-08 04:03,73.40,73.40,100.00,80.00,6.00,0.00,29.89,M,10.00,M,BKN,OVC,M,M,1000.00,1500.00,M,M,-RA,M,M,M,M,M,M,75.14,KMTN 080803Z AUTO 08006KT 10SM -RA BKN010 OVC015 23/23 A2989 RMK AO2
MTN,2019-07-08 04:21,73.40,73.40,100.00,80.00,5.00,0.00,29.89,M,10.00,M,BKN,BKN,OVC,M,1000.00,1800.00,3200.00,M,DZ,M,M,M,M,M,M,75.14,KMTN 080821Z AUTO 08005KT 10SM DZ BKN010 BKN018 OVC032 23/23 A2989 RMK AO2 LTG DSNT S
MTN,2019-07-08 04:42,73.40,73.40,100.00,90.00,7.00,0.00,29.88,M,10.00,M,BKN,BKN,OVC,M,1000.00,1600.00,3200.00,M,-DZ,M,M,M,M,M,M,75.14,KMTN 080842Z AUTO 09007KT 10SM -DZ BKN010 BKN016 OVC032 23/23 A2988 RMK AO2 LTG DSNT S
MTN,2019-07-08 05:03,73.40,73.40,100.00,70.00,5.00,0.00,29.88,M,10.00,M,BKN,OVC,M,M,1000.00,1400.00,M,M,M,M,M,M,M,M,M,75.14,KMTN 080903Z AUTO 07005KT 10SM BKN010 OVC014 23/23 A2988 RMK AO2
MTN,2019-07-08 05:21,73.40,73.40,100.00,70.00,6.00,0.00,29.89,M,10.00,M,BKN,OVC,M,M,1000.00,1700.00,M,M,M,M,M,M,M,M,M,75.14,KMTN 080921Z AUTO 07006KT 10SM BKN010 OVC017 23/23 A2989 RMK AO2
MTN,2019-07-08 05:30,73.40,73.40,100.00,60.00,5.00,0.00,29.89,M,10.00,M,BKN,OVC,M,M,1200.00,1700.00,M,M,M,M,M,M,M,M,M,75.14,KMTN 080930Z AUTO 06005KT 10SM BKN012 OVC017 23/23 A2989 RMK AO2
MTN,2019-07-08 05:45,75.20,75.20,100.00,60.00,6.00,0.00,29.89,M,10.00,M,OVC,M,M,M,1200.00,M,M,M,-RA,M,M,M,M,M,M,77.12,KMTN 080945Z 06006KT 10SM -RA OVC012 24/24 A2989 RMK FIRST
MTN,2019-07-08 06:45,75.20,73.40,94.14,70.00,7.00,0.00,29.89,M,10.00,M,OVC,M,M,M,1200.00,M,M,M,M,M,M,M,M,M,M,76.84,KMTN 081045Z 07007KT 10SM OVC012 24/23 A2989
MTN,2019-07-08 07:10,75.20,75.20,100.00,60.00,5.00,0.00,29.90,M,5.00,M,BKN,OVC,M,M,800.00,1200.00,M,M,RA,M,M,M,M,M,M,77.12,KMTN 081110Z 06005KT 5SM RA BKN008 OVC012 24/24 A2990
MTN,2019-07-08 07:45,73.40,73.40,100.00,70.00,9.00,0.00,29.91,M,3.00,15.00,BKN,OVC,M,M,800.00,1300.00,M,M,RA BR,M,M,M,M,M,M,75.14,KMTN 081145Z 07009G15KT 040V110 3SM RA BR BKN008 OVC013 23/23 A2991
MTN,2019-07-08 08:45,73.40,73.40,100.00,60.00,7.00,0.00,29.92,M,2.50,16.00,OVC,M,M,M,800.00,M,M,M,-RA BR,M,M,M,M,M,M,75.14,KMTN 081245Z 06007G16KT 2 1/2SM -RA BR OVC008 23/23 A2992
MTN,2019-07-08 09:17,73.40,73.40,100.00,50.00,8.00,0.00,29.93,M,3.00,M,OVC,M,M,M,600.00,M,M,M,-TSRA,M,M,M,M,M,M,75.14,KMTN 081317Z 05008KT 010V090 3SM -TSRA OVC006 23/23 A2993 RMK TSB17 OCNL LTGIC DSNT SW TS SW MOV S
MTN,2019-07-08 09:45,73.40,73.40,100.00,50.00,16.00,0.00,29.93,M,3.00,M,BKN,BKN,OVC,M,800.00,1200.00,1800.00,M,-RA BR,M,M,M,M,M,M,75.14,KMTN 081345Z 05016KT 3SM -RA BR BKN008 BKN012 OVC018 23/23 A2993 RMK TSB17E44 TS SW MOVD SE LTG VC AND DSNT SW
MTN,2019-07-08 10:20,73.40,73.40,100.00,70.00,14.00,0.00,29.94,M,8.00,M,BKN,BKN,OVC,M,1000.00,2900.00,4900.00,M,M,M,M,M,M,M,M,75.14,KMTN 081420Z 07014KT 8SM BKN010 BKN029 OVC049 23/23 A2994
MTN,2019-07-08 10:54,73.40,73.40,100.00,60.00,12.00,0.00,29.95,M,8.00,M,BKN,OVC,M,M,1000.00,5000.00,M,M,M,M,M,M,M,M,M,75.14,KMTN 081454Z 06012KT 8SM BKN010 OVC050 23/23 A2995
MTN,2019-07-08 11:20,73.40,73.40,100.00,40.00,13.00,0.00,29.95,M,8.00,M,SCT,BKN,OVC,M,800.00,1200.00,5000.00,M,M,M,M,M,M,M,M,75.14,KMTN 081520Z 04013KT 8SM SCT008 BKN012 OVC050 23/23 A2995
MTN,2019-07-08 11:54,73.40,73.40,100.00,40.00,11.00,0.00,29.96,M,8.00,M,BKN,BKN,OVC,M,1200.00,1900.00,5000.00,M,-RA,M,M,M,M,M,M,75.14,KMTN 081554Z 04011KT 350V080 8SM -RA BKN012 BKN019 OVC050 23/23 A2996
MTN,2019-07-08 12:45,75.20,71.60,88.59,50.00,14.00,0.00,29.98,M,10.00,M,BKN,BKN,OVC,M,1200.00,1600.00,2000.00,M,M,M,M,M,M,M,M,76.58,KMTN 081645Z 05014KT 10SM BKN012 BKN016 OVC020 24/22 A2998
MTN,2019-07-08 13:25,75.20,71.60,88.59,80.00,12.00,0.00,29.98,M,10.00,M,BKN,BKN,OVC,M,1700.00,2600.00,6000.00,M,M,M,M,M,M,M,M,76.58,KMTN 081725Z 08012KT 10SM BKN017 BKN026 OVC060 24/22 A2998
MTN,2019-07-08 13:54,75.20,69.80,83.32,70.00,11.00,0.00,29.98,M,10.00,M,SCT,OVC,M,M,2100.00,6000.00,M,M,M,M,M,M,M,M,M,76.34,KMTN 081754Z 07011KT 030V100 10SM SCT021 OVC060 24/21 A2998
MTN,2019-07-08 14:45,77.00,69.80,78.48,80.00,7.00,0.00,29.98,M,10.00,M,SCT,BKN,M,M,1900.00,6000.00,M,M,M,M,M,M,M,M,M,78.09,KMTN 081845Z 08007KT 10SM SCT019 BKN060 25/21 A2998
MTN,2019-07-08 15:45,78.80,68.00,69.52,0.00,0.00,0.00,29.96,M,10.00,M,SCT,BKN,M,M,1900.00,7000.00,M,M,M,M,M,M,M,M,M,81.10,KMTN 081945Z 00000KT 10SM SCT019 BKN070 26/20 A2996
MTN,2019-07-08 16:45,78.80,68.00,69.52,0.00,0.00,0.00,29.98,M,10.00,M,SCT,BKN,M,M,2500.00,7000.00,M,M,M,M,M,M,M,M,M,81.10,KMTN 082045Z 00000KT 10SM SCT025 BKN070 26/20 A2998
MTN,2019-07-08 17:45,77.00,68.00,73.78,40.00,4.00,0.00,29.98,M,10.00,M,SCT,BKN,M,M,4000.00,11000.00,M,M,M,M,M,M,M,M,M,77.00,KMTN 082145Z 04004KT 10SM SCT040 BKN110 25/20 A2998
MTN,2019-07-08 18:45,78.80,66.20,65.33,70.00,5.00,0.00,29.99,M,10.00,M,FEW,SCT,M,M,4000.00,11000.00,M,M,M,M,M,M,M,M,M,80.82,KMTN 082245Z 07005KT 10SM FEW040 SCT110 26/19 A2999
MTN,2019-07-08 19:45,77.00,66.20,69.33,60.00,4.00,0.00,30.01,M,10.00,M,SCT,M,M,M,11000.00,M,M,M,M,M,M,M,M,M,M,77.00,KMTN 082345Z 06004KT 10SM SCT110 25/19 A3001
MTN,2019-07-08 20:45,73.40,66.20,78.19,0.00,0.00,0.00,30.02,M,10.00,M,SCT,M,M,M,11000.00,M,M,M,M,M,M,M,M,M,M,73.40,KMTN 090045Z 00000KT 10SM SCT110 23/19 A3002
MTN,2019-07-08 21:45,73.40,68.00,83.21,0.00,0.00,0.00,30.03,M,10.00,M,FEW,M,M,M,11000.00,M,M,M,M,M,M,M,M,M,M,73.40,KMTN 090145Z 00000KT 10SM FEW110 23/20 A3003 RMK LAST
MTN,2019-07-08 22:03,69.80,68.00,94.01,0.00,0.00,0.00,30.03,M,10.00,M,CLR,M,M,M,M,M,M,M,M,M,M,M,M,M,M,69.80,KMTN 090203Z AUTO 00000KT 10SM CLR 21/20 A3003 RMK AO2
MTN,2019-07-08 22:21,69.80,68.00,94.01,0.00,0.00,0.00,30.04,M,7.00,M,CLR,M,M,M,M,M,M,M,M,M,M,M,M,M,M,69.80,KMTN 090221Z AUTO 00000KT 7SM CLR 21/20 A3004 RMK AO2
MTN,2019-07-08 22:42,68.00,68.00,100.00,0.00,0.00,0.00,30.04,M,10.00,M,CLR,M,M,M,M,M,M,M,M,M,M,M,M,M,M,68.00,KMTN 090242Z AUTO 00000KT 10SM CLR 20/20 A3004 RMK AO2
MTN,2019-07-08 23:03,69.80,68.00,94.01,0.00,0.00,0.00,30.04,M,10.00,M,CLR,M,M,M,M,M,M,M,M,M,M,M,M,M,M,69.80,KMTN 090303Z AUTO 00000KT 10SM CLR 21/20 A3004 RMK AO2
MTN,2019-07-08 23:21,68.00,68.00,100.00,0.00,0.00,0.00,30.04,M,10.00,M,CLR,M,M,M,M,M,M,M,M,M,M,M,M,M,M,68.00,KMTN 090321Z AUTO 00000KT 10SM CLR 20/20 A3004 RMK AO2
MTN,2019-07-08 23:42,68.00,66.20,93.97,0.00,0.00,0.00,30.04,M,10.00,M,CLR,M,M,M,M,M,M,M,M,M,M,M,M,M,M,68.00,KMTN 090342Z AUTO 00000KT 10SM CLR 20/19 A3004 RMK AO2
MTN,2019-07-09 00:03,68.00,68.00,100.00,0.00,0.00,0.00,30.03,M,10.00,M,CLR,M,M,M,M,M,M,M,M,M,M,M,M,M,M,68.00,KMTN 090403Z AUTO 00000KT 10SM CLR 20/20 A3003 RMK AO2
MTN,2019-07-09 00:21,68.00,68.00,100.00,0.00,0.00,0.00,30.04,M,10.00,M,CLR,M,M,M,M,M,M,M,M,M,M,M,M,M,M,68.00,KMTN 090421Z AUTO 00000KT 10SM CLR 20/20 A3004 RMK AO2
MTN,2019-07-09 00:42,68.00,68.00,100.00,0.00,0.00,0.00,30.04,M,10.00,M,CLR,M,M,M,M,M,M,M,M,M,M,M,M,M,M,68.00,KMTN 090442Z AUTO 00000KT 10SM CLR 20/20 A3004 RMK AO2
MTN,2019-07-09 01:03,68.00,68.00,100.00,0.00,0.00,0.00,30.04,M,10.00,M,CLR,M,M,M,M,M,M,M,M,M,M,M,M,M,M,68.00,KMTN 090503Z AUTO 00000KT 10SM CLR 20/20 A3004 RMK AO2
MTN,2019-07-09 01:21,68.00,66.20,93.97,0.00,0.00,0.00,30.05,M,10.00,M,CLR,M,M,M,M,M,M,M,M,M,M,M,M,M,M,68.00,KMTN 090521Z AUTO 00000KT 10SM CLR 20/19 A3005 RMK AO2
MTN,2019-07-09 01:42,68.00,68.00,100.00,0.00,0.00,0.00,30.04,M,10.00,M,CLR,M,M,M,M,M,M,M,M,M,M,M,M,M,M,68.00,KMTN 090542Z AUTO 00000KT 10SM CLR 20/20 A3004 RMK AO2
MTN,2019-07-09 02:03,68.00,66.20,93.97,0.00,0.00,0.00,30.05,M,10.00,M,CLR,M,M,M,M,M,M,M,M,M,M,M,M,M,M,68.00,KMTN 090603Z AUTO 00000KT 10SM CLR 20/19 A3005 RMK AO2
MTN,2019-07-09 02:21,68.00,68.00,100.00,0.00,0.00,0.00,30.05,M,10.00,M,CLR,M,M,M,M,M,M,M,M,M,M,M,M,M,M,68.00,KMTN 090621Z AUTO 00000KT 10SM CLR 20/20 A3005 RMK AO2
MTN,2019-07-09 02:42,66.20,66.20,100.00,0.00,0.00,0.00,30.05,M,10.00,M,CLR,M,M,M,M,M,M,M,M,M,M,M,M,M,M,66.20,KMTN 090642Z AUTO 00000KT 10SM CLR 19/19 A3005 RMK AO2
MTN,2019-07-09 03:03,66.20,66.20,100.00,290.00,3.00,0.00,30.05,M,10.00,M,CLR,M,M,M,M,M,M,M,M,M,M,M,M,M,M,66.20,KMTN 090703Z AUTO 29003KT 10SM CLR 19/19 A3005 RMK AO2
MTN,2019-07-09 03:21,66.20,66.20,100.00,0.00,0.00,0.00,30.05,M,10.00,M,CLR,M,M,M,M,M,M,M,M,M,M,M,M,M,M,66.20,KMTN 090721Z AUTO 00000KT 10SM CLR 19/19 A3005 RMK AO2
MTN,2019-07-09 03:42,66.20,66.20,100.00,0.00,0.00,0.00,30.05,M,10.00,M,CLR,M,M,M,M,M,M,M,M,M,M,M,M,M,M,66.20,KMTN 090742Z AUTO 00000KT 10SM CLR 19/19 A3005 RMK AO2
MTN,2019-07-09 04:03,66.20,66.20,100.00,0.00,0.00,0.00,30.06,M,10.00,M,CLR,M,M,M,M,M,M,M,M,M,M,M,M,M,M,66.20,KMTN 090803Z AUTO 00000KT 10SM CLR 19/19 A3006 RMK AO2
MTN,2019-07-09 04:21,66.20,66.20,100.00,0.00,0.00,0.00,30.06,M,10.00,M,CLR,M,M,M,M,M,M,M,M,M,M,M,M,M,M,66.20,KMTN 090821Z AUTO 00000KT 10SM CLR 19/19 A3006 RMK AO2
MTN,2019-07-09 04:42,64.40,64.40,100.00,290.00,3.00,0.00,30.06,M,10.00,M,CLR,M,M,M,M,M,M,M,M,M,M,M,M,M,M,64.40,KMTN 090842Z AUTO 29003KT 10SM CLR 18/18 A3006 RMK AO2
MTN,2019-07-09 05:03,64.40,64.40,100.00,290.00,3.00,0.00,30.06,M,10.00,M,CLR,M,M,M,M,M,M,M,M,M,M,M,M,M,M,64.40,KMTN 090903Z AUTO 29003KT 10SM CLR 18/18 A3006 RMK AO2
MTN,2019-07-09 05:21,66.20,66.20,100.00,290.00,3.00,0.00,30.06,M,10.00,M,CLR,M,M,M,M,M,M,M,M,M,M,M,M,M,M,66.20,KMTN 090921Z AUTO 29003KT 10SM CLR 19/19 A3006 RMK AO2
MTN,2019-07-09 05:45,66.20,66.20,100.00,300.00,3.00,0.00,30.06,M,10.00,M,SCT,M,M,M,25000.00,M,M,M,M,M,M,M,M,M,M,66.20,KMTN 090945Z 30003KT 10SM SCT250 19/19 A3006 RMK FIRST
MTN,2019-07-09 06:45,66.20,66.20,100.00,320.00,3.00,0.00,30.08,M,8.00,M,FEW,M,M,M,25000.00,M,M,M,M,M,M,M,M,M,M,66.20,KMTN 091045Z 32003KT 8SM FEW250 19/19 A3008
MTN,2019-07-09 07:45,73.40,69.80,88.51,310.00,6.00,0.00,30.10,M,10.00,M,FEW,M,M,M,25000.00,M,M,M,M,M,M,M,M,M,M,74.60,KMTN 091145Z 31006KT 10SM FEW250 23/21 A3010
MTN,2019-07-09 08:45,75.20,69.80,83.32,0.00,0.00,0.00,30.10,M,10.00,M,SCT,M,M,M,25000.00,M,M,M,M,M,M,M,M,M,M,76.34,KMTN 091245Z 00000KT 10SM SCT250 24/21 A3010
MTN,2019-07-09 09:45,80.60,69.80,69.71,0.00,0.00,0.00,30.10,M,10.00,M,SCT,M,M,M,25000.00,M,M,M,M,M,M,M,M,M,M,83.90,KMTN 091345Z 00000KT 10SM SCT250 27/21 A3010
MTN,2019-07-09 10:45,80.60,71.60,74.11,150.00,6.00,0.00,30.10,M,10.00,M,SCT,SCT,M,M,4000.00,2500.00,M,M,M,M,M,M,M,M,M,84.57,KMTN 091445Z 15006KT 10SM SCT040 SCT025 27/22 A3010
MTN,2019-07-09 11:45,82.40,73.40,74.28,160.00,5.00,0.00,30.10,M,10.00,M,SCT,SCT,M,M,4000.00,2500.00,M,M,M,M,M,M,M,M,M,88.26,KMTN 091545Z 16005KT 10SM SCT040 SCT025 28/23 A3010
MTN,2019-07-09 12:45,82.40,73.40,74.28,140.00,6.00,0.00,30.10,M,10.00,M,SCT,M,M,M,3500.00,M,M,M,M,M,M,M,M,M,M,88.26,KMTN 091645Z 14006KT 10SM SCT035 28/23 A3010
MTN,2019-07-09 13:45,84.20,71.60,65.95,140.00,7.00,0.00,30.10,M,10.00,M,SCT,M,M,M,3500.00,M,M,M,M,M,M,M,M,M,M,89.60,KMTN 091745Z 14007KT 10SM SCT035 29/22 A3010
MTN,2019-07-09 14:45,84.20,69.80,62.03,150.00,8.00,0.00,30.08,M,10.00,M,SCT,M,M,M,4000.00,M,M,M,M,M,M,M,M,M,M,88.43,KMTN 091845Z 15008KT 10SM SCT040 29/21 A3008
MTN,2019-07-09 15:45,86.00,69.80,58.55,130.00,6.00,0.00,30.07,M,10.00,M,SCT,M,M,M,4000.00,M,M,M,M,M,M,M,M,M,M,90.58,KMTN 091945Z 13006KT 10SM SCT040 30/21 A3007
MTN,2019-07-09 16:45,86.00,69.80,58.55,130.00,6.00,0.00,30.06,M,10.00,M,SCT,M,M,M,4000.00,M,M,M,M,M,M,M,M,M,M,90.58,KMTN 092045Z 13006KT 10SM SCT040 30/21 A3006
MTN,2019-07-09 17:45,84.20,69.80,62.03,140.00,5.00,0.00,30.05,M,10.00,M,FEW,M,M,M,4000.00,M,M,M,M,M,M,M,M,M,M,88.43,KMTN 092145Z 14005KT 10SM FEW040 29/21 A3005
MTN,2019-07-09 18:45,84.20,69.80,62.03,150.00,7.00,0.00,30.05,M,10.00,M,FEW,M,M,M,4000.00,M,M,M,M,M,M,M,M,M,M,88.43,KMTN 092245Z 15007KT 10SM FEW040 29/21 A3005
MTN,2019-07-09 19:45,82.40,71.60,69.90,160.00,6.00,0.00,30.05,M,10.00,M,FEW,M,M,M,4000.00,M,M,M,M,M,M,M,M,M,M,87.18,KMTN 092345Z 16006KT 10SM FEW040 28/22 A3005
MTN,2019-07-09 20:50,80.60,71.60,74.11,160.00,5.00,0.00,30.05,M,10.00,M,CLR,M,M,M,M,M,M,M,M,M,M,M,M,M,M,84.57,KMTN 100050Z 16005KT 10SM SKC 27/22 A3005
MTN,2019-07-09 21:50,77.00,71.60,83.44,0.00,0.00,0.00,30.08,M,10.00,M,SCT,M,M,M,5500.00,M,M,M,M,M,M,M,M,M,M,78.32,KMTN 100150Z 00000KT 10SM SCT055 25/22 A3008
MTN,2019-07-09 22:03,77.00,71.60,83.44,0.00,0.00,0.00,30.09,M,10.00,M,BKN,M,M,M,5500.00,M,M,M,M,M,M,M,M,M,M,78.32,KMTN 100203Z AUTO 00000KT 10SM BKN055 25/22 A3009 RMK AO2
MTN,2019-07-09 22:21,77.00,71.60,83.44,0.00,0.00,0.00,30.09,M,10.00,M,OVC,M,M,M,5500.00,M,M,M,M,M,M,M,M,M,M,78.32,KMTN 100221Z AUTO 00000KT 10SM OVC055 25/22 A3009 RMK AO2
MTN,2019-07-09 22:42,78.80,71.60,78.62,0.00,0.00,0.00,30.09,M,10.00,M,SCT,M,M,M,5500.00,M,M,M,M,M,M,M,M,M,M,81.70,KMTN 100242Z AUTO 00000KT 10SM SCT055 26/22 A3009 RMK AO2
MTN,2019-07-09 23:03,77.00,71.60,83.44,0.00,0.00,0.00,30.08,M,10.00,M,CLR,M,M,M,M,M,M,M,M,M,M,M,M,M,M,78.32,KMTN 100303Z AUTO 00000KT 10SM CLR 25/22 A3008 RMK AO2 LTG DSNT S
MTN,2019-07-09 23:21,78.80,71.60,78.62,0.00,0.00,0.00,30.08,M,10.00,M,CLR,M,M,M,M,M,M,M,M,M,M,M,M,M,M,81.70,KMTN 100321Z AUTO 00000KT 10SM CLR 26/22 A3008 RMK AO2
MTN,2019-07-09 23:42,77.00,71.60,83.44,0.00,0.00,0.00,30.09,M,10.00,M,CLR,M,M,M,M,M,M,M,M,M,M,M,M,M,M,78.32,KMTN 100342Z AUTO 00000KT 10SM CLR 25/22 A3009 RMK AO2
MTN,2019-07-10 00:03,77.00,71.60,83.44,0.00,0.00,0.00,30.09,M,10.00,M,CLR,M,M,M,M,M,M,M,M,M,M,M,M,M,M,78.32,KMTN 100403Z AUTO 00000KT 10SM CLR 25/22 A3009 RMK AO2
MTN,2019-07-10 00:21,77.00,71.60,83.44,0.00,0.00,0.00,30.08,M,10.00,M,CLR,M,M,M,M,M,M,M,M,M,M,M,M,M,M,78.32,KMTN 100421Z AUTO 00000KT 10SM CLR 25/22 A3008 RMK AO2
MTN,2019-07-10 00:42,77.00,69.80,78.48,0.00,0.00,0.00,30.08,M,10.00,M,CLR,M,M,M,M,M,M,M,M,M,M,M,M,M,M,78.09,KMTN 100442Z AUTO 00000KT 10SM CLR 25/21 A3008 RMK AO2
MTN,2019-07-10 01:03,77.00,69.80,78.48,0.00,0.00,0.00,30.08,M,10.00,M,CLR,M,M,M,M,M,M,M,M,M,M,M,M,M,M,78.09,KMTN 100503Z AUTO 00000KT 10SM CLR 25/21 A3008 RMK AO2 LTG DSNT S
MTN,2019-07-10 01:21,77.00,69.80,78.48,0.00,0.00,0.00,30.08,M,10.00,M,CLR,M,M,M,M,M,M,M,M,M,M,M,M,M,M,78.09,KMTN 100521Z AUTO 00000KT 10SM CLR 25/21 A3008 RMK AO2
MTN,2019-07-10 01:42,77.00,69.80,78.48,0.00,0.00,0.00,30.08,M,10.00,M,CLR,M,M,M,M,M,M,M,M,M,M,M,M,M,M,78.09,KMTN 100542Z AUTO 00000KT 10SM CLR 25/21 A3008 RMK AO2
MTN,2019-07-10 02:03,75.20,69.80,83.32,0.00,0.00,0.00,30.08,M,10.00,M,CLR,M,M,M,M,M,M,M,M,M,M,M,M,M,M,76.34,KMTN 100603Z AUTO 00000KT 10SM CLR 24/21 A3008 RMK AO2
MTN,2019-07-10 02:21,75.20,69.80,83.32,0.00,0.00,0.00,30.08,M,10.00,M,CLR,M,M,M,M,M,M,M,M,M,M,M,M,M,M,76.34,KMTN 100621Z AUTO 00000KT 10SM CLR 24/21 A3008 RMK AO2
MTN,2019-07-10 02:42,75.20,69.80,83.32,0.00,0.00,0.00,30.07,M,10.00,M,CLR,M,M,M,M,M,M,M,M,M,M,M,M,M,M,76.34,KMTN 100642Z AUTO 00000KT 10SM CLR 24/21 A3007 RMK AO2
MTN,2019-07-10 03:03,73.40,69.80,88.51,0.00,0.00,0.00,30.07,M,10.00,M,CLR,M,M,M,M,M,M,M,M,M,M,M,M,M,M,74.60,KMTN 100703Z AUTO 00000KT 10SM CLR 23/21 A3007 RMK AO2
MTN,2019-07-10 03:21,73.40,69.80,88.51,0.00,0.00,0.00,30.06,M,10.00,M,CLR,M,M,M,M,M,M,M,M,M,M,M,M,M,M,74.60,KMTN 100721Z AUTO 00000KT 10SM CLR 23/21 A3006 RMK AO2
MTN,2019-07-10 03:42,73.40,69.80,88.51,0.00,0.00,0.00,30.07,M,10.00,M,CLR,M,M,M,M,M,M,M,M,M,M,M,M,M,M,74.60,KMTN 100742Z AUTO 00000KT 10SM CLR 23/21 A3007 RMK AO2
MTN,2019-07-10 04:03,73.40,69.80,88.51,0.00,0.00,0.00,30.07,M,10.00,M,CLR,M,M,M,M,M,M,M,M,M,M,M,M,M,M,74.60,KMTN 100803Z AUTO 00000KT 10SM CLR 23/21 A3007 RMK AO2
MTN,2019-07-10 04:21,73.40,69.80,88.51,0.00,0.00,0.00,30.07,M,10.00,M,CLR,M,M,M,M,M,M,M,M,M,M,M,M,M,M,74.60,KMTN 100821Z AUTO 00000KT 10SM CLR 23/21 A3007 RMK AO2
MTN,2019-07-10 04:42,71.60,69.80,94.06,0.00,0.00,0.00,30.07,M,10.00,M,CLR,M,M,M,M,M,M,M,M,M,M,M,M,M,M,72.88,KMTN 100842Z AUTO 00000KT 10SM CLR 22/21 A3007 RMK AO2
MTN,2019-07-10 05:03,69.80,69.80,100.00,0.00,0.00,0.00,30.07,M,10.00,M,CLR,M,M,M,M,M,M,M,M,M,M,M,M,M,M,69.80,KMTN 100903Z AUTO 00000KT 10SM CLR 21/21 A3007 RMK AO2
MTN,2019-07-10 05:21,69.80,69.80,100.00,0.00,0.00,0.00,30.08,M,10.00,M,CLR,M,M,M,M,M,M,M,M,M,M,M,M,M,M,69.80,KMTN 100921Z AUTO 00000KT 10SM CLR 21/21 A3008 RMK AO2
MTN,2019-07-10 05:30,69.80,69.80,100.00,0.00,0.00,0.00,30.08,M,10.00,M,CLR,M,M,M,M,M,M,M,M,M,M,M,M,M,M,69.80,KMTN 100930Z AUTO 00000KT 10SM CLR 21/21 A3008 RMK AO2
MTN,2019-07-10 05:45,69.80,69.80,100.00,0.00,0.00,0.00,30.08,M,10.00,M,BKN,M,M,M,25000.00,M,M,M,M,M,M,M,M,M,M,69.80,KMTN 100945Z 00000KT 10SM BKN250 21/21 A3008
MTN,2019-07-10 06:45,71.60,71.60,100.00,10.00,3.00,0.00,30.08,M,10.00,M,BKN,M,M,M,25000.00,M,M,M,M,M,M,M,M,M,M,73.16,KMTN 101045Z 01003KT 10SM BKN250 22/22 A3008
MTN,2019-07-10 07:45,75.20,71.60,88.59,0.00,0.00,0.00,30.10,M,10.00,M,SCT,M,M,M,20000.00,M,M,M,M,M,M,M,M,M,M,76.58,KMTN 101145Z 00000KT 10SM SCT200 24/22 A3010
MTN,2019-07-10 08:45,78.80,73.40,83.55,0.00,0.00,0.00,30.10,M,10.00,M,SCT,M,M,M,20000.00,M,M,M,M,M,M,M,M,M,M,82.03,KMTN 101245Z 00000KT 10SM SCT200 26/23 A3010
MTN,2019-07-10 09:45,82.40,71.60,69.90,200.00,6.00,0.00,30.09,M,10.00,M,SCT,M,M,M,20000.00,M,M,M,M,M,M,M,M,M,M,87.18,KMTN 101345Z 20006KT 10SM SCT200 28/22 A3009
MTN,2019-07-10 10:50,82.40,75.20,78.90,120.00,7.00,0.00,30.09,M,10.00,M,SCT,SCT,M,M,7000.00,20000.00,M,M,M,M,M,M,M,M,M,89.48,KMTN 101450Z 12007KT 10SM SCT070 SCT200 28/24 A3009
MTN,2019-07-10 11:45,84.20,75.20,74.44,120.00,8.00,0.00,30.08,M,10.00,M,SCT,SCT,M,M,7000.00,20000.00,M,M,M,M,M,M,M,M,M,92.45,KMTN 101545Z 12008KT 10SM SCT070 SCT200 29/24 A3008
MTN,2019-07-10 12:45,84.20,73.40,70.08,130.00,9.00,0.00,30.07,M,10.00,M,SCT,SCT,M,M,4500.00,20000.00,M,M,M,M,M,M,M,M,M,90.94,KMTN 101645Z 13009KT 10SM SCT045 SCT200 29/23 A3007
MTN,2019-07-10 13:45,86.00,73.40,66.15,130.00,12.00,0.00,30.07,M,10.00,M,SCT,SCT,M,M,4500.00,20000.00,M,M,M,M,M,M,M,M,M,93.45,KMTN 101745Z 13012KT 10SM SCT045 SCT200 30/23 A3007
MTN,2019-07-10 14:45,87.80,73.40,62.47,150.00,12.00,0.00,30.05,M,10.00,M,SCT,SCT,M,M,4500.00,25000.00,M,M,M,M,M,M,M,M,M,95.86,KMTN 101845Z 15012KT 10SM SCT045 SCT250 31/23 A3005
MTN,2019-07-10 15:54,87.80,71.60,58.78,140.00,10.00,0.00,30.05,M,10.00,M,SCT,SCT,M,M,5500.00,25000.00,M,M,M,M,M,M,M,M,M,94.18,KMTN 101954Z 14010KT 10SM SCT055 SCT250 31/22 A3005
MTN,2019-07-10 16:50,86.00,71.60,62.25,140.00,13.00,0.00,30.03,M,10.00,M,FEW,SCT,M,M,5000.00,25000.00,M,M,M,M,M,M,M,M,M,91.92,KMTN 102050Z 14013KT 10SM FEW050 SCT250 30/22 A3003
MTN,2019-07-10 17:55,84.20,71.60,65.95,150.00,12.00,0.00,30.02,M,10.00,M,FEW,M,M,M,5000.00,M,M,M,M,M,M,M,M,M,M,89.60,KMTN 102155Z 15012KT 10SM FEW050 29/22 A3002
MTN,2019-07-10 18:50,84.20,71.60,65.95,150.00,12.00,0.00,30.00,M,10.00,M,SCT,M,M,M,25000.00,M,M,M,M,M,M,M,M,M,M,89.60,KMTN 102250Z 15012KT 10SM SCT250 29/22 A3000
MTN,2019-07-10 20:45,80.60,69.80,69.71,180.00,5.00,0.00,30.00,M,10.00,M,SCT,M,M,M,25000.00,M,M,M,M,M,M,M,M,M,M,83.90,KMTN 110045Z 18005KT 10SM SCT250 27/21 A3000
MTN,2019-07-10 22:03,78.80,69.80,73.95,170.00,4.00,0.00,30.01,M,10.00,M,CLR,M,M,M,M,M,M,M,M,M,M,M,M,M,M,81.39,KMTN 110203Z AUTO 17004KT 10SM CLR 26/21 A3001 RMK AO2
MTN,2019-07-10 22:21,78.80,69.80,73.95,160.00,5.00,0.00,30.00,M,10.00,M,CLR,M,M,M,M,M,M,M,M,M,M,M,M,M,M,81.39,KMTN 110221Z AUTO 16005KT 10SM CLR 26/21 A3000 RMK AO2
MTN,2019-07-10 22:42,78.80,71.60,78.62,170.00,6.00,0.00,30.00,M,10.00,M,CLR,M,M,M,M,M,M,M,M,M,M,M,M,M,M,81.70,KMTN 110242Z AUTO 17006KT 10SM CLR 26/22 A3000 RMK AO2
MTN,2019-07-10 23:03,78.80,69.80,73.95,190.00,4.00,0.00,30.00,M,10.00,M,CLR,M,M,M,M,M,M,M,M,M,M,M,M,M,M,81.39,KMTN 110303Z AUTO 19004KT 10SM CLR 26/21 A3000 RMK AO2
MTN,2019-07-10 23:21,78.80,69.80,73.95,170.00,3.00,0.00,30.00,M,10.00,M,CLR,M,M,M,M,M,M,M,M,M,M,M,M,M,M,81.39,KMTN 110321Z AUTO 17003KT 10SM CLR 26/21 A3000 RMK AO2
MTN,2019-07-10 23:42,78.80,69.80,73.95,180.00,4.00,0.00,30.00,M,10.00,M,CLR,M,M,M,M,M,M,M,M,M,M,M,M,M,M,81.39,KMTN 110342Z AUTO 18004KT 10SM CLR 26/21 A3000 RMK AO2
MTN,2019-07-11 00:03,78.80,69.80,73.95,0.00,0.00,0.00,30.00,M,10.00,M,CLR,M,M,M,M,M,M,M,M,M,M,M,M,M,M,81.39,KMTN 110403Z AUTO 00000KT 10SM CLR 26/21 A3000 RMK AO2
MTN,2019-07-11 00:21,78.80,69.80,73.95,0.00,0.00,0.00,30.00,M,10.00,M,CLR,M,M,M,M,M,M,M,M,M,M,M,M,M,M,81.39,KMTN 110421Z AUTO 00000KT 10SM CLR 26/21 A3000 RMK AO2
MTN,2019-07-11 00:42,77.00,68.00,73.78,160.00,4.00,0.00,30.00,M,10.00,M,SCT,M,M,M,4700.00,M,M,M,M,M,M,M,M,M,M,77.00,KMTN 110442Z AUTO 16004KT 10SM SCT047 25/20 A3000 RMK AO2
MTN,2019-07-11 01:03,77.00,69.80,78.48,0.00,0.00,0.00,30.00,M,10.00,M,CLR,M,M,M,M,M,M,M,M,M,M,M,M,M,M,78.09,KMTN 110503Z AUTO 00000KT 10SM CLR 25/21 A3000 RMK AO2
MTN,2019-07-11 01:21,77.00,69.80,78.48,150.00,3.00,0.00,29.99,M,10.00,M,SCT,SCT,M,M,4200.00,4800.00,M,M,M,M,M,M,M,M,M,78.09,KMTN 110521Z AUTO 15003KT 10SM SCT042 SCT048 25/21 A2999 RMK AO2
MTN,2019-07-11 01:42,78.80,71.60,78.62,160.00,3.00,0.00,29.99,M,10.00,M,BKN,M,M,M,4600.00,M,M,M,M,M,M,M,M,M,M,81.70,KMTN 110542Z AUTO 16003KT 10SM BKN046 26/22 A2999 RMK AO2
MTN,2019-07-11 02:21,77.00,73.40,88.67,160.00,4.00,0.00,29.98,M,10.00,M,SCT,BKN,M,M,1400.00,4600.00,M,M,M,M,M,M,M,M,M,78.57,KMTN 110621Z AUTO 16004KT 10SM SCT014 BKN046 25/23 A2998 RMK AO2
MTN,2019-07-11 03:03,78.80,75.20,88.75,170.00,4.00,0.00,29.96,M,10.00,M,BKN,OVC,M,M,1200.00,1600.00,M,M,M,M,M,M,M,M,M,82.38,KMTN 110703Z AUTO 17004KT 10SM BKN012 OVC016 26/24 A2996 RMK AO2
MTN,2019-07-11 04:03,77.00,75.20,94.19,150.00,3.00,0.00,29.95,M,10.00,M,BKN,BKN,M,M,4800.00,5500.00,M,M,M,M,M,M,M,M,M,78.83,KMTN 110803Z AUTO 15003KT 10SM BKN048 BKN055 25/24 A2995 RMK AO2
MTN,2019-07-11 04:42,78.80,75.20,88.75,170.00,5.00,0.00,29.96,M,10.00,M,BKN,BKN,M,M,4300.00,5000.00,M,M,M,M,M,M,M,M,M,82.38,KMTN 110842Z AUTO 17005KT 10SM BKN043 BKN050 26/24 A2996 RMK AO2
MTN,2019-07-11 05:21,78.80,77.00,94.23,150.00,5.00,0.00,29.96,M,10.00,M,BKN,OVC,M,M,4500.00,5000.00,M,M,M,M,M,M,M,M,M,82.75,KMTN 110921Z AUTO 15005KT 10SM BKN045 OVC050 26/25 A2996 RMK AO2
MTN,2019-07-11 05:45,78.80,77.00,94.23,180.00,6.00,0.00,29.96,M,10.00,M,BKN,BKN,M,M,1600.00,4900.00,M,M,M,M,M,M,M,M,M,82.75,KMTN 110945Z 18006KT 10SM BKN016 BKN049 26/25 A2996
MTN,2019-07-11 06:45,78.80,78.80,100.00,180.00,6.00,0.00,29.96,M,10.00,M,BKN,OVC,M,M,1500.00,4400.00,M,M,M,M,M,M,M,M,M,83.15,KMTN 111045Z 18006KT 10SM BKN015 OVC044 26/26 A2996
MTN,2019-07-11 07:50,78.80,77.00,94.23,180.00,5.00,0.00,29.96,M,10.00,M,BKN,OVC,M,M,1500.00,4400.00,M,M,M,M,M,M,M,M,M,82.75,KMTN 111150Z 18005KT 10SM BKN015 OVC044 26/25 A2996
MTN,2019-07-11 08:55,82.40,78.80,88.90,150.00,6.00,0.00,29.94,M,10.00,M,SCT,BKN,BKN,M,1400.00,7000.00,8000.00,M,M,M,M,M,M,M,M,92.40,KMTN 111255Z 15006KT 10SM SCT014 BKN070 BKN080 28/26 A2994
MTN,2019-07-11 09:50,82.40,78.80,88.90,140.00,11.00,0.00,29.93,M,10.00,M,BKN,BKN,M,M,1400.00,4400.00,M,M,M,M,M,M,M,M,M,92.40,KMTN 111350Z 14011KT 10SM BKN014 BKN044 28/26 A2993
MTN,2019-07-11 10:45,84.20,80.60,88.98,140.00,11.00,0.00,29.92,M,10.00,M,SCT,BKN,M,M,1200.00,7000.00,M,M,M,M,M,M,M,M,M,98.28,KMTN 111445Z 14011KT 10SM SCT012 BKN070 29/27 A2992
MTN,2019-07-11 11:30,84.20,78.80,83.88,150.00,11.00,0.00,29.92,M,5.00,M,SCT,BKN,M,M,1700.00,5000.00,M,M,RA,M,M,M,M,M,M,96.10,KMTN 111530Z 15011KT 5SM RA SCT017 BKN050 29/26 A2992
MTN,2019-07-11 11:45,82.40,78.80,88.90,150.00,11.00,0.00,29.91,M,7.00,M,SCT,BKN,BKN,M,1700.00,5000.00,7000.00,M,-RA,M,M,M,M,M,M,92.40,KMTN 111545Z 15011KT 7SM -RA SCT017 BKN050 BKN070 28/26 A2991
MTN,2019-07-11 12:45,77.00,75.20,94.19,160.00,9.00,0.00,29.87,M,3.00,22.00,BKN,BKN,OVC,M,1700.00,3000.00,4900.00,M,RA,M,M,M,M,M,M,78.83,KMTN 111645Z 16009G22KT 3SM RA BKN017 BKN030 OVC049 25/24 A2987
MTN,2019-07-11 13:20,77.00,75.20,94.19,90.00,4.00,0.00,29.90,M,10.00,M,SCT,BKN,OVC,M,5000.00,6500.00,8500.00,M,M,M,M,M,M,M,M,78.83,KMTN 111720Z 09004KT 10SM SCT050 BKN065 OVC085 25/24 A2990
MTN,2019-07-11 13:45,78.80,78.80,100.00,120.00,3.00,0.00,29.84,M,10.00,M,SCT,SCT,BKN,M,6000.00,8500.00,11000.00,M,M,M,M,M,M,M,M,83.15,KMTN 111745Z 12003KT 10SM SCT060 SCT085 BKN110 26/26 A2984
MTN,2019-07-11 14:54,86.00,80.60,83.99,140.00,14.00,0.00,29.81,M,10.00,17.00,SCT,SCT,BKN,M,3000.00,6500.00,7500.00,M,TS,M,M,M,M,M,M,101.90,KMTN 111854Z 14014G17KT 10SM TS SCT030 SCT065 BKN075 30/27 A2981 RMK TSB53 OCNL LTGCCCG NW TS NW MOV E
MTN,2019-07-11 15:45,86.00,80.60,83.99,150.00,12.00,0.00,29.79,M,7.00,M,SCT,SCT,BKN,M,4100.00,6000.00,8000.00,M,TS,M,M,M,M,M,M,101.90,KMTN 111945Z 15012KT 7SM TS SCT041 SCT060 BKN080 30/27 A2979 RMK CONS LTGCCCG NW TS NW MOV E
MTN,2019-07-11 16:54,82.40,77.00,83.77,300.00,21.00,0.00,29.81,M,5.00,27.00,SCT,SCT,BKN,M,1300.00,4100.00,7000.00,M,+TSRA,M,M,M,M,M,M,90.85,KMTN 112054Z 30021G27KT 5SM +TSRA SCT013 SCT041 BKN070 28/25 A2981 RMK CONS LTGCCCG OHD TS OHD MOV NE
MTN,2019-07-11 17:19,77.00,77.00,100.00,270.00,7.00,0.00,29.81,M,2.00,20.00,BKN,BKN,OVC,M,900.00,1800.00,2900.00,M,+TSRA,M,M,M,M,M,M,77.00,KMTN 112119Z 27007G20KT 2SM +TSRA BKN009 BKN018 OVC029 25/25 A2981 RMK FRQ LTGCCCG OHD TS OHD MOV NE
MTN,2019-07-11 17:32,75.20,75.20,100.00,260.00,4.00,0.00,29.82,M,5.00,M,SCT,BKN,OVC,M,900.00,2700.00,3100.00,M,-RA,M,M,M,M,M,M,77.12,KMTN 112132Z 26004KT 5SM -RA SCT009 BKN027 OVC031 24/24 A2982 RMK TSE31 TS MOVD E
MTN,2019-07-11 17:45,75.20,75.20,100.00,310.00,5.00,0.00,29.81,M,5.00,M,SCT,SCT,BKN,M,700.00,1600.00,2500.00,M,RA,M,M,M,M,M,M,77.12,KMTN 112145Z 31005KT 5SM RA SCT007 SCT016 BKN025 24/24 A2981
MTN,2019-07-11 18:45,75.20,75.20,100.00,290.00,3.00,0.00,29.78,M,7.00,M,SCT,SCT,BKN,M,4800.00,6000.00,11000.00,M,M,M,M,M,M,M,M,77.12,KMTN 112245Z 29003KT 7SM SCT048 SCT060 BKN110 24/24 A2978
MTN,2019-07-11 19:54,75.20,75.20,100.00,180.00,5.00,0.00,29.78,M,7.00,M,SCT,BKN,OVC,M,1100.00,1400.00,2200.00,M,RA,M,M,M,M,M,M,77.12,KMTN 112354Z 18005KT 7SM RA SCT011 BKN014 OVC022 24/24 A2978
MTN,2019-07-11 20:54,75.20,75.20,100.00,320.00,3.00,0.00,29.74,M,7.00,M,BKN,BKN,M,M,11000.00,14000.00,M,M,-RA,M,M,M,M,M,M,77.12,KMTN 120054Z 32003KT 7SM -RA BKN110 BKN140 24/24 A2974
MTN,2019-07-11 21:45,75.20,75.20,100.00,0.00,0.00,0.00,29.79,M,10.00,M,SCT,OVC,M,M,600.00,1300.00,M,M,M,M,M,M,M,M,M,77.12,KMTN 120145Z 00000KT 10SM SCT006 OVC013 24/24 A2979 RMK LAST
MTN,2019-07-11 22:03,75.20,75.20,100.00,0.00,0.00,0.00,29.81,M,10.00,M,BKN,OVC,M,M,900.00,1200.00,M,M,M,M,M,M,M,M,M,77.12,KMTN 120203Z AUTO 00000KT 10SM BKN009 OVC012 24/24 A2981 RMK AO2
MTN,2019-07-11 22:21,75.20,75.20,100.00,210.00,3.00,0.00,29.81,M,10.00,M,SCT,BKN,M,M,700.00,2000.00,M,M,M,M,M,M,M,M,M,77.12,KMTN 120221Z AUTO 21003KT 10SM SCT007 BKN020 24/24 A2981 RMK AO2
MTN,2019-07-11 23:03,75.20,75.20,100.00,220.00,5.00,0.00,29.80,M,10.00,M,OVC,M,M,M,900.00,M,M,M,M,M,M,M,M,M,M,77.12,KMTN 120303Z AUTO 22005KT 10SM OVC009 24/24 A2980 RMK AO2
MTN,2019-07-11 23:21,75.20,75.20,100.00,0.00,0.00,0.00,29.79,M,10.00,M,SCT,SCT,M,M,900.00,1500.00,M,M,M,M,M,M,M,M,M,77.12,KMTN 120321Z AUTO 00000KT 10SM SCT009 SCT015 24/24 A2979 RMK AO2 LTG DSNT E
MTN,2019-07-11 23:42,73.40,73.40,100.00,210.00,4.00,0.00,29.79,M,10.00,M,SCT,M,M,M,900.00,M,M,M,M,M,M,M,M,M,M,75.14,KMTN 120342Z AUTO 21004KT 10SM SCT009 23/23 A2979 RMK AO2
MTN,2019-07-12 00:03,73.40,73.40,100.00,200.00,5.00,0.00,29.80,M,10.00,M,BKN,BKN,M,M,500.00,900.00,M,M,M,M,M,M,M,M,M,75.14,KMTN 120403Z AUTO 20005KT 10SM BKN005 BKN009 23/23 A2980 RMK AO2
MTN,2019-07-12 00:21,73.40,73.40,100.00,210.00,3.00,0.00,29.79,M,10.00,M,SCT,M,M,M,500.00,M,M,M,M,M,M,M,M,M,M,75.14,KMTN 120421Z AUTO 21003KT 10SM SCT005 23/23 A2979 RMK AO2
MTN,2019-07-12 00:42,73.40,73.40,100.00,230.00,3.00,0.00,29.79,M,10.00,M,SCT,M,M,M,500.00,M,M,M,M,M,M,M,M,M,M,75.14,KMTN 120442Z AUTO 23003KT 10SM SCT005 23/23 A2979 RMK AO2
MTN,2019-07-12 01:03,73.40,73.40,100.00,0.00,0.00,0.00,29.80,M,10.00,M,BKN,M,M,M,700.00,M,M,M,M,M,M,M,M,M,M,75.14,KMTN 120503Z AUTO 00000KT 10SM BKN007 23/23 A2980 RMK AO2
MTN,2019-07-12 01:21,73.40,73.40,100.00,230.00,5.00,0.00,29.81,M,10.00,M,SCT,M,M,M,700.00,M,M,M,M,M,M,M,M,M,M,75.14,KMTN 120521Z AUTO 23005KT 10SM SCT007 23/23 A2981 RMK AO2
MTN,2019-07-12 01:42,73.40,73.40,100.00,0.00,0.00,0.00,29.81,M,10.00,M,CLR,M,M,M,M,M,M,M,M,M,M,M,M,M,M,75.14,KMTN 120542Z AUTO 00000KT 10SM CLR 23/23 A2981 RMK AO2
MTN,2019-07-12 02:03,73.40,73.40,100.00,190.00,3.00,0.00,29.80,M,10.00,M,CLR,M,M,M,M,M,M,M,M,M,M,M,M,M,M,75.14,KMTN 120603Z AUTO 19003KT 10SM CLR 23/23 A2980 RMK AO2
MTN,2019-07-12 02:21,73.40,73.40,100.00,220.00,3.00,0.00,29.79,M,10.00,M,CLR,M,M,M,M,M,M,M,M,M,M,M,M,M,M,75.14,KMTN 120621Z AUTO 22003KT 10SM CLR 23/23 A2979 RMK AO2
MTN,2019-07-12 02:42,71.60,71.60,100.00,230.00,5.00,0.00,29.78,M,10.00,M,CLR,M,M,M,M,M,M,M,M,M,M,M,M,M,M,73.16,KMTN 120642Z AUTO 23005KT 10SM CLR 22/22 A2978 RMK AO2
MTN,2019-07-12 03:03,71.60,71.60,100.00,230.00,3.00,0.00,29.78,M,10.00,M,CLR,M,M,M,M,M,M,M,M,M,M,M,M,M,M,73.16,KMTN 120703Z AUTO 23003KT 10SM CLR 22/22 A2978 RMK AO2
MTN,2019-07-12 03:21,71.60,71.60,100.00,250.00,4.00,0.00,29.77,M,10.00,M,CLR,M,M,M,M,M,M,M,M,M,M,M,M,M,M,73.16,KMTN 120721Z AUTO 25004KT 10SM CLR 22/22 A2977 RMK AO2
MTN,2019-07-12 03:42,71.60,71.60,100.00,250.00,3.00,0.00,29.77,M,10.00,M,CLR,M,M,M,M,M,M,M,M,M,M,M,M,M,M,73.16,KMTN 120742Z AUTO 25003KT 10SM CLR 22/22 A2977 RMK AO2
MTN,2019-07-12 04:03,71.60,71.60,100.00,250.00,4.00,0.00,29.77,M,10.00,M,CLR,M,M,M,M,M,M,M,M,M,M,M,M,M,M,73.16,KMTN 120803Z AUTO 25004KT 10SM CLR 22/22 A2977 RMK AO2
MTN,2019-07-12 04:21,71.60,71.60,100.00,250.00,3.00,0.00,29.78,M,10.00,M,SCT,M,M,M,700.00,M,M,M,M,M,M,M,M,M,M,73.16,KMTN 120821Z AUTO 25003KT 10SM SCT007 22/22 A2978 RMK AO2
MTN,2019-07-12 04:42,71.60,71.60,100.00,240.00,3.00,0.00,29.78,M,10.00,M,SCT,M,M,M,700.00,M,M,M,M,M,M,M,M,M,M,73.16,KMTN 120842Z AUTO 24003KT 10SM SCT007 22/22 A2978 RMK AO2
MTN,2019-07-12 05:03,71.60,71.60,100.00,240.00,4.00,0.00,29.79,M,10.00,M,CLR,M,M,M,M,M,M,M,M,M,M,M,M,M,M,73.16,KMTN 120903Z AUTO 24004KT 10SM CLR 22/22 A2979 RMK AO2
MTN,2019-07-12 05:21,71.60,71.60,100.00,260.00,4.00,0.00,29.79,M,10.00,M,CLR,M,M,M,M,M,M,M,M,M,M,M,M,M,M,73.16,KMTN 120921Z AUTO 26004KT 10SM CLR 22/22 A2979 RMK AO2
MTN,2019-07-12 05:30,71.60,71.60,100.00,240.00,3.00,0.00,29.79,M,10.00,M,CLR,M,M,M,M,M,M,M,M,M,M,M,M,M,M,73.16,KMTN 120930Z AUTO 24003KT 10SM CLR 22/22 A2979 RMK AO2
MTN,2019-07-12 05:45,71.60,71.60,100.00,260.00,4.00,0.00,29.80,M,10.00,M,SCT,SCT,BKN,M,800.00,12000.00,20000.00,M,M,M,M,M,M,M,M,73.16,KMTN 120945Z 26004KT 10SM SCT008 SCT120 BKN200 22/22 A2980 RMK FIRST
MTN,2019-07-12 06:55,71.60,71.60,100.00,250.00,6.00,0.00,29.81,M,10.00,M,SCT,BKN,M,M,12000.00,20000.00,M,M,M,M,M,M,M,M,M,73.16,KMTN 121055Z 25006KT 10SM SCT120 BKN200 22/22 A2981
MTN,2019-07-12 07:45,73.40,73.40,100.00,260.00,3.00,0.00,29.81,M,10.00,M,FEW,SCT,M,M,18000.00,25000.00,M,M,M,M,M,M,M,M,M,75.14,KMTN 121145Z 26003KT 10SM FEW180 SCT250 23/23 A2981
MTN,2019-07-12 08:50,78.80,73.40,83.55,270.00,5.00,0.00,29.82,M,10.00,M,BKN,BKN,M,M,9000.00,25000.00,M,M,M,M,M,M,M,M,M,82.03,KMTN 121250Z 27005KT 10SM BKN090 BKN250 26/23 A2982
MTN,2019-07-12 09:45,80.60,75.20,83.66,290.00,7.00,0.00,29.83,M,10.00,M,SCT,SCT,M,M,9000.00,25000.00,M,M,M,M,M,M,M,M,M,86.17,KMTN 121345Z 29007KT 10SM SCT090 SCT250 27/24 A2983
MTN,2019-07-12 10:45,82.40,73.40,74.28,290.00,8.00,0.00,29.84,M,10.00,M,SCT,SCT,M,M,8500.00,25000.00,M,M,M,M,M,M,M,M,M,88.26,KMTN 121445Z 29008KT 10SM SCT085 SCT250 28/23 A2984
MTN,2019-07-12 11:50,86.00,73.40,66.15,290.00,10.00,0.00,29.83,M,10.00,M,SCT,SCT,SCT,M,5000.00,9000.00,25000.00,M,M,M,M,M,M,M,M,93.45,KMTN 121550Z 29010KT 10SM SCT050 SCT090 SCT250 30/23 A2983
MTN,2019-07-12 12:50,87.80,73.40,62.47,M,M,0.00,29.82,M,10.00,M,SCT,SCT,M,M,3800.00,25000.00,M,M,M,M,M,M,M,M,M,M,KMTN 121650Z 2810G14KT 10SM SCT038 SCT250 31/23 A2982
MTN,2019-07-12 13:45,87.80,69.80,55.29,280.00,13.00,0.00,29.82,M,10.00,20.00,SCT,SCT,M,M,4900.00,5500.00,M,M,M,M,M,M,M,M,M,92.71,KMTN 121745Z 28013G20KT 10SM SCT049 SCT055 31/21 A2982
MTN,2019-07-12 14:45,89.60,68.00,49.10,270.00,9.00,0.00,29.81,M,10.00,15.00,BKN,BKN,M,M,5000.00,7000.00,M,M,M,M,M,M,M,M,M,93.47,KMTN 121845Z 27009G15KT 10SM BKN050 BKN070 32/20 A2981
MTN,2019-07-12 15:55,89.60,66.20,46.14,290.00,17.00,0.00,29.80,M,10.00,22.00,SCT,M,M,M,6000.00,M,M,M,M,M,M,M,M,M,M,92.27,KMTN 121955Z 29017G22KT 10SM SCT060 32/19 A2980
MTN,2019-07-12 16:50,89.60,66.20,46.14,270.00,12.00,0.00,29.80,M,10.00,M,SCT,M,M,M,6000.00,M,M,M,M,M,M,M,M,M,M,92.27,KMTN 122050Z 27012KT 10SM SCT060 32/19 A2980
MTN,2019-07-12 17:50,89.60,64.40,43.34,310.00,12.00,0.00,29.80,M,10.00,19.00,SCT,M,M,M,6000.00,M,M,M,M,M,M,M,M,M,M,91.23,KMTN 122150Z 31012G19KT 10SM SCT060 32/18 A2980
MTN,2019-07-12 18:50,87.80,66.20,48.84,300.00,10.00,0.00,29.82,M,10.00,M,FEW,M,M,M,5000.00,M,M,M,M,M,M,M,M,M,M,90.31,KMTN 122250Z 30010KT 10SM FEW050 31/19 A2982
MTN,2019-07-12 19:50,86.00,66.20,51.72,310.00,5.00,0.00,29.84,M,10.00,M,CLR,M,M,M,M,M,M,M,M,M,M,M,M,M,M,88.39,KMTN 122350Z 31005KT 10SM SKC 30/19 A2984
MTN,2019-07-12 20:45,80.60,68.00,65.54,0.00,0.00,0.00,29.85,M,10.00,M,CLR,M,M,M,M,M,M,M,M,M,M,M,M,M,M,83.29,KMTN 130045Z 00000KT 10SM SKC 27/20 A2985
MTN,2019-07-12 21:45,80.60,68.00,65.54,0.00,0.00,0.00,29.89,M,10.00,M,CLR,M,M,M,M,M,M,M,M,M,M,M,M,M,M,83.29,KMTN 130145Z 00000KT 10SM SKC 27/20 A2989
MTN,2019-07-12 22:03,77.00,68.00,73.78,0.00,0.00,0.00,29.90,M,10.00,M,CLR,M,M,M,M,M,M,M,M,M,M,M,M,M,M,77.00,KMTN 130203Z AUTO 00000KT 10SM CLR 25/20 A2990 RMK AO2
MTN,2019-07-12 22:21,77.00,68.00,73.78,0.00,0.00,0.00,29.90,M,10.00,M,BKN,M,M,M,7000.00,M,M,M,M,M,M,M,M,M,M,77.00,KMTN 130221Z AUTO 00000KT 10SM BKN070 25/20 A2990 RMK AO2
MTN,2019-07-12 22:42,77.00,68.00,73.78,300.00,4.00,0.00,29.90,M,10.00,M,BKN,M,M,M,7000.00,M,M,M,M,M,M,M,M,M,M,77.00,KMTN 130242Z AUTO 30004KT 10SM BKN070 25/20 A2990 RMK AO2
MTN,2019-07-12 23:03,77.00,68.00,73.78,310.00,4.00,0.00,29.90,M,10.00,M,BKN,M,M,M,7000.00,M,M,M,M,M,M,M,M,M,M,77.00,KMTN 130303Z AUTO 31004KT 10SM BKN070 25/20 A2990 RMK AO2
MTN,2019-07-12 23:21,77.00,66.20,69.33,300.00,3.00,0.00,29.90,M,10.00,M,BKN,M,M,M,7000.00,M,M,M,M,M,M,M,M,M,M,77.00,KMTN 130321Z AUTO 30003KT 10SM BKN070 25/19 A2990 RMK AO2
MTN,2019-07-12 23:42,75.20,66.20,73.61,310.00,5.00,0.00,29.90,M,10.00,M,BKN,M,M,M,7000.00,M,M,M,M,M,M,M,M,M,M,75.20,KMTN 130342Z AUTO 31005KT 10SM BKN070 24/19 A2990 RMK AO2
MTN,2019-07-13 00:03,73.40,68.00,83.21,300.00,4.00,0.00,29.90,M,10.00,M,SCT,M,M,M,7000.00,M,M,M,M,M,M,M,M,M,M,73.40,KMTN 130403Z AUTO 30004KT 10SM SCT070 23/20 A2990 RMK AO2
MTN,2019-07-13 00:21,77.00,66.20,69.33,310.00,5.00,0.00,29.90,M,10.00,M,CLR,M,M,M,M,M,M,M,M,M,M,M,M,M,M,77.00,KMTN 130421Z AUTO 31005KT 10SM CLR 25/19 A2990 RMK AO2
MTN,2019-07-13 00:42,77.00,64.40,65.12,310.00,5.00,0.00,29.91,M,10.00,M,CLR,M,M,M,M,M,M,M,M,M,M,M,M,M,M,77.00,KMTN 130442Z AUTO 31005KT 10SM CLR 25/18 A2991 RMK AO2
MTN,2019-07-13 01:03,77.00,64.40,65.12,310.00,3.00,0.00,29.91,M,10.00,M,CLR,M,M,M,M,M,M,M,M,M,M,M,M,M,M,77.00,KMTN 130503Z AUTO 31003KT 10SM CLR 25/18 A2991 RMK AO2
MTN,2019-07-13 01:21,73.40,64.40,73.44,300.00,4.00,0.00,29.91,M,10.00,M,SCT,M,M,M,6000.00,M,M,M,M,M,M,M,M,M,M,73.40,KMTN 130521Z AUTO 30004KT 10SM SCT060 23/18 A2991 RMK AO2
MTN,2019-07-13 01:42,71.60,66.20,83.09,300.00,4.00,0.00,29.91,M,10.00,M,SCT,M,M,M,6000.00,M,M,M,M,M,M,M,M,M,M,71.60,KMTN 130542Z AUTO 30004KT 10SM SCT060 22/19 A2991 RMK AO2
MTN,2019-07-13 02:03,71.60,66.20,83.09,310.00,3.00,0.00,29.92,M,10.00,M,SCT,M,M,M,6000.00,M,M,M,M,M,M,M,M,M,M,71.60,KMTN 130603Z AUTO 31003KT 10SM SCT060 22/19 A2992 RMK AO2
MTN,2019-07-13 02:21,73.40,66.20,78.19,290.00,3.00,0.00,29.92,M,10.00,M,CLR,M,M,M,M,M,M,M,M,M,M,M,M,M,M,73.40,KMTN 130621Z AUTO 29003KT 10SM CLR 23/19 A2992 RMK AO2
MTN,2019-07-13 02:42,73.40,64.40,73.44,310.00,5.00,0.00,29.91,M,10.00,M,CLR,M,M,M,M,M,M,M,M,M,M,M,M,M,M,73.40,KMTN 130642Z AUTO 31005KT 10SM CLR 23/18 A2991 RMK AO2
MTN,2019-07-13 03:03,73.40,64.40,73.44,300.00,6.00,0.00,29.92,M,10.00,M,CLR,M,M,M,M,M,M,M,M,M,M,M,M,M,M,73.40,KMTN 130703Z AUTO 30006KT 10SM CLR 23/18 A2992 RMK AO2
MTN,2019-07-13 03:21,71.60,64.40,78.04,300.00,4.00,0.00,29.92,M,10.00,M,CLR,M,M,M,M,M,M,M,M,M,M,M,M,M,M,71.60,KMTN 130721Z AUTO 30004KT 10SM CLR 22/18 A2992 RMK AO2
MTN,2019-07-13 03:42,69.80,66.20,88.34,290.00,5.00,0.00,29.92,M,10.00,M,CLR,M,M,M,M,M,M,M,M,M,M,M,M,M,M,69.80,KMTN 130742Z AUTO 29005KT 10SM CLR 21/19 A2992 RMK AO2
MTN,2019-07-13 04:03,68.00,66.20,93.97,290.00,5.00,0.00,29.92,M,10.00,M,CLR,M,M,M,M,M,M,M,M,M,M,M,M,M,M,68.00,KMTN 130803Z AUTO 29005KT 10SM CLR 20/19 A2992 RMK AO2
MTN,2019-07-13 04:21,69.80,66.20,88.34,300.00,4.00,0.00,29.94,M,10.00,M,CLR,M,M,M,M,M,M,M,M,M,M,M,M,M,M,69.80,KMTN 130821Z AUTO 30004KT 10SM CLR 21/19 A2994 RMK AO2
MTN,2019-07-13 04:42,71.60,66.20,83.09,300.00,5.00,0.00,29.94,M,10.00,M,CLR,M,M,M,M,M,M,M,M,M,M,M,M,M,M,71.60,KMTN 130842Z AUTO 30005KT 10SM CLR 22/19 A2994 RMK AO2
MTN,2019-07-13 05:03,68.00,64.40,88.26,290.00,5.00,0.00,29.95,M,10.00,M,CLR,M,M,M,M,M,M,M,M,M,M,M,M,M,M,68.00,KMTN 130903Z AUTO 29005KT 10SM CLR 20/18 A2995 RMK AO2
MTN,2019-07-13 05:21,68.00,64.40,88.26,280.00,4.00,0.00,29.96,M,10.00,M,CLR,M,M,M,M,M,M,M,M,M,M,M,M,M,M,68.00,KMTN 130921Z AUTO 28004KT 10SM CLR 20/18 A2996 RMK AO2
MTN,2019-07-13 05:30,69.80,66.20,88.34,290.00,5.00,0.00,29.96,M,10.00,M,CLR,M,M,M,M,M,M,M,M,M,M,M,M,M,M,69.80,KMTN 130930Z AUTO 29005KT 10SM CLR 21/19 A2996 RMK AO2
MTN,2019-07-13 05:45,69.80,66.20,88.34,300.00,5.00,0.00,29.96,M,10.00,M,FEW,M,M,M,20000.00,M,M,M,M,M,M,M,M,M,M,69.80,KMTN 130945Z 30005KT 10SM FEW200 21/19 A2996
MTN,2019-07-13 06:50,69.80,66.20,88.34,300.00,4.00,0.00,29.98,M,10.00,M,CLR,M,M,M,M,M,M,M,M,M,M,M,M,M,M,69.80,KMTN 131050Z 30004KT 10SM SKC 21/19 A2998
MTN,2019-07-13 07:45,75.20,68.00,78.34,310.00,5.00,0.00,29.99,M,10.00,M,CLR,M,M,M,M,M,M,M,M,M,M,M,M,M,M,75.20,KMTN 131145Z 31005KT 10SM SKC 24/20 A2999
MTN,2019-07-13 08:45,78.80,66.20,65.33,300.00,5.00,0.00,30.00,M,10.00,M,CLR,M,M,M,M,M,M,M,M,M,M,M,M,M,M,80.82,KMTN 131245Z 30005KT 10SM SKC 26/19 A3000
MTN,2019-07-13 09:45,80.60,66.20,61.58,310.00,8.00,0.00,30.00,M,10.00,M,CLR,M,M,M,M,M,M,M,M,M,M,M,M,M,M,82.75,KMTN 131345Z 31008KT 10SM SKC 27/19 A3000
MTN,2019-07-13 10:54,82.40,64.40,54.55,300.00,6.00,0.00,30.00,M,10.00,M,CLR,M,M,M,M,M,M,M,M,M,M,M,M,M,M,83.98,KMTN 131454Z 30006KT 10SM SKC 28/18 A3000
MTN,2019-07-13 11:45,84.20,64.40,51.47,280.00,7.00,0.00,30.00,M,10.00,M,CLR,M,M,M,M,M,M,M,M,M,M,M,M,M,M,85.71,KMTN 131545Z 28007KT 10SM SKC 29/18 A3000
MTN,2019-07-13 12:45,86.00,64.40,48.58,290.00,5.00,0.00,29.99,M,10.00,M,CLR,M,M,M,M,M,M,M,M,M,M,M,M,M,M,87.49,KMTN 131645Z 29005KT 10SM SKC 30/18 A2999
MTN,2019-07-13 13:45,87.80,64.40,45.88,270.00,6.00,0.00,29.98,M,10.00,M,CLR,M,M,M,M,M,M,M,M,M,M,M,M,M,M,89.33,KMTN 131745Z 27006KT 10SM SKC 31/18 A2998
MTN,2019-07-13 14:45,87.80,69.80,55.29,110.00,5.00,0.00,29.97,M,10.00,M,CLR,M,M,M,M,M,M,M,M,M,M,M,M,M,M,92.71,KMTN 131845Z 11005KT 10SM SKC 31/21 A2997
MTN,2019-07-13 15:45,89.60,69.80,52.23,110.00,3.00,0.00,29.95,M,10.00,M,CLR,M,M,M,M,M,M,M,M,M,M,M,M,M,M,94.85,KMTN 131945Z 11003KT 10SM SKC 32/21 A2995
MTN,2019-07-13 16:50,89.60,64.40,43.34,270.00,8.00,0.00,29.94,M,10.00,M,CLR,M,M,M,M,M,M,M,M,M,M,M,M,M,M,91.23,KMTN 132050Z 27008KT 10SM SKC 32/18 A2994
MTN,2019-07-13 17:50,89.60,64.40,43.34,210.00,6.00,0.00,29.94,M,10.00,M,CLR,M,M,M,M,M,M,M,M,M,M,M,M,M,M,91.23,KMTN 132150Z 21006KT 10SM SKC 32/18 A2994
MTN,2019-07-13 18:45,89.60,64.40,43.34,240.00,7.00,0.00,29.94,M,10.00,M,CLR,M,M,M,M,M,M,M,M,M,M,M,M,M,M,91.23,KMTN 132245Z 24007KT 10SM SKC 32/18 A2994
MTN,2019-07-13 19:50,87.80,66.20,48.84,260.00,4.00,0.00,29.95,M,10.00,M,CLR,M,M,M,M,M,M,M,M,M,M,M,M,M,M,90.31,KMTN 132350Z 26004KT 10SM SKC 31/19 A2995
MTN,2019-07-13 20:45,86.00,66.20,51.72,240.00,3.00,0.00,29.96,M,10.00,M,CLR,M,M,M,M,M,M,M,M,M,M,M,M,M,M,88.39,KMTN 140045Z 24003KT 10SM SKC 30/19 A2996
MTN,2019-07-13 21:45,78.80,69.80,73.95,0.00,0.00,0.00,29.97,M,10.00,M,CLR,M,M,M,M,M,M,M,M,M,M,M,M,M,M,81.39,KMTN 140145Z 00000KT 10SM SKC 26/21 A2997
MTN,2019-07-13 22:03,78.80,69.80,73.95,0.00,0.00,0.00,29.98,M,10.00,M,CLR,M,M,M,M,M,M,M,M,M,M,M,M,M,M,81.39,KMTN 140203Z AUTO 00000KT 10SM CLR 26/21 A2998 RMK AO2
MTN,2019-07-13 22:21,78.80,69.80,73.95,0.00,0.00,0.00,29.98,M,10.00,M,CLR,M,M,M,M,M,M,M,M,M,M,M,M,M,M,81.39,KMTN 140221Z AUTO 00000KT 10SM CLR 26/21 A2998 RMK AO2
MTN,2019-07-13 22:42,77.00,69.80,78.48,0.00,0.00,0.00,29.98,M,10.00,M,CLR,M,M,M,M,M,M,M,M,M,M,M,M,M,M,78.09,KMTN 140242Z AUTO 00000KT 10SM CLR 25/21 A2998 RMK AO2
MTN,2019-07-13 23:03,77.00,69.80,78.48,0.00,0.00,0.00,29.98,M,10.00,M,CLR,M,M,M,M,M,M,M,M,M,M,M,M,M,M,78.09,KMTN 140303Z AUTO 00000KT 10SM CLR 25/21 A2998 RMK AO2
MTN,2019-07-13 23:21,77.00,69.80,78.48,0.00,0.00,0.00,29.97,M,10.00,M,CLR,M,M,M,M,M,M,M,M,M,M,M,M,M,M,78.09,KMTN 140321Z AUTO 00000KT 10SM CLR 25/21 A2997 RMK AO2
MTN,2019-07-13 23:42,77.00,71.60,83.44,0.00,0.00,0.00,29.97,M,10.00,M,CLR,M,M,M,M,M,M,M,M,M,M,M,M,M,M,78.32,KMTN 140342Z AUTO 00000KT 10SM CLR 25/22 A2997 RMK AO2
MTN,2019-07-14 00:03,77.00,69.80,78.48,270.00,3.00,0.00,29.97,M,10.00,M,CLR,M,M,M,M,M,M,M,M,M,M,M,M,M,M,78.09,KMTN 140403Z AUTO 27003KT 10SM CLR 25/21 A2997 RMK AO2
MTN,2019-07-14 00:21,75.20,69.80,83.32,0.00,0.00,0.00,29.96,M,10.00,M,CLR,M,M,M,M,M,M,M,M,M,M,M,M,M,M,76.34,KMTN 140421Z AUTO 00000KT 10SM CLR 24/21 A2996 RMK AO2
MTN,2019-07-14 00:42,75.20,69.80,83.32,0.00,0.00,0.00,29.96,M,10.00,M,CLR,M,M,M,M,M,M,M,M,M,M,M,M,M,M,76.34,KMTN 140442Z AUTO 00000KT 10SM CLR 24/21 A2996 RMK AO2
MTN,2019-07-14 01:21,75.20,69.80,83.32,0.00,0.00,0.00,29.96,M,10.00,M,CLR,M,M,M,M,M,M,M,M,M,M,M,M,M,M,76.34,KMTN 140521Z AUTO 00000KT 10SM CLR 24/21 A2996 RMK AO2
MTN,2019-07-14 01:42,73.40,69.80,88.51,280.00,3.00,0.00,29.96,M,10.00,M,CLR,M,M,M,M,M,M,M,M,M,M,M,M,M,M,74.60,KMTN 140542Z AUTO 28003KT 10SM CLR 23/21 A2996 RMK AO2
MTN,2019-07-14 02:03,73.40,69.80,88.51,0.00,0.00,0.00,29.96,M,10.00,M,CLR,M,M,M,M,M,M,M,M,M,M,M,M,M,M,74.60,KMTN 140603Z AUTO 00000KT 10SM CLR 23/21 A2996 RMK AO2
MTN,2019-07-14 02:21,73.40,69.80,88.51,0.00,0.00,0.00,29.96,M,10.00,M,CLR,M,M,M,M,M,M,M,M,M,M,M,M,M,M,74.60,KMTN 140621Z AUTO 00000KT 10SM CLR 23/21 A2996 RMK AO2
MTN,2019-07-14 02:42,75.20,69.80,83.32,0.00,0.00,0.00,29.96,M,10.00,M,CLR,M,M,M,M,M,M,M,M,M,M,M,M,M,M,76.34,KMTN 140642Z AUTO 00000KT 10SM CLR 24/21 A2996 RMK AO2
MTN,2019-07-14 03:03,75.20,69.80,83.32,0.00,0.00,0.00,29.96,M,10.00,M,CLR,M,M,M,M,M,M,M,M,M,M,M,M,M,M,76.34,KMTN 140703Z AUTO 00000KT 10SM CLR 24/21 A2996 RMK AO2
MTN,2019-07-14 03:21,73.40,69.80,88.51,0.00,0.00,0.00,29.97,M,10.00,M,CLR,M,M,M,M,M,M,M,M,M,M,M,M,M,M,74.60,KMTN 140721Z AUTO 00000KT 10SM CLR 23/21 A2997 RMK AO2
MTN,2019-07-14 03:42,75.20,69.80,83.32,260.00,3.00,0.00,29.96,M,10.00,M,CLR,M,M,M,M,M,M,M,M,M,M,M,M,M,M,76.34,KMTN 140742Z AUTO 26003KT 10SM CLR 24/21 A2996 RMK AO2
MTN,2019-07-14 04:03,73.40,69.80,88.51,0.00,0.00,0.00,29.97,M,10.00,M,CLR,M,M,M,M,M,M,M,M,M,M,M,M,M,M,74.60,KMTN 140803Z AUTO 00000KT 10SM CLR 23/21 A2997 RMK AO2
MTN,2019-07-14 04:21,73.40,69.80,88.51,0.00,0.00,0.00,29.97,M,10.00,M,CLR,M,M,M,M,M,M,M,M,M,M,M,M,M,M,74.60,KMTN 140821Z AUTO 00000KT 10SM CLR 23/21 A2997 RMK AO2
MTN,2019-07-14 04:42,73.40,69.80,88.51,0.00,0.00,0.00,29.98,M,10.00,M,CLR,M,M,M,M,M,M,M,M,M,M,M,M,M,M,74.60,KMTN 140842Z AUTO 00000KT 10SM CLR 23/21 A2998 RMK AO2
MTN,2019-07-14 05:03,73.40,69.80,88.51,0.00,0.00,0.00,29.98,M,10.00,M,CLR,M,M,M,M,M,M,M,M,M,M,M,M,M,M,74.60,KMTN 140903Z AUTO 00000KT 10SM CLR 23/21 A2998 RMK AO2
MTN,2019-07-14 05:21,73.40,69.80,88.51,0.00,0.00,0.00,29.98,M,10.00,M,CLR,M,M,M,M,M,M,M,M,M,M,M,M,M,M,74.60,KMTN 140921Z AUTO 00000KT 10SM CLR 23/21 A2998 RMK AO2
MTN,2019-07-14 05:30,73.40,69.80,88.51,0.00,0.00,0.00,29.99,M,10.00,M,CLR,M,M,M,M,M,M,M,M,M,M,M,M,M,M,74.60,KMTN 140930Z AUTO 00000KT 10SM CLR 23/21 A2999 RMK AO2
MTN,2019-07-14 05:45,73.40,71.60,94.10,0.00,0.00,0.00,29.99,M,10.00,M,SCT,M,M,M,20000.00,M,M,M,M,M,M,M,M,M,M,74.86,KMTN 140945Z 00000KT 10SM SCT200 23/22 A2999 RMK FIRST
MTN,2019-07-14 06:45,75.20,71.60,88.59,0.00,0.00,0.00,29.99,M,10.00,M,SCT,M,M,M,20000.00,M,M,M,M,M,M,M,M,M,M,76.58,KMTN 141045Z 00000KT 10SM SCT200 24/22 A2999
MTN,2019-07-14 07:45,78.80,71.60,78.62,250.00,3.00,0.00,30.00,M,10.00,M,FEW,M,M,M,20000.00,M,M,M,M,M,M,M,M,M,M,81.70,KMTN 141145Z 25003KT 10SM FEW200 26/22 A3000
MTN,2019-07-14 08:45,82.40,71.60,69.90,250.00,3.00,0.00,30.02,M,10.00,M,SCT,M,M,M,20000.00,M,M,M,M,M,M,M,M,M,M,87.18,KMTN 141245Z 25003KT 10SM SCT200 28/22 A3002
MTN,2019-07-14 09:45,87.80,69.80,55.29,240.00,5.00,0.00,30.01,M,10.00,M,SCT,M,M,M,20000.00,M,M,M,M,M,M,M,M,M,M,92.71,KMTN 141345Z 24005KT 10SM SCT200 31/21 A3001
MTN,2019-07-14 10:45,89.60,69.80,52.23,280.00,8.00,0.00,30.01,M,10.00,M,FEW,SCT,M,M,8000.00,20000.00,M,M,M,M,M,M,M,M,M,94.85,KMTN 141445Z 28008KT 10SM FEW080 SCT200 32/21 A3001
MTN,2019-07-14 11:45,91.40,71.60,52.48,240.00,5.00,0.00,30.01,M,10.00,M,BKN,M,M,M,12000.00,M,M,M,M,M,M,M,M,M,M,98.64,KMTN 141545Z 24005KT 10SM BKN120 33/22 A3001
MTN,2019-07-14 12:45,89.60,71.60,55.53,250.00,7.00,0.00,30.00,M,10.00,M,FEW,BKN,M,M,5000.00,12000.00,M,M,M,M,M,M,M,M,M,96.41,KMTN 141645Z 25007KT 10SM FEW050 BKN120 32/22 A3000
MTN,2019-07-14 13:45,91.40,71.60,52.48,280.00,9.00,0.00,29.99,M,10.00,M,SCT,BKN,M,M,5000.00,20000.00,M,M,M,M,M,M,M,M,M,98.64,KMTN 141745Z 28009KT 10SM SCT050 BKN200 33/22 A2999
MTN,2019-07-14 14:45,91.40,69.80,49.36,270.00,12.00,0.00,29.98,M,10.00,M,SCT,BKN,M,M,5000.00,20000.00,M,M,M,M,M,M,M,M,M,96.99,KMTN 141845Z 27012KT 10SM SCT050 BKN200 33/21 A2998
MTN,2019-07-14 15:55,91.40,69.80,49.36,260.00,9.00,0.00,29.97,M,10.00,16.00,SCT,SCT,M,M,6000.00,20000.00,M,M,M,M,M,M,M,M,M,96.99,KMTN 141955Z 26009G16KT 10SM SCT060 SCT200 33/21 A2997
MTN,2019-07-14 16:45,93.20,69.80,46.67,270.00,10.00,0.00,29.97,M,10.00,M,SCT,SCT,M,M,6000.00,20000.00,M,M,M,M,M,M,M,M,M,99.17,KMTN 142045Z 27010KT 10SM SCT060 SCT200 34/21 A2997
MTN,2019-07-14 17:50,91.40,69.80,49.36,270.00,10.00,0.00,29.97,M,10.00,M,SCT,M,M,M,6000.00,M,M,M,M,M,M,M,M,M,M,96.99,KMTN 142150Z 27010KT 10SM SCT060 33/21 A2997
MTN,2019-07-14 18:45,91.40,66.20,43.61,310.00,11.00,0.00,29.97,M,10.00,M,SCT,M,M,M,6000.00,M,M,M,M,M,M,M,M,M,M,94.29,KMTN 142245Z 31011KT 10SM SCT060 33/19 A2997
MTN,2019-07-14 19:45,87.80,69.80,55.29,320.00,10.00,0.00,29.99,M,10.00,M,FEW,SCT,M,M,6000.00,20000.00,M,M,M,M,M,M,M,M,M,92.71,KMTN 142345Z 32010KT 10SM FEW060 SCT200 31/21 A2999
MTN,2019-07-14 20:45,84.20,69.80,62.03,320.00,7.00,0.00,29.99,M,10.00,M,SCT,M,M,M,20000.00,M,M,M,M,M,M,M,M,M,M,88.43,KMTN 150045Z 32007KT 10SM SCT200 29/21 A2999
MTN,2019-07-14 21:45,82.40,69.80,65.74,320.00,5.00,0.00,30.02,M,10.00,M,SCT,M,M,M,20000.00,M,M,M,M,M,M,M,M,M,M,86.22,KMTN 150145Z 32005KT 10SM SCT200 28/21 A3002
MTN,2019-07-14 22:03,78.80,68.00,69.52,0.00,0.00,0.00,30.02,M,10.00,M,CLR,M,M,M,M,M,M,M,M,M,M,M,M,M,M,81.10,KMTN 150203Z AUTO 00000KT 10SM CLR 26/20 A3002 RMK AO2
MTN,2019-07-14 22:21,78.80,68.00,69.52,0.00,0.00,0.00,30.02,M,10.00,M,CLR,M,M,M,M,M,M,M,M,M,M,M,M,M,M,81.10,KMTN 150221Z AUTO 00000KT 10SM CLR 26/20 A3002 RMK AO2
MTN,2019-07-14 22:42,77.00,66.20,69.33,300.00,5.00,0.00,30.03,M,10.00,M,CLR,M,M,M,M,M,M,M,M,M,M,M,M,M,M,77.00,KMTN 150242Z AUTO 30005KT 10SM CLR 25/19 A3003 RMK AO2
MTN,2019-07-14 23:03,77.00,66.20,69.33,300.00,3.00,0.00,30.03,M,10.00,M,CLR,M,M,M,M,M,M,M,M,M,M,M,M,M,M,77.00,KMTN 150303Z AUTO 30003KT 10SM CLR 25/19 A3003 RMK AO2
MTN,2019-07-14 23:21,77.00,66.20,69.33,300.00,3.00,0.00,30.03,M,10.00,M,CLR,M,M,M,M,M,M,M,M,M,M,M,M,M,M,77.00,KMTN 150321Z AUTO 30003KT 10SM CLR 25/19 A3003 RMK AO2
MTN,2019-07-14 23:42,77.00,64.40,65.12,0.00,0.00,0.00,30.04,M,10.00,M,CLR,M,M,M,M,M,M,M,M,M,M,M,M,M,M,77.00,KMTN 150342Z AUTO 00000KT 10SM CLR 25/18 A3004 RMK AO2
MTN,2019-07-15 00:03,75.20,66.20,73.61,300.00,3.00,0.00,30.05,M,10.00,M,CLR,M,M,M,M,M,M,M,M,M,M,M,M,M,M,75.20,KMTN 150403Z AUTO 30003KT 10SM CLR 24/19 A3005 RMK AO2
MTN,2019-07-15 00:21,75.20,64.40,69.14,300.00,5.00,0.00,30.05,M,10.00,M,CLR,M,M,M,M,M,M,M,M,M,M,M,M,M,M,75.20,KMTN 150421Z AUTO 30005KT 10SM CLR 24/18 A3005 RMK AO2
MTN,2019-07-15 00:42,75.20,64.40,69.14,300.00,4.00,0.00,30.06,M,10.00,M,CLR,M,M,M,M,M,M,M,M,M,M,M,M,M,M,75.20,KMTN 150442Z AUTO 30004KT 10SM CLR 24/18 A3006 RMK AO2
MTN,2019-07-15 01:03,73.40,64.40,73.44,280.00,3.00,0.00,30.05,M,10.00,M,CLR,M,M,M,M,M,M,M,M,M,M,M,M,M,M,73.40,KMTN 150503Z AUTO 28003KT 10SM CLR 23/18 A3005 RMK AO2
MTN,2019-07-15 01:42,71.60,64.40,78.04,290.00,3.00,0.00,30.06,M,10.00,M,CLR,M,M,M,M,M,M,M,M,M,M,M,M,M,M,71.60,KMTN 150542Z AUTO 29003KT 10SM CLR 22/18 A3006 RMK AO2
MTN,2019-07-15 02:03,71.60,64.40,78.04,280.00,4.00,0.00,30.05,M,10.00,M,CLR,M,M,M,M,M,M,M,M,M,M,M,M,M,M,71.60,KMTN 150603Z AUTO 28004KT 10SM CLR 22/18 A3005 RMK AO2
MTN,2019-07-15 02:21,71.60,66.20,83.09,290.00,4.00,0.00,30.05,M,10.00,M,CLR,M,M,M,M,M,M,M,M,M,M,M,M,M,M,71.60,KMTN 150621Z AUTO 29004KT 10SM CLR 22/19 A3005 RMK AO2
MTN,2019-07-15 02:42,69.80,64.40,82.98,300.00,5.00,0.00,30.05,M,10.00,M,CLR,M,M,M,M,M,M,M,M,M,M,M,M,M,M,69.80,KMTN 150642Z AUTO 30005KT 10SM CLR 21/18 A3005 RMK AO2
MTN,2019-07-15 03:03,71.60,64.40,78.04,310.00,6.00,0.00,30.05,M,10.00,M,CLR,M,M,M,M,M,M,M,M,M,M,M,M,M,M,71.60,KMTN 150703Z AUTO 31006KT 10SM CLR 22/18 A3005 RMK AO2
MTN,2019-07-15 03:21,73.40,64.40,73.44,310.00,6.00,0.00,30.05,M,10.00,M,CLR,M,M,M,M,M,M,M,M,M,M,M,M,M,M,73.40,KMTN 150721Z AUTO 31006KT 10SM CLR 23/18 A3005 RMK AO2
MTN,2019-07-15 03:42,71.60,64.40,78.04,310.00,6.00,0.00,30.05,M,10.00,M,CLR,M,M,M,M,M,M,M,M,M,M,M,M,M,M,71.60,KMTN 150742Z AUTO 31006KT 10SM CLR 22/18 A3005 RMK AO2
MTN,2019-07-15 04:03,71.60,62.60,73.27,310.00,4.00,0.00,30.06,M,10.00,M,CLR,M,M,M,M,M,M,M,M,M,M,M,M,M,M,71.60,KMTN 150803Z AUTO 31004KT 10SM CLR 22/17 A3006 RMK AO2
MTN,2019-07-15 04:21,71.60,62.60,73.27,310.00,4.00,0.00,30.06,M,10.00,M,CLR,M,M,M,M,M,M,M,M,M,M,M,M,M,M,71.60,KMTN 150821Z AUTO 31004KT 10SM CLR 22/17 A3006 RMK AO2
MTN,2019-07-15 04:42,71.60,62.60,73.27,310.00,5.00,0.00,30.07,M,10.00,M,CLR,M,M,M,M,M,M,M,M,M,M,M,M,M,M,71.60,KMTN 150842Z AUTO 31005KT 10SM CLR 22/17 A3007 RMK AO2
MTN,2019-07-15 05:03,69.80,62.60,77.90,310.00,4.00,0.00,30.07,M,10.00,M,CLR,M,M,M,M,M,M,M,M,M,M,M,M,M,M,69.80,KMTN 150903Z AUTO 31004KT 10SM CLR 21/17 A3007 RMK AO2
MTN,2019-07-15 05:21,69.80,62.60,77.90,0.00,0.00,0.00,30.07,M,10.00,M,CLR,M,M,M,M,M,M,M,M,M,M,M,M,M,M,69.80,KMTN 150921Z AUTO 00000KT 10SM CLR 21/17 A3007 RMK AO2
MTN,2019-07-15 05:45,69.80,62.60,77.90,0.00,0.00,0.00,30.08,M,10.00,M,SCT,M,M,M,20000.00,M,M,M,M,M,M,M,M,M,M,69.80,KMTN 150945Z 00000KT 10SM SCT200 21/17 A3008
MTN,2019-07-15 06:45,71.60,64.40,78.04,0.00,0.00,0.00,30.10,M,10.00,M,FEW,M,M,M,20000.00,M,M,M,M,M,M,M,M,M,M,71.60,KMTN 151045Z 00000KT 10SM FEW200 22/18 A3010
MTN,2019-07-15 07:45,75.20,64.40,69.14,0.00,0.00,0.00,30.11,M,10.00,M,FEW,M,M,M,20000.00,M,M,M,M,M,M,M,M,M,M,75.20,KMTN 151145Z 00000KT 10SM FEW200 24/18 A3011
MTN,2019-07-15 08:45,78.80,64.40,61.36,0.00,0.00,0.00,30.13,M,10.00,M,SCT,M,M,M,20000.00,M,M,M,M,M,M,M,M,M,M,80.56,KMTN 151245Z 00000KT 10SM SCT200 26/18 A3013
MTN,2019-07-15 09:45,80.60,62.60,54.30,30.00,3.00,0.00,30.13,M,10.00,M,SCT,M,M,M,25000.00,M,M,M,M,M,M,M,M,M,M,81.84,KMTN 151345Z 03003KT 10SM SCT250 27/17 A3013
MTN,2019-07-15 10:45,82.40,64.40,54.55,70.00,4.00,0.00,30.12,M,10.00,M,SCT,M,M,M,25000.00,M,M,M,M,M,M,M,M,M,M,83.98,KMTN 151445Z 07004KT 10SM SCT250 28/18 A3012
MTN,2019-07-15 11:45,84.20,64.40,51.47,80.00,4.00,0.00,30.12,M,10.00,M,SCT,BKN,M,M,4500.00,20000.00,M,M,M,M,M,M,M,M,M,85.71,KMTN 151545Z 08004KT 10SM SCT045 BKN200 29/18 A3012
MTN,2019-07-15 12:45,84.20,66.20,54.80,130.00,7.00,0.00,30.11,M,10.00,M,SCT,BKN,M,M,5000.00,20000.00,M,M,M,M,M,M,M,M,M,86.50,KMTN 151645Z 13007KT 10SM SCT050 BKN200 29/19 A3011
MTN,2019-07-15 13:45,86.00,66.20,51.72,130.00,7.00,0.00,30.09,M,10.00,M,SCT,BKN,M,M,5000.00,20000.00,M,M,M,M,M,M,M,M,M,88.39,KMTN 151745Z 13007KT 10SM SCT050 BKN200 30/19 A3009
MTN,2019-07-15 14:50,86.00,66.20,51.72,120.00,7.00,0.00,30.07,M,10.00,M,FEW,M,M,M,5000.00,M,M,M,M,M,M,M,M,M,M,88.39,KMTN 151850Z 12007KT 10SM FEW050 30/19 A3007
MTN,2019-07-15 16:50,87.80,66.20,48.84,130.00,6.00,0.00,30.06,M,10.00,M,CLR,M,M,M,M,M,M,M,M,M,M,M,M,M,M,90.31,KMTN 152050Z 13006KT 10SM SKC 31/19 A3006
MTN,2019-07-15 17:50,86.00,66.20,51.72,130.00,6.00,0.00,30.04,M,10.00,M,CLR,M,M,M,M,M,M,M,M,M,M,M,M,M,M,88.39,KMTN 152150Z 13006KT 10SM SKC 30/19 A3004
MTN,2019-07-15 18:55,84.20,66.20,54.80,130.00,5.00,0.00,30.05,M,10.00,M,SCT,M,M,M,20000.00,M,M,M,M,M,M,M,M,M,M,86.50,KMTN 152255Z 13005KT 10SM SCT200 29/19 A3005
MTN,2019-07-15 19:50,82.40,66.20,58.08,120.00,4.00,0.00,30.05,M,10.00,M,CLR,M,M,M,M,M,M,M,M,M,M,M,M,M,M,84.63,KMTN 152350Z 12004KT 10SM SKC 28/19 A3005
MTN,2019-07-15 20:45,82.40,69.80,65.74,150.00,3.00,0.00,30.06,M,10.00,M,CLR,M,M,M,M,M,M,M,M,M,M,M,M,M,M,86.22,KMTN 160045Z 15003KT 10SM SKC 28/21 A3006
MTN,2019-07-15 21:50,78.80,69.80,73.95,0.00,0.00,0.00,30.07,M,10.00,M,CLR,M,M,M,M,M,M,M,M,M,M,M,M,M,M,81.39,KMTN 160150Z 00000KT 10SM SKC 26/21 A3007
MTN,2019-07-15 22:03,77.00,69.80,78.48,0.00,0.00,0.00,30.07,M,10.00,M,CLR,M,M,M,M,M,M,M,M,M,M,M,M,M,M,78.09,KMTN 160203Z AUTO 00000KT 10SM CLR 25/21 A3007 RMK AO2
MTN,2019-07-15 22:21,77.00,69.80,78.48,0.00,0.00,0.00,30.07,M,10.00,M,CLR,M,M,M,M,M,M,M,M,M,M,M,M,M,M,78.09,KMTN 160221Z AUTO 00000KT 10SM CLR 25/21 A3007 RMK AO2
MTN,2019-07-15 23:03,75.20,71.60,88.59,0.00,0.00,0.00,30.08,M,10.00,M,CLR,M,M,M,M,M,M,M,M,M,M,M,M,M,M,76.58,KMTN 160303Z AUTO 00000KT 10SM CLR 24/22 A3008 RMK AO2
MTN,2019-07-15 23:21,75.20,71.60,88.59,0.00,0.00,0.00,30.08,M,10.00,M,CLR,M,M,M,M,M,M,M,M,M,M,M,M,M,M,76.58,KMTN 160321Z AUTO 00000KT 10SM CLR 24/22 A3008 RMK AO2
MTN,2019-07-16 00:21,73.40,71.60,94.10,0.00,0.00,0.00,30.08,M,10.00,M,CLR,M,M,M,M,M,M,M,M,M,M,M,M,M,M,74.86,KMTN 160421Z AUTO 00000KT 10SM CLR 23/22 A3008 RMK AO2
MTN,2019-07-16 01:03,71.60,71.60,100.00,0.00,0.00,0.00,30.09,M,10.00,M,CLR,M,M,M,M,M,M,M,M,M,M,M,M,M,M,73.16,KMTN 160503Z AUTO 00000KT 10SM CLR 22/22 A3009 RMK AO2
MTN,2019-07-16 02:03,71.60,71.60,100.00,0.00,0.00,0.00,30.08,M,10.00,M,CLR,M,M,M,M,M,M,M,M,M,M,M,M,M,M,73.16,KMTN 160603Z AUTO 00000KT 10SM CLR 22/22 A3008 RMK AO2
MTN,2019-07-16 02:21,71.60,71.60,100.00,0.00,0.00,0.00,30.09,M,10.00,M,CLR,M,M,M,M,M,M,M,M,M,M,M,M,M,M,73.16,KMTN 160621Z AUTO 00000KT 10SM CLR 22/22 A3009 RMK AO2
MTN,2019-07-16 03:03,71.60,69.80,94.06,0.00,0.00,0.00,30.08,M,10.00,M,CLR,M,M,M,M,M,M,M,M,M,M,M,M,M,M,72.88,KMTN 160703Z AUTO 00000KT 10SM CLR 22/21 A3008 RMK AO2
MTN,2019-07-16 03:21,71.60,71.60,100.00,0.00,0.00,0.00,30.08,M,10.00,M,CLR,M,M,M,M,M,M,M,M,M,M,M,M,M,M,73.16,KMTN 160721Z AUTO 00000KT 10SM CLR 22/22 A3008 RMK AO2
MTN,2019-07-16 03:42,71.60,69.80,94.06,0.00,0.00,0.00,30.07,M,10.00,M,CLR,M,M,M,M,M,M,M,M,M,M,M,M,M,M,72.88,KMTN 160742Z AUTO 00000KT 10SM CLR 22/21 A3007 RMK AO2
MTN,2019-07-16 04:03,71.60,69.80,94.06,0.00,0.00,0.00,30.07,M,10.00,M,CLR,M,M,M,M,M,M,M,M,M,M,M,M,M,M,72.88,KMTN 160803Z AUTO 00000KT 10SM CLR 22/21 A3007 RMK AO2
MTN,2019-07-16 04:42,69.80,69.80,100.00,0.00,0.00,0.00,30.07,M,10.00,M,CLR,M,M,M,M,M,M,M,M,M,M,M,M,M,M,69.80,KMTN 160842Z AUTO 00000KT 10SM CLR 21/21 A3007 RMK AO2
MTN,2019-07-16 05:21,69.80,69.80,100.00,0.00,0.00,0.00,30.07,M,10.00,M,CLR,M,M,M,M,M,M,M,M,M,M,M,M,M,M,69.80,KMTN 160921Z AUTO 00000KT 10SM CLR 21/21 A3007 RMK AO2
MTN,2019-07-16 05:30,69.80,69.80,100.00,0.00,0.00,0.00,30.08,M,10.00,M,CLR,M,M,M,M,M,M,M,M,M,M,M,M,M,M,69.80,KMTN 160930Z AUTO 00000KT 10SM CLR 21/21 A3008 RMK AO2
MTN,2019-07-16 05:45,69.80,69.80,100.00,0.00,0.00,0.00,30.09,M,10.00,M,SCT,M,M,M,25000.00,M,M,M,M,M,M,M,M,M,M,69.80,KMTN 160945Z 00000KT 10SM SCT250 21/21 A3009
MTN,2019-07-16 06:45,73.40,71.60,94.10,0.00,0.00,0.00,30.10,M,10.00,M,FEW,SCT,M,M,14000.00,25000.00,M,M,M,M,M,M,M,M,M,74.86,KMTN 161045Z 00000KT 10SM FEW140 SCT250 23/22 A3010
MTN,2019-07-16 07:45,75.20,73.40,94.14,0.00,0.00,0.00,30.10,M,10.00,M,SCT,M,M,M,20000.00,M,M,M,M,M,M,M,M,M,M,76.84,KMTN 161145Z 00000KT 10SM SCT200 24/23 A3010
MTN,2019-07-16 08:45,80.60,75.20,83.66,0.00,0.00,0.00,30.11,M,10.00,M,SCT,M,M,M,20000.00,M,M,M,M,M,M,M,M,M,M,86.17,KMTN 161245Z 00000KT 10SM SCT200 27/24 A3011
MTN,2019-07-16 09:55,84.20,77.00,79.04,130.00,4.00,0.00,30.11,M,10.00,M,SCT,M,M,M,20000.00,M,M,M,M,M,M,M,M,M,M,94.16,KMTN 161355Z 13004KT 10SM SCT200 29/25 A3011
MTN,2019-07-16 10:45,87.80,77.00,70.45,120.00,5.00,0.00,30.10,M,10.00,M,FEW,SCT,M,M,8000.00,20000.00,M,M,M,M,M,M,M,M,M,99.92,KMTN 161445Z 12005KT 10SM FEW080 SCT200 31/25 A3010
MTN,2019-07-16 11:45,87.80,78.80,74.77,100.00,6.00,0.00,30.10,M,10.00,M,SCT,SCT,M,M,4500.00,20000.00,M,M,M,M,M,M,M,M,M,102.37,KMTN 161545Z 10006KT 10SM SCT045 SCT200 31/26 A3010
MTN,2019-07-16 12:45,89.60,73.40,59.01,120.00,7.00,0.00,30.09,M,10.00,M,SCT,SCT,M,M,4500.00,20000.00,M,M,M,M,M,M,M,M,M,98.20,KMTN 161645Z 12007KT 10SM SCT045 SCT200 32/23 A3009
MTN,2019-07-16 13:45,91.40,71.60,52.48,120.00,8.00,0.00,30.07,M,10.00,M,SCT,SCT,M,M,4500.00,20000.00,M,M,M,M,M,M,M,M,M,98.64,KMTN 161745Z 12008KT 10SM SCT045 SCT200 33/22 A3007
MTN,2019-07-16 14:45,93.20,71.60,49.62,110.00,9.00,0.00,30.05,M,10.00,M,SCT,M,M,M,20000.00,M,M,M,M,M,M,M,M,M,M,100.88,KMTN 161845Z 11009KT 10SM SCT200 34/22 A3005
MTN,2019-07-16 15:45,91.40,68.00,46.41,130.00,7.00,0.00,30.04,M,10.00,M,SCT,M,M,M,20000.00,M,M,M,M,M,M,M,M,M,M,95.55,KMTN 161945Z 13007KT 10SM SCT200 33/20 A3004
MTN,2019-07-16 16:45,89.60,73.40,59.01,130.00,8.00,0.00,30.03,M,10.00,M,BKN,M,M,M,20000.00,M,M,M,M,M,M,M,M,M,M,98.20,KMTN 162045Z 13008KT 10SM BKN200 32/23 A3003
MTN,2019-07-16 17:45,89.60,69.80,52.23,120.00,8.00,0.00,30.02,M,10.00,M,SCT,BKN,BKN,M,5000.00,13000.00,20000.00,M,M,M,M,M,M,M,M,94.85,KMTN 162145Z 12008KT 10SM SCT050 BKN130 BKN200 32/21 A3002
MTN,2019-07-16 18:45,87.80,75.20,66.35,130.00,6.00,0.00,30.02,M,10.00,M,SCT,BKN,BKN,M,6000.00,14000.00,20000.00,M,M,M,M,M,M,M,M,97.76,KMTN 162245Z 13006KT 10SM SCT060 BKN140 BKN200 31/24 A3002
MTN,2019-07-16 19:45,87.80,77.00,70.45,160.00,3.00,0.00,30.02,M,10.00,M,SCT,SCT,BKN,M,5500.00,14000.00,20000.00,M,M,M,M,M,M,M,M,99.92,KMTN 162345Z 16003KT 10SM SCT055 SCT140 BKN200 31/25 A3002
MTN,2019-07-16 20:45,87.80,75.20,66.35,170.00,3.00,0.00,30.02,M,10.00,M,BKN,OVC,M,M,13000.00,20000.00,M,M,M,M,M,M,M,M,M,97.76,KMTN 170045Z 17003KT 10SM BKN130 OVC200 31/24 A3002
MTN,2019-07-16 21:30,86.00,77.00,74.61,0.00,0.00,0.00,30.04,M,10.00,M,BKN,OVC,M,M,13000.00,20000.00,M,M,M,M,M,M,M,M,M,97.15,KMTN 170130Z 00000KT 10SM BKN130 OVC200 30/25 A3004
MTN,2019-07-16 21:50,86.00,78.80,79.18,0.00,0.00,0.00,30.04,M,10.00,M,BKN,OVC,M,M,13000.00,20000.00,M,M,M,M,M,M,M,M,M,99.38,KMTN 170150Z 00000KT 10SM BKN130 OVC200 30/26 A3004
MTN,2019-07-16 22:03,86.00,78.80,79.18,180.00,6.00,0.00,30.04,M,10.00,M,CLR,M,M,M,M,M,M,M,M,M,M,M,M,M,M,99.38,KMTN 170203Z AUTO 18006KT 10SM CLR 30/26 A3004 RMK AO2
MTN,2019-07-16 22:21,86.00,80.60,83.99,180.00,4.00,0.00,30.05,M,10.00,M,CLR,M,M,M,M,M,M,M,M,M,M,M,M,M,M,101.90,KMTN 170221Z AUTO 18004KT 10SM CLR 30/27 A3005 RMK AO2
MTN,2019-07-16 22:42,86.00,78.80,79.18,190.00,6.00,0.00,30.04,M,10.00,M,CLR,M,M,M,M,M,M,M,M,M,M,M,M,M,M,99.38,KMTN 170242Z AUTO 19006KT 10SM CLR 30/26 A3004 RMK AO2
MTN,2019-07-16 23:03,86.00,77.00,74.61,200.00,6.00,0.00,30.04,M,10.00,M,CLR,M,M,M,M,M,M,M,M,M,M,M,M,M,M,97.15,KMTN 170303Z AUTO 20006KT 10SM CLR 30/25 A3004 RMK AO2
MTN,2019-07-16 23:21,84.20,75.20,74.44,210.00,5.00,0.00,30.04,M,10.00,M,CLR,M,M,M,M,M,M,M,M,M,M,M,M,M,M,92.45,KMTN 170321Z AUTO 21005KT 10SM CLR 29/24 A3004 RMK AO2
MTN,2019-07-16 23:42,84.20,75.20,74.44,210.00,5.00,0.00,30.04,M,10.00,M,CLR,M,M,M,M,M,M,M,M,M,M,M,M,M,M,92.45,KMTN 170342Z AUTO 21005KT 10SM CLR 29/24 A3004 RMK AO2
MTN,2019-07-17 00:03,84.20,77.00,79.04,220.00,4.00,0.00,30.03,M,10.00,M,CLR,M,M,M,M,M,M,M,M,M,M,M,M,M,M,94.16,KMTN 170403Z AUTO 22004KT 10SM CLR 29/25 A3003 RMK AO2
MTN,2019-07-17 00:21,84.20,77.00,79.04,200.00,5.00,0.00,30.03,M,10.00,M,CLR,M,M,M,M,M,M,M,M,M,M,M,M,M,M,94.16,KMTN 170421Z AUTO 20005KT 10SM CLR 29/25 A3003 RMK AO2
MTN,2019-07-17 00:42,82.40,77.00,83.77,210.00,4.00,0.00,30.02,M,10.00,M,CLR,M,M,M,M,M,M,M,M,M,M,M,M,M,M,90.85,KMTN 170442Z AUTO 21004KT 10SM CLR 28/25 A3002 RMK AO2
MTN,2019-07-17 01:03,84.20,77.00,79.04,210.00,4.00,0.00,30.02,M,10.00,M,CLR,M,M,M,M,M,M,M,M,M,M,M,M,M,M,94.16,KMTN 170503Z AUTO 21004KT 10SM CLR 29/25 A3002 RMK AO2
MTN,2019-07-17 01:21,84.20,77.00,79.04,220.00,3.00,0.00,30.02,M,10.00,M,CLR,M,M,M,M,M,M,M,M,M,M,M,M,M,M,94.16,KMTN 170521Z AUTO 22003KT 10SM CLR 29/25 A3002 RMK AO2
MTN,2019-07-17 01:42,82.40,77.00,83.77,240.00,4.00,0.00,30.02,M,10.00,M,CLR,M,M,M,M,M,M,M,M,M,M,M,M,M,M,90.85,KMTN 170542Z AUTO 24004KT 10SM CLR 28/25 A3002 RMK AO2
MTN,2019-07-17 02:03,82.40,75.20,78.90,220.00,3.00,0.00,30.01,M,10.00,M,CLR,M,M,M,M,M,M,M,M,M,M,M,M,M,M,89.48,KMTN 170603Z AUTO 22003KT 10SM CLR 28/24 A3001 RMK AO2
MTN,2019-07-17 02:21,82.40,75.20,78.90,0.00,0.00,0.00,30.00,M,10.00,M,CLR,M,M,M,M,M,M,M,M,M,M,M,M,M,M,89.48,KMTN 170621Z AUTO 00000KT 10SM CLR 28/24 A3000 RMK AO2
MTN,2019-07-17 02:42,82.40,75.20,78.90,0.00,0.00,0.00,30.00,M,10.00,M,CLR,M,M,M,M,M,M,M,M,M,M,M,M,M,M,89.48,KMTN 170642Z AUTO 00000KT 10SM CLR 28/24 A3000 RMK AO2
MTN,2019-07-17 03:03,82.40,75.20,78.90,160.00,4.00,0.00,30.00,M,10.00,M,CLR,M,M,M,M,M,M,M,M,M,M,M,M,M,M,89.48,KMTN 170703Z AUTO 16004KT 10SM CLR 28/24 A3000 RMK AO2
MTN,2019-07-17 03:21,82.40,77.00,83.77,0.00,0.00,0.00,29.99,M,10.00,M,CLR,M,M,M,M,M,M,M,M,M,M,M,M,M,M,90.85,KMTN 170721Z AUTO 00000KT 10SM CLR 28/25 A2999 RMK AO2
MTN,2019-07-17 03:42,80.60,77.00,88.83,130.00,5.00,0.00,29.99,M,10.00,M,CLR,M,M,M,M,M,M,M,M,M,M,M,M,M,M,87.10,KMTN 170742Z AUTO 13005KT 10SM CLR 27/25 A2999 RMK AO2
MTN,2019-07-17 04:03,80.60,77.00,88.83,150.00,6.00,0.00,29.99,M,10.00,M,CLR,M,M,M,M,M,M,M,M,M,M,M,M,M,M,87.10,KMTN 170803Z AUTO 15006KT 10SM CLR 27/25 A2999 RMK AO2
MTN,2019-07-17 04:21,80.60,77.00,88.83,160.00,5.00,0.00,29.99,M,10.00,M,CLR,M,M,M,M,M,M,M,M,M,M,M,M,M,M,87.10,KMTN 170821Z AUTO 16005KT 10SM CLR 27/25 A2999 RMK AO2
MTN,2019-07-17 04:42,80.60,75.20,83.66,160.00,6.00,0.00,29.99,M,10.00,M,CLR,M,M,M,M,M,M,M,M,M,M,M,M,M,M,86.17,KMTN 170842Z AUTO 16006KT 10SM CLR 27/24 A2999 RMK AO2
MTN,2019-07-17 05:03,80.60,75.20,83.66,160.00,5.00,0.00,29.99,M,10.00,M,CLR,M,M,M,M,M,M,M,M,M,M,M,M,M,M,86.17,KMTN 170903Z AUTO 16005KT 10SM CLR 27/24 A2999 RMK AO2
MTN,2019-07-17 05:21,80.60,75.20,83.66,160.00,5.00,0.00,29.99,M,10.00,M,CLR,M,M,M,M,M,M,M,M,M,M,M,M,M,M,86.17,KMTN 170921Z AUTO 16005KT 10SM CLR 27/24 A2999 RMK AO2
MTN,2019-07-17 05:30,78.80,75.20,88.75,150.00,4.00,0.00,30.00,M,10.00,M,CLR,M,M,M,M,M,M,M,M,M,M,M,M,M,M,82.38,KMTN 170930Z AUTO 15004KT 10SM CLR 26/24 A3000 RMK AO2
MTN,2019-07-17 05:45,80.60,75.20,83.66,170.00,4.00,0.00,29.99,M,10.00,M,SCT,BKN,M,M,14000.00,22000.00,M,M,M,M,M,M,M,M,M,86.17,KMTN 170945Z 17004KT 10SM SCT140 BKN220 27/24 A2999
MTN,2019-07-17 06:45,80.60,75.20,83.66,170.00,6.00,0.00,29.99,M,10.00,M,SCT,SCT,M,M,14000.00,25000.00,M,M,M,M,M,M,M,M,M,86.17,KMTN 171045Z 17006KT 10SM SCT140 SCT250 27/24 A2999
MTN,2019-07-17 07:45,82.40,77.00,83.77,220.00,4.00,0.00,30.00,M,10.00,M,SCT,M,M,M,14000.00,M,M,M,M,M,M,M,M,M,M,90.85,KMTN 171145Z 22004KT 10SM SCT140 28/25 A3000
MTN,2019-07-17 08:45,84.20,77.00,79.04,180.00,3.00,0.00,30.00,M,10.00,M,FEW,M,M,M,14000.00,M,M,M,M,M,M,M,M,M,M,94.16,KMTN 171245Z 18003KT 10SM FEW140 29/25 A3000
MTN,2019-07-17 09:45,87.80,78.80,74.77,170.00,5.00,0.00,30.00,M,10.00,M,SCT,M,M,M,15000.00,M,M,M,M,M,M,M,M,M,M,102.37,KMTN 171345Z 17005KT 10SM SCT150 31/26 A3000
MTN,2019-07-17 10:45,89.60,80.60,74.93,130.00,6.00,0.00,29.99,M,10.00,M,SCT,M,M,M,10000.00,M,M,M,M,M,M,M,M,M,M,108.11,KMTN 171445Z 13006KT 10SM SCT100 32/27 A2999
MTN,2019-07-17 11:50,89.60,80.60,74.93,130.00,8.00,0.00,29.98,M,10.00,M,SCT,M,M,M,13000.00,M,M,M,M,M,M,M,M,M,M,108.11,KMTN 171550Z 13008KT 10SM SCT130 32/27 A2998
MTN,2019-07-17 12:50,91.40,82.40,75.08,140.00,7.00,0.00,29.96,M,10.00,M,SCT,M,M,M,7000.00,M,M,M,M,M,M,M,M,M,M,114.36,KMTN 171650Z 14007KT 10SM SCT070 33/28 A2996
MTN,2019-07-17 13:45,93.20,82.40,70.99,150.00,9.00,0.00,29.94,M,10.00,M,SCT,M,M,M,10000.00,M,M,M,M,M,M,M,M,M,M,117.10,KMTN 171745Z 15009KT 10SM SCT100 34/28 A2994
MTN,2019-07-17 14:45,93.20,80.60,66.95,140.00,12.00,0.00,29.92,M,10.00,M,SCT,M,M,M,8000.00,M,M,M,M,M,M,M,M,M,M,113.52,KMTN 171845Z 14012KT 10SM SCT080 34/27 A2992
MTN,2019-07-17 15:45,93.20,80.60,66.95,150.00,15.00,0.00,29.89,M,10.00,M,SCT,SCT,M,M,6000.00,16000.00,M,M,M,M,M,M,M,M,M,113.52,KMTN 171945Z 15015KT 10SM SCT060 SCT160 34/27 A2989
MTN,2019-07-17 16:54,93.20,80.60,66.95,140.00,13.00,0.00,29.86,M,10.00,M,SCT,SCT,M,M,6000.00,16000.00,M,M,M,M,M,M,M,M,M,113.52,KMTN 172054Z 14013KT 10SM SCT060 SCT160 34/27 A2986
MTN,2019-07-17 17:45,91.40,78.80,66.75,150.00,13.00,0.00,29.85,M,10.00,M,SCT,BKN,BKN,M,6000.00,9000.00,25000.00,M,M,M,M,M,M,M,M,107.79,KMTN 172145Z 15013KT 10SM SCT060 BKN090 BKN250 33/26 A2985
MTN,2019-07-17 18:02,89.60,80.60,74.93,150.00,11.00,0.00,29.85,M,6.00,M,SCT,BKN,BKN,M,6000.00,9000.00,25000.00,M,TS,M,M,M,M,M,M,108.11,KMTN 172202Z 15011KT 6SM TS SCT060 BKN090 BKN250 32/27 A2985 RMK TSB01 OCNL LTGCCCG W TS W MOV NE
MTN,2019-07-17 18:26,82.40,73.40,74.28,240.00,25.00,0.00,29.89,M,2.00,32.00,SCT,SCT,BKN,M,1300.00,2900.00,5000.00,M,+TSRA,M,M,M,M,M,M,88.26,KMTN 172226Z 24025G32KT 2SM +TSRA SCT013 SCT029 BKN050 28/23 A2989 RMK OCNL LTGCCCG OHD TS OHD MOV NE
MTN,2019-07-17 18:45,75.20,75.20,100.00,240.00,11.00,0.00,29.92,M,4.00,26.00,SCT,BKN,OVC,M,1300.00,5000.00,10000.00,M,TSRA,M,M,M,M,M,M,77.12,KMTN 172245Z 24011G26KT 4SM TSRA SCT013 BKN050 OVC100 24/24 A2992 RMK OCNL LTGCCCG E TS E MOV E
MTN,2019-07-17 18:59,75.20,75.20,100.00,240.00,3.00,0.00,29.92,M,7.00,M,SCT,BKN,OVC,M,2800.00,9000.00,11000.00,M,-RA,M,M,M,M,M,M,77.12,KMTN 172259Z 24003KT 7SM -RA SCT028 BKN090 OVC110 24/24 A2992 RMK TSE58 TS MOVD E
MTN,2019-07-17 19:45,75.20,75.20,100.00,0.00,0.00,0.00,29.92,M,6.00,M,SCT,BKN,M,M,9500.00,12000.00,M,M,-RA,M,M,M,M,M,M,77.12,KMTN 172345Z 00000KT 6SM -RA SCT095 BKN120 24/24 A2992
MTN,2019-07-17 20:45,75.20,75.20,100.00,0.00,0.00,0.00,29.89,M,7.00,M,BKN,M,M,M,12000.00,M,M,M,M,M,M,M,M,M,M,77.12,KMTN 180045Z 00000KT 7SM BKN120 24/24 A2989
MTN,2019-07-17 21:45,75.20,75.20,100.00,0.00,0.00,0.00,29.90,M,10.00,M,BKN,M,M,M,8500.00,M,M,M,M,M,M,M,M,M,M,77.12,KMTN 180145Z 00000KT 10SM BKN085 24/24 A2990 RMK LAST
MTN,2019-07-17 22:03,75.20,75.20,100.00,0.00,0.00,0.00,29.90,M,10.00,M,OVC,M,M,M,9500.00,M,M,M,M,M,M,M,M,M,M,77.12,KMTN 180203Z AUTO 00000KT 10SM OVC095 24/24 A2990 RMK AO2
MTN,2019-07-17 22:21,75.20,75.20,100.00,0.00,0.00,0.00,29.90,M,10.00,M,OVC,M,M,M,9500.00,M,M,M,M,M,M,M,M,M,M,77.12,KMTN 180221Z AUTO 00000KT 10SM OVC095 24/24 A2990 RMK AO2 LTG DSNT SE
MTN,2019-07-17 22:42,77.00,77.00,100.00,0.00,0.00,0.00,29.90,M,10.00,M,BKN,M,M,M,11000.00,M,M,M,M,M,M,M,M,M,M,77.00,KMTN 180242Z AUTO 00000KT 10SM BKN110 25/25 A2990 RMK AO2 LTG DSNT SE
MTN,2019-07-17 23:03,77.00,77.00,100.00,0.00,0.00,0.00,29.91,M,10.00,M,BKN,M,M,M,11000.00,M,M,M,M,M,M,M,M,M,M,77.00,KMTN 180303Z AUTO 00000KT 10SM BKN110 25/25 A2991 RMK AO2
MTN,2019-07-17 23:21,77.00,77.00,100.00,0.00,0.00,0.00,29.89,M,10.00,M,OVC,M,M,M,11000.00,M,M,M,M,M,M,M,M,M,M,77.00,KMTN 180321Z AUTO 00000KT 10SM OVC110 25/25 A2989 RMK AO2 LTG DSNT S
MTN,2019-07-17 23:42,77.00,77.00,100.00,0.00,0.00,0.00,29.89,M,10.00,M,BKN,M,M,M,11000.00,M,M,M,M,M,M,M,M,M,M,77.00,KMTN 180342Z AUTO 00000KT 10SM BKN110 25/25 A2989 RMK AO2 LTG DSNT E AND SE
MTN,2019-07-18 00:03,77.00,77.00,100.00,0.00,0.00,0.00,29.89,M,10.00,M,BKN,BKN,M,M,10000.00,12000.00,M,M,M,M,M,M,M,M,M,77.00,KMTN 180403Z AUTO 00000KT 10SM BKN100 BKN120 25/25 A2989 RMK AO2
MTN,2019-07-18 00:21,77.00,77.00,100.00,0.00,0.00,0.00,29.90,M,10.00,M,BKN,BKN,M,M,10000.00,12000.00,M,M,M,M,M,M,M,M,M,77.00,KMTN 180421Z AUTO 00000KT 10SM BKN100 BKN120 25/25 A2990 RMK AO2
MTN,2019-07-18 00:42,77.00,77.00,100.00,0.00,0.00,0.00,29.91,M,10.00,M,SCT,OVC,M,M,9000.00,11000.00,M,M,M,M,M,M,M,M,M,77.00,KMTN 180442Z AUTO 00000KT 10SM SCT090 OVC110 25/25 A2991 RMK AO2 LTG DSNT E
MTN,2019-07-18 01:03,77.00,77.00,100.00,0.00,0.00,0.00,29.91,M,10.00,M,SCT,OVC,M,M,6000.00,11000.00,M,M,M,M,M,M,M,M,M,77.00,KMTN 180503Z AUTO 00000KT 10SM SCT060 OVC110 25/25 A2991 RMK AO2
MTN,2019-07-18 01:21,77.00,77.00,100.00,0.00,0.00,0.00,29.90,M,10.00,M,SCT,SCT,BKN,M,6000.00,8000.00,12000.00,M,M,M,M,M,M,M,M,77.00,KMTN 180521Z AUTO 00000KT 10SM SCT060 SCT080 BKN120 25/25 A2990 RMK AO2
MTN,2019-07-18 01:42,78.80,77.00,94.23,150.00,6.00,0.00,29.90,M,10.00,M,SCT,OVC,M,M,6000.00,8000.00,M,M,M,M,M,M,M,M,M,82.75,KMTN 180542Z AUTO 15006KT 10SM SCT060 OVC080 26/25 A2990 RMK AO2
MTN,2019-07-18 02:03,78.80,77.00,94.23,170.00,4.00,0.00,29.90,M,10.00,M,SCT,BKN,M,M,6000.00,8000.00,M,M,M,M,M,M,M,M,M,82.75,KMTN 180603Z AUTO 17004KT 10SM SCT060 BKN080 26/25 A2990 RMK AO2
MTN,2019-07-18 02:21,78.80,77.00,94.23,0.00,0.00,0.00,29.90,M,10.00,M,SCT,BKN,M,M,5500.00,7500.00,M,M,M,M,M,M,M,M,M,82.75,KMTN 180621Z AUTO 00000KT 10SM SCT055 BKN075 26/25 A2990 RMK AO2
MTN,2019-07-18 02:42,78.80,77.00,94.23,160.00,4.00,0.00,29.89,M,10.00,M,BKN,BKN,OVC,M,5000.00,6500.00,7500.00,M,M,M,M,M,M,M,M,82.75,KMTN 180642Z AUTO 16004KT 10SM BKN050 BKN065 OVC075 26/25 A2989 RMK AO2
MTN,2019-07-18 03:03,78.80,77.00,94.23,160.00,4.00,0.00,29.88,M,10.00,M,BKN,OVC,M,M,5000.00,6500.00,M,M,M,M,M,M,M,M,M,82.75,KMTN 180703Z AUTO 16004KT 10SM BKN050 OVC065 26/25 A2988 RMK AO2
MTN,2019-07-18 03:21,78.80,77.00,94.23,170.00,3.00,0.00,29.88,M,10.00,M,SCT,OVC,M,M,4500.00,6000.00,M,M,M,M,M,M,M,M,M,82.75,KMTN 180721Z AUTO 17003KT 10SM SCT045 OVC060 26/25 A2988 RMK AO2
MTN,2019-07-18 03:42,77.00,77.00,100.00,0.00,0.00,0.00,29.88,M,10.00,M,BKN,BKN,OVC,M,4900.00,6000.00,7500.00,M,M,M,M,M,M,M,M,77.00,KMTN 180742Z AUTO 00000KT 10SM BKN049 BKN060 OVC075 25/25 A2988 RMK AO2
MTN,2019-07-18 04:03,77.00,77.00,100.00,0.00,0.00,0.00,29.88,M,10.00,M,BKN,BKN,OVC,M,4900.00,6000.00,9000.00,M,M,M,M,M,M,M,M,77.00,KMTN 180803Z AUTO 00000KT 10SM BKN049 BKN060 OVC090 25/25 A2988 RMK AO2
MTN,2019-07-18 04:21,78.80,78.80,100.00,0.00,0.00,0.00,29.88,M,10.00,M,SCT,SCT,OVC,M,4700.00,6000.00,9000.00,M,M,M,M,M,M,M,M,83.15,KMTN 180821Z AUTO 00000KT 10SM SCT047 SCT060 OVC090 26/26 A2988 RMK AO2 LTG DSNT SE
MTN,2019-07-18 04:42,77.00,77.00,100.00,0.00,0.00,0.00,29.87,M,10.00,M,SCT,M,M,M,9000.00,M,M,M,M,M,M,M,M,M,M,77.00,KMTN 180842Z AUTO 00000KT 10SM SCT090 25/25 A2987 RMK AO2
MTN,2019-07-18 05:03,77.00,77.00,100.00,0.00,0.00,0.00,29.88,M,10.00,M,SCT,M,M,M,4800.00,M,M,M,M,M,M,M,M,M,M,77.00,KMTN 180903Z AUTO 00000KT 10SM SCT048 25/25 A2988 RMK AO2 LTG DSNT SE
MTN,2019-07-18 05:21,77.00,77.00,100.00,0.00,0.00,0.00,29.88,M,10.00,M,BKN,BKN,M,M,4800.00,9500.00,M,M,M,M,M,M,M,M,M,77.00,KMTN 180921Z AUTO 00000KT 10SM BKN048 BKN095 25/25 A2988 RMK AO2
MTN,2019-07-18 05:30,77.00,77.00,100.00,0.00,0.00,0.00,29.88,M,10.00,M,BKN,BKN,M,M,4800.00,9500.00,M,M,M,M,M,M,M,M,M,77.00,KMTN 180930Z AUTO 00000KT 10SM BKN048 BKN095 25/25 A2988 RMK AO2
MTN,2019-07-18 05:50,77.00,77.00,100.00,0.00,0.00,0.00,29.89,M,10.00,M,BKN,M,M,M,5000.00,M,M,M,M,M,M,M,M,M,M,77.00,KMTN 180950Z 00000KT 10SM BKN050 25/25 A2989
MTN,2019-07-18 06:45,77.00,77.00,100.00,0.00,0.00,0.00,29.89,M,10.00,M,BKN,M,M,M,4500.00,M,M,M,M,M,M,M,M,M,M,77.00,KMTN 181045Z 00000KT 10SM BKN045 25/25 A2989
MTN,2019-07-18 07:45,78.80,78.80,100.00,0.00,0.00,0.00,29.90,M,10.00,M,SCT,SCT,M,M,5000.00,20000.00,M,M,M,M,M,M,M,M,M,83.15,KMTN 181145Z 00000KT 10SM SCT050 SCT200 26/26 A2990
MTN,2019-07-18 08:45,82.40,80.60,94.31,0.00,0.00,0.00,29.89,M,10.00,M,SCT,SCT,M,M,5000.00,25000.00,M,M,M,M,M,M,M,M,M,94.14,KMTN 181245Z 00000KT 10SM SCT050 SCT250 28/27 A2989
MTN,2019-07-18 09:45,84.20,80.60,88.98,130.00,3.00,0.00,29.90,M,10.00,M,FEW,SCT,SCT,M,1000.00,5000.00,25000.00,M,M,M,M,M,M,M,M,98.28,KMTN 181345Z 13003KT 10SM FEW010 SCT050 SCT250 29/27 A2990
MTN,2019-07-18 10:18,84.20,80.60,88.98,150.00,5.00,0.00,29.90,M,10.00,M,BKN,M,M,M,5000.00,M,M,M,M,M,M,M,M,M,M,98.28,KMTN 181418Z 15005KT 10SM BKN050 29/27 A2990
MTN,2019-07-18 10:50,84.20,80.60,88.98,130.00,5.00,0.00,29.90,M,10.00,M,BKN,M,M,M,5000.00,M,M,M,M,M,M,M,M,M,M,98.28,KMTN 181450Z 13005KT 10SM BKN050 29/27 A2990
MTN,2019-07-18 11:01,84.20,80.60,88.98,120.00,5.00,0.00,29.90,M,7.00,M,BKN,BKN,M,M,1600.00,4500.00,M,M,RA,M,M,M,M,M,M,98.28,KMTN 181501Z 12005KT 7SM RA BKN016 BKN045 29/27 A2990
MTN,2019-07-18 11:30,86.00,80.60,83.99,110.00,7.00,0.00,29.89,M,10.00,M,SCT,BKN,BKN,M,1700.00,3000.00,4500.00,M,M,M,M,M,M,M,M,101.90,KMTN 181530Z 11007KT 10SM SCT017 BKN030 BKN045 30/27 A2989
MTN,2019-07-18 11:54,86.00,80.60,83.99,120.00,6.00,0.00,29.89,M,10.00,M,SCT,BKN,BKN,M,1700.00,2100.00,3500.00,M,M,M,M,M,M,M,M,101.90,KMTN 181554Z 12006KT 10SM SCT017 BKN021 BKN035 30/27 A2989
MTN,2019-07-18 12:45,89.60,82.40,79.45,130.00,7.00,0.00,29.88,M,10.00,M,SCT,BKN,M,M,2000.00,7000.00,M,M,M,M,M,M,M,M,M,111.44,KMTN 181645Z 13007KT 10SM SCT020 BKN070 32/28 A2988
MTN,2019-07-18 13:45,89.60,82.40,79.45,130.00,9.00,0.00,29.87,M,10.00,M,BKN,BKN,M,M,7000.00,8500.00,M,M,M,M,M,M,M,M,M,111.44,KMTN 181745Z 13009KT 10SM BKN070 BKN085 32/28 A2987
MTN,2019-07-18 14:45,89.60,80.60,74.93,160.00,10.00,0.00,29.86,M,10.00,M,SCT,BKN,BKN,M,4600.00,6500.00,25000.00,M,M,M,M,M,M,M,M,108.11,KMTN 181845Z 16010KT 10SM SCT046 BKN065 BKN250 32/27 A2986
MTN,2019-07-18 15:15,89.60,77.00,66.55,250.00,7.00,0.00,29.85,M,10.00,M,BKN,BKN,BKN,M,4400.00,6000.00,25000.00,M,M,M,M,M,M,M,M,102.54,KMTN 181915Z 25007KT 10SM BKN044 BKN060 BKN250 32/25 A2985
MTN,2019-07-18 15:54,89.60,78.80,70.63,300.00,9.00,0.00,29.86,M,10.00,14.00,BKN,BKN,BKN,M,4400.00,6000.00,25000.00,M,VCTS,M,M,M,M,M,M,105.15,KMTN 181954Z 30009G14KT 10SM VCTS BKN044 BKN060CB BKN250 32/26 A2986 RMK CB NW-E MOV E
MTN,2019-07-18 16:45,87.80,77.00,70.45,320.00,9.00,0.00,29.86,M,10.00,M,SCT,BKN,BKN,M,5500.00,8500.00,25000.00,M,M,M,M,M,M,M,M,99.92,KMTN 182045Z 32009KT 10SM SCT055 BKN085 BKN250 31/25 A2986
MTN,2019-07-18 17:45,87.80,77.00,70.45,290.00,5.00,0.00,29.86,M,10.00,M,SCT,BKN,BKN,M,7000.00,7500.00,11000.00,M,M,M,M,M,M,M,M,99.92,KMTN 182145Z 29005KT 10SM SCT070 BKN075 BKN110 31/25 A2986
MTN,2019-07-18 18:45,89.60,77.00,66.55,0.00,0.00,0.00,29.86,M,10.00,M,SCT,BKN,BKN,M,5500.00,10000.00,25000.00,M,M,M,M,M,M,M,M,102.54,KMTN 182245Z 00000KT 10SM SCT055 BKN100 BKN250 32/25 A2986
MTN,2019-07-18 19:56,87.80,78.80,74.77,0.00,0.00,0.00,29.87,M,10.00,M,SCT,SCT,BKN,M,6500.00,8500.00,25000.00,M,M,M,M,M,M,M,M,102.37,KMTN 182356Z 00000KT 10SM SCT065 SCT085 BKN250 31/26 A2987
MTN,2019-07-18 20:45,84.20,80.60,88.98,0.00,0.00,0.00,29.87,M,10.00,M,SCT,BKN,BKN,M,7000.00,16000.00,25000.00,M,M,M,M,M,M,M,M,98.28,KMTN 190045Z 00000KT 10SM SCT070 BKN160 BKN250 29/27 A2987
MTN,2019-07-18 21:45,84.20,80.60,88.98,0.00,0.00,0.00,29.89,M,10.00,M,SCT,SCT,M,M,16000.00,25000.00,M,M,M,M,M,M,M,M,M,98.28,KMTN 190145Z 00000KT 10SM SCT160 SCT250 29/27 A2989 RMK LAST
MTN,2019-07-18 22:03,82.40,80.60,94.31,0.00,0.00,0.00,29.89,M,10.00,M,CLR,M,M,M,M,M,M,M,M,M,M,M,M,M,M,94.14,KMTN 190203Z AUTO 00000KT 10SM CLR 28/27 A2989 RMK AO2
MTN,2019-07-18 22:21,82.40,80.60,94.31,0.00,0.00,0.00,29.89,M,10.00,M,CLR,M,M,M,M,M,M,M,M,M,M,M,M,M,M,94.14,KMTN 190221Z AUTO 00000KT 10SM CLR 28/27 A2989 RMK AO2 LTG DSNT S
MTN,2019-07-18 22:42,80.60,80.60,100.00,0.00,0.00,0.00,29.89,M,10.00,M,CLR,M,M,M,M,M,M,M,M,M,M,M,M,M,M,91.23,KMTN 190242Z AUTO 00000KT 10SM CLR 27/27 A2989 RMK AO2
MTN,2019-07-18 23:03,80.60,80.60,100.00,0.00,0.00,0.00,29.88,M,10.00,M,CLR,M,M,M,M,M,M,M,M,M,M,M,M,M,M,91.23,KMTN 190303Z AUTO 00000KT 10SM CLR 27/27 A2988 RMK AO2
MTN,2019-07-18 23:21,82.40,80.60,94.31,0.00,0.00,0.00,29.89,M,10.00,M,CLR,M,M,M,M,M,M,M,M,M,M,M,M,M,M,94.14,KMTN 190321Z AUTO 00000KT 10SM CLR 28/27 A2989 RMK AO2
MTN,2019-07-18 23:42,82.40,80.60,94.31,0.00,0.00,0.00,29.90,M,10.00,M,CLR,M,M,M,M,M,M,M,M,M,M,M,M,M,M,94.14,KMTN 190342Z AUTO 00000KT 10SM CLR 28/27 A2990 RMK AO2
MTN,2019-07-19 00:03,82.40,80.60,94.31,0.00,0.00,0.00,29.90,M,10.00,M,CLR,M,M,M,M,M,M,M,M,M,M,M,M,M,M,94.14,KMTN 190403Z AUTO 00000KT 10SM CLR 28/27 A2990 RMK AO2 LTG DSNT SE
MTN,2019-07-19 00:21,80.60,80.60,100.00,0.00,0.00,0.00,29.90,M,10.00,M,CLR,M,M,M,M,M,M,M,M,M,M,M,M,M,M,91.23,KMTN 190421Z AUTO 00000KT 10SM CLR 27/27 A2990 RMK AO2
MTN,2019-07-19 00:42,80.60,78.80,94.27,0.00,0.00,0.00,29.90,M,10.00,M,CLR,M,M,M,M,M,M,M,M,M,M,M,M,M,M,89.33,KMTN 190442Z AUTO 00000KT 10SM CLR 27/26 A2990 RMK AO2
MTN,2019-07-19 01:03,78.80,78.80,100.00,0.00,0.00,0.00,29.90,M,10.00,M,CLR,M,M,M,M,M,M,M,M,M,M,M,M,M,M,83.15,KMTN 190503Z AUTO 00000KT 10SM CLR 26/26 A2990 RMK AO2
MTN,2019-07-19 01:21,78.80,78.80,100.00,0.00,0.00,0.00,29.90,M,10.00,M,CLR,M,M,M,M,M,M,M,M,M,M,M,M,M,M,83.15,KMTN 190521Z AUTO 00000KT 10SM CLR 26/26 A2990 RMK AO2
MTN,2019-07-19 01:42,78.80,78.80,100.00,0.00,0.00,0.00,29.90,M,10.00,M,CLR,M,M,M,M,M,M,M,M,M,M,M,M,M,M,83.15,KMTN 190542Z AUTO 00000KT 10SM CLR 26/26 A2990 RMK AO2
MTN,2019-07-19 02:03,78.80,78.80,100.00,0.00,0.00,0.00,29.90,M,10.00,M,CLR,M,M,M,M,M,M,M,M,M,M,M,M,M,M,83.15,KMTN 190603Z AUTO 00000KT 10SM CLR 26/26 A2990 RMK AO2
MTN,2019-07-19 02:21,78.80,78.80,100.00,0.00,0.00,0.00,29.90,M,10.00,M,CLR,M,M,M,M,M,M,M,M,M,M,M,M,M,M,83.15,KMTN 190621Z AUTO 00000KT 10SM CLR 26/26 A2990 RMK AO2
MTN,2019-07-19 02:42,78.80,78.80,100.00,0.00,0.00,0.00,29.90,M,10.00,M,CLR,M,M,M,M,M,M,M,M,M,M,M,M,M,M,83.15,KMTN 190642Z AUTO 00000KT 10SM CLR 26/26 A2990 RMK AO2
MTN,2019-07-19 03:03,78.80,77.00,94.23,0.00,0.00,0.00,29.90,M,10.00,M,CLR,M,M,M,M,M,M,M,M,M,M,M,M,M,M,82.75,KMTN 190703Z AUTO 00000KT 10SM CLR 26/25 A2990 RMK AO2
MTN,2019-07-19 03:21,78.80,77.00,94.23,0.00,0.00,0.00,29.91,M,10.00,M,CLR,M,M,M,M,M,M,M,M,M,M,M,M,M,M,82.75,KMTN 190721Z AUTO 00000KT 10SM CLR 26/25 A2991 RMK AO2
MTN,2019-07-19 03:42,78.80,77.00,94.23,0.00,0.00,0.00,29.91,M,10.00,M,CLR,M,M,M,M,M,M,M,M,M,M,M,M,M,M,82.75,KMTN 190742Z AUTO 00000KT 10SM CLR 26/25 A2991 RMK AO2
MTN,2019-07-19 04:03,77.00,77.00,100.00,0.00,0.00,0.00,29.91,M,10.00,M,CLR,M,M,M,M,M,M,M,M,M,M,M,M,M,M,77.00,KMTN 190803Z AUTO 00000KT 10SM CLR 25/25 A2991 RMK AO2
MTN,2019-07-19 04:21,77.00,77.00,100.00,0.00,0.00,0.00,29.91,M,10.00,M,CLR,M,M,M,M,M,M,M,M,M,M,M,M,M,M,77.00,KMTN 190821Z AUTO 00000KT 10SM CLR 25/25 A2991 RMK AO2
MTN,2019-07-19 04:42,77.00,75.20,94.19,0.00,0.00,0.00,29.91,M,10.00,M,CLR,M,M,M,M,M,M,M,M,M,M,M,M,M,M,78.83,KMTN 190842Z AUTO 00000KT 10SM CLR 25/24 A2991 RMK AO2
MTN,2019-07-19 05:03,77.00,75.20,94.19,0.00,0.00,0.00,29.91,M,10.00,M,CLR,M,M,M,M,M,M,M,M,M,M,M,M,M,M,78.83,KMTN 190903Z AUTO 00000KT 10SM CLR 25/24 A2991 RMK AO2
MTN,2019-07-19 05:21,75.20,75.20,100.00,0.00,0.00,0.00,29.92,M,10.00,M,CLR,M,M,M,M,M,M,M,M,M,M,M,M,M,M,77.12,KMTN 190921Z AUTO 00000KT 10SM CLR 24/24 A2992 RMK AO2
MTN,2019-07-19 05:30,77.00,75.20,94.19,0.00,0.00,0.00,29.92,M,10.00,M,CLR,M,M,M,M,M,M,M,M,M,M,M,M,M,M,78.83,KMTN 190930Z AUTO 00000KT 10SM CLR 25/24 A2992 RMK AO2
MTN,2019-07-19 05:45,77.00,75.20,94.19,0.00,0.00,0.00,29.92,M,10.00,M,SCT,M,M,M,25000.00,M,M,M,M,M,M,M,M,M,M,78.83,KMTN 190945Z 00000KT 10SM SCT250 25/24 A2992
MTN,2019-07-19 06:45,77.00,75.20,94.19,0.00,0.00,0.00,29.93,M,10.00,M,FEW,M,M,M,25000.00,M,M,M,M,M,M,M,M,M,M,78.83,KMTN 191045Z 00000KT 10SM FEW250 25/24 A2993
MTN,2019-07-19 07:45,80.60,77.00,88.83,0.00,0.00,0.00,29.94,M,10.00,M,CLR,M,M,M,M,M,M,M,M,M,M,M,M,M,M,87.10,KMTN 191145Z 00000KT 10SM SKC 27/25 A2994
MTN,2019-07-19 08:54,86.00,77.00,74.61,0.00,0.00,0.00,29.95,M,10.00,M,CLR,M,M,M,M,M,M,M,M,M,M,M,M,M,M,97.15,KMTN 191254Z 00000KT 10SM SKC 30/25 A2995
MTN,2019-07-19 09:45,87.80,77.00,70.45,0.00,0.00,0.00,29.95,M,10.00,M,CLR,M,M,M,M,M,M,M,M,M,M,M,M,M,M,99.92,KMTN 191345Z 00000KT 10SM SKC 31/25 A2995
MTN,2019-07-19 10:54,89.60,80.60,74.93,140.00,7.00,0.00,29.96,M,10.00,M,FEW,M,M,M,5000.00,M,M,M,M,M,M,M,M,M,M,108.11,KMTN 191454Z 14007KT 10SM FEW050 32/27 A2996
MTN,2019-07-19 11:50,91.40,78.80,66.75,140.00,5.00,0.00,29.96,M,10.00,M,SCT,M,M,M,5000.00,M,M,M,M,M,M,M,M,M,M,107.79,KMTN 191550Z 14005KT 10SM SCT050 33/26 A2996
MTN,2019-07-19 12:45,89.60,78.80,70.63,120.00,7.00,0.00,29.95,M,10.00,M,BKN,BKN,M,M,4600.00,6000.00,M,M,M,M,M,M,M,M,M,105.15,KMTN 191645Z 12007KT 10SM BKN046 BKN060 32/26 A2995
MTN,2019-07-19 13:45,91.40,80.60,70.81,120.00,9.00,0.00,29.94,M,10.00,M,SCT,SCT,SCT,M,4800.00,8000.00,25000.00,M,M,M,M,M,M,M,M,110.88,KMTN 191745Z 12009KT 10SM SCT048 SCT080 SCT250 33/27 A2994
MTN,2019-07-19 14:45,93.20,78.80,63.11,150.00,14.00,0.00,29.92,M,10.00,M,SCT,SCT,M,M,6000.00,25000.00,M,M,M,M,M,M,M,M,M,110.34,KMTN 191845Z 15014KT 10SM SCT060 SCT250 34/26 A2992
MTN,2019-07-19 15:54,95.00,80.60,63.32,140.00,9.00,0.00,29.91,M,10.00,M,SCT,SCT,M,M,6500.00,25000.00,M,M,M,M,M,M,M,M,M,116.07,KMTN 191954Z 14009KT 10SM SCT065 SCT250 35/27 A2991
MTN,2019-07-19 16:56,93.20,80.60,66.95,140.00,7.00,0.00,29.90,M,10.00,M,SCT,SCT,M,M,6000.00,25000.00,M,M,M,M,M,M,M,M,M,113.52,KMTN 192056Z 14007KT 110V180 10SM SCT060 SCT250 34/27 A2990
MTN,2019-07-19 17:24,96.80,73.40,47.19,280.00,7.00,0.00,29.89,M,10.00,M,SCT,SCT,M,M,6000.00,25000.00,M,M,M,M,M,M,M,M,M,107.44,KMTN 192124Z 28007KT 240V300 10SM SCT060 SCT250 36/23 A2989
MTN,2019-07-19 17:53,95.00,82.40,67.14,M,6.00,0.00,29.89,M,10.00,M,SCT,SCT,M,M,6000.00,25000.00,M,M,M,M,M,M,M,M,M,119.73,KMTN 192153Z VRB06KT 10SM SCT060 SCT250 35/28 A2989
MTN,2019-07-19 18:45,91.40,80.60,70.81,150.00,7.00,0.00,29.88,M,10.00,M,SCT,SCT,M,M,6000.00,25000.00,M,M,M,M,M,M,M,M,M,110.88,KMTN 192245Z 15007KT 10SM SCT060 SCT250 33/27 A2988
MTN,2019-07-19 20:45,89.60,80.60,74.93,180.00,5.00,0.00,29.90,M,10.00,M,SCT,SCT,M,M,6000.00,25000.00,M,M,M,M,M,M,M,M,M,108.11,KMTN 200045Z 18005KT 10SM SCT060 SCT250 32/27 A2990
MTN,2019-07-19 21:45,89.60,80.60,74.93,180.00,5.00,0.00,29.92,M,10.00,M,SCT,M,M,M,6500.00,M,M,M,M,M,M,M,M,M,M,108.11,KMTN 200145Z 18005KT 10SM SCT065 32/27 A2992
MTN,2019-07-19 22:03,87.80,78.80,74.77,170.00,4.00,0.00,29.92,M,10.00,M,SCT,SCT,M,M,6500.00,8000.00,M,M,M,M,M,M,M,M,M,102.37,KMTN 200203Z AUTO 17004KT 10SM SCT065 SCT080 31/26 A2992 RMK AO2
MTN,2019-07-19 22:21,87.80,78.80,74.77,180.00,4.00,0.00,29.92,M,10.00,M,CLR,M,M,M,M,M,M,M,M,M,M,M,M,M,M,102.37,KMTN 200221Z AUTO 18004KT 10SM CLR 31/26 A2992 RMK AO2
MTN,2019-07-20 00:03,87.80,77.00,70.45,0.00,0.00,0.00,29.89,M,10.00,M,CLR,M,M,M,M,M,M,M,M,M,M,M,M,M,M,99.92,KMTN 200403Z AUTO 00000KT 10SM CLR 31/25 A2989 RMK AO2
MTN,2019-07-20 00:21,86.00,77.00,74.61,0.00,0.00,0.00,29.89,M,10.00,M,CLR,M,M,M,M,M,M,M,M,M,M,M,M,M,M,97.15,KMTN 200421Z AUTO 00000KT 10SM CLR 30/25 A2989 RMK AO2
MTN,2019-07-20 00:42,86.00,77.00,74.61,200.00,3.00,0.00,29.89,M,10.00,M,CLR,M,M,M,M,M,M,M,M,M,M,M,M,M,M,97.15,KMTN 200442Z AUTO 20003KT 10SM CLR 30/25 A2989 RMK AO2
MTN,2019-07-20 01:21,86.00,75.20,70.27,210.00,3.00,0.00,29.89,M,10.00,M,CLR,M,M,M,M,M,M,M,M,M,M,M,M,M,M,95.19,KMTN 200521Z AUTO 21003KT 10SM CLR 30/24 A2989 RMK AO2
MTN,2019-07-20 01:42,86.00,75.20,70.27,0.00,0.00,0.00,29.90,M,10.00,M,CLR,M,M,M,M,M,M,M,M,M,M,M,M,M,M,95.19,KMTN 200542Z AUTO 00000KT 10SM CLR 30/24 A2990 RMK AO2
MTN,2019-07-20 02:03,84.20,75.20,74.44,0.00,0.00,0.00,29.90,M,10.00,M,CLR,M,M,M,M,M,M,M,M,M,M,M,M,M,M,92.45,KMTN 200603Z AUTO 00000KT 10SM CLR 29/24 A2990 RMK AO2
MTN,2019-07-20 02:21,82.40,77.00,83.77,0.00,0.00,0.00,29.91,M,10.00,M,CLR,M,M,M,M,M,M,M,M,M,M,M,M,M,M,90.85,KMTN 200621Z AUTO 00000KT 10SM CLR 28/25 A2991 RMK AO2
MTN,2019-07-20 02:42,82.40,77.00,83.77,0.00,0.00,0.00,29.90,M,10.00,M,CLR,M,M,M,M,M,M,M,M,M,M,M,M,M,M,90.85,KMTN 200642Z AUTO 00000KT 10SM CLR 28/25 A2990 RMK AO2
MTN,2019-07-20 03:03,82.40,77.00,83.77,220.00,4.00,0.00,29.90,M,10.00,M,CLR,M,M,M,M,M,M,M,M,M,M,M,M,M,M,90.85,KMTN 200703Z AUTO 22004KT 10SM CLR 28/25 A2990 RMK AO2
MTN,2019-07-20 03:21,84.20,77.00,79.04,220.00,3.00,0.00,29.90,M,10.00,M,CLR,M,M,M,M,M,M,M,M,M,M,M,M,M,M,94.16,KMTN 200721Z AUTO 22003KT 10SM CLR 29/25 A2990 RMK AO2
MTN,2019-07-20 03:42,82.40,75.20,78.90,240.00,4.00,0.00,29.90,M,10.00,M,CLR,M,M,M,M,M,M,M,M,M,M,M,M,M,M,89.48,KMTN 200742Z AUTO 24004KT 10SM CLR 28/24 A2990 RMK AO2
MTN,2019-07-20 04:03,82.40,75.20,78.90,260.00,3.00,0.00,29.90,M,10.00,M,CLR,M,M,M,M,M,M,M,M,M,M,M,M,M,M,89.48,KMTN 200803Z AUTO 26003KT 10SM CLR 28/24 A2990 RMK AO2
MTN,2019-07-20 04:21,82.40,75.20,78.90,250.00,3.00,0.00,29.90,M,10.00,M,CLR,M,M,M,M,M,M,M,M,M,M,M,M,M,M,89.48,KMTN 200821Z AUTO 25003KT 10SM CLR 28/24 A2990 RMK AO2
MTN,2019-07-20 04:42,82.40,75.20,78.90,240.00,3.00,0.00,29.91,M,10.00,M,CLR,M,M,M,M,M,M,M,M,M,M,M,M,M,M,89.48,KMTN 200842Z AUTO 24003KT 10SM CLR 28/24 A2991 RMK AO2
MTN,2019-07-20 05:03,80.60,75.20,83.66,0.00,0.00,0.00,29.92,M,10.00,M,CLR,M,M,M,M,M,M,M,M,M,M,M,M,M,M,86.17,KMTN 200903Z AUTO 00000KT 10SM CLR 27/24 A2992 RMK AO2
MTN,2019-07-20 05:21,80.60,75.20,83.66,230.00,3.00,0.00,29.92,M,10.00,M,CLR,M,M,M,M,M,M,M,M,M,M,M,M,M,M,86.17,KMTN 200921Z AUTO 23003KT 10SM CLR 27/24 A2992 RMK AO2
MTN,2019-07-20 05:30,80.60,75.20,83.66,240.00,4.00,0.00,29.93,M,10.00,M,CLR,M,M,M,M,M,M,M,M,M,M,M,M,M,M,86.17,KMTN 200930Z AUTO 24004KT 10SM CLR 27/24 A2993 RMK AO2
MTN,2019-07-20 05:45,82.40,75.20,78.90,260.00,3.00,0.00,29.94,M,10.00,M,FEW,M,M,M,20000.00,M,M,M,M,M,M,M,M,M,M,89.48,KMTN 200945Z 26003KT 10SM FEW200 28/24 A2994 RMK FIRST
MTN,2019-07-20 06:45,82.40,75.20,78.90,0.00,0.00,0.00,29.94,M,10.00,M,FEW,M,M,M,20000.00,M,M,M,M,M,M,M,M,M,M,89.48,KMTN 201045Z 00000KT 10SM FEW200 28/24 A2994
MTN,2019-07-20 07:45,84.20,77.00,79.04,0.00,0.00,0.00,29.93,M,6.00,M,FEW,M,M,M,20000.00,M,M,M,HZ,M,M,M,M,M,M,94.16,KMTN 201145Z 00000KT 6SM HZ FEW200 29/25 A2993
MTN,2019-07-20 08:45,87.80,77.00,70.45,240.00,3.00,0.00,29.93,M,5.00,M,FEW,M,M,M,20000.00,M,M,M,HZ,M,M,M,M,M,M,99.92,KMTN 201245Z 24003KT 5SM HZ FEW200 31/25 A2993
MTN,2019-07-20 09:45,89.60,78.80,70.63,0.00,0.00,0.00,29.93,M,5.00,M,FEW,M,M,M,20000.00,M,M,M,HZ,M,M,M,M,M,M,105.15,KMTN 201345Z 00000KT 5SM HZ FEW200 32/26 A2993
MTN,2019-07-20 10:45,93.20,78.80,63.11,310.00,8.00,0.00,29.94,M,6.00,M,FEW,SCT,M,M,4000.00,20000.00,M,M,HZ,M,M,M,M,M,M,110.34,KMTN 201445Z 31008KT 6SM HZ FEW040 SCT200 34/26 A2994
MTN,2019-07-20 11:45,93.20,78.80,63.11,320.00,5.00,0.00,29.93,M,6.00,M,SCT,SCT,M,M,4000.00,20000.00,M,M,HZ,M,M,M,M,M,M,110.34,KMTN 201545Z 32005KT 6SM HZ SCT040 SCT200 34/26 A2993
MTN,2019-07-20 12:45,95.00,77.00,56.25,340.00,7.00,0.00,29.90,M,7.00,M,BKN,BKN,M,M,5000.00,20000.00,M,M,M,M,M,M,M,M,M,109.94,KMTN 201645Z 34007KT 7SM BKN050 BKN200 35/25 A2990
MTN,2019-07-20 13:20,M,M,M,M,M,0.00,M,M,M,M,M,M,M,M,M,M,M,M,M,M,M,M,M,M,M,M,KMTN 201720Z 2018/2118 21006KT P6SM SCT040 FM210400 24004KT P6SM SCT060 FM210600 VRB03KT P6SM SCT150 FM211400 28005KT P6SM SCT050
MTN,2019-07-20 13:35,93.20,80.60,66.95,150.00,8.00,0.00,29.88,M,7.00,M,BKN,M,M,M,5000.00,M,M,M,M,M,M,M,M,M,M,113.52,KMTN 201735Z 15008KT 7SM BKN050 34/27 A2988
MTN,2019-07-20 13:45,93.20,80.60,66.95,130.00,8.00,0.00,29.88,M,7.00,M,BKN,M,M,M,4800.00,M,M,M,M,M,M,M,M,M,M,113.52,KMTN 201745Z 13008KT 7SM BKN048 34/27 A2988
MTN,2019-07-20 14:45,93.20,80.60,66.95,130.00,9.00,0.00,29.86,M,10.00,M,BKN,BKN,M,M,5500.00,7000.00,M,M,M,M,M,M,M,M,M,113.52,KMTN 201845Z 13009KT 10SM BKN055 BKN070 34/27 A2986
MTN,2019-07-20 15:45,95.00,82.40,67.14,140.00,10.00,0.00,29.85,M,10.00,M,BKN,M,M,M,5500.00,M,M,M,M,M,M,M,M,M,M,119.73,KMTN 201945Z 14010KT 10SM BKN055 35/28 A2985
MTN,2019-07-20 16:50,96.80,82.40,63.53,130.00,11.00,0.00,29.84,M,10.00,M,BKN,M,M,M,6500.00,M,M,M,M,M,M,M,M,M,M,122.27,KMTN 202050Z 13011KT 10SM BKN065 36/28 A2984
MTN,2019-07-20 17:45,98.60,73.40,44.67,280.00,9.00,0.00,29.84,M,10.00,M,SCT,SCT,M,M,6000.00,7500.00,M,M,M,M,M,M,M,M,M,109.78,KMTN 202145Z 28009KT 10SM SCT060 SCT075 37/23 A2984
MTN,2019-07-20 18:45,96.80,75.20,50.13,260.00,5.00,0.00,29.85,M,10.00,M,SCT,SCT,M,M,16000.00,25000.00,M,M,M,M,M,M,M,M,M,109.75,KMTN 202245Z 26005KT 10SM SCT160 SCT250 36/24 A2985
MTN,2019-07-20 19:55,91.40,77.00,62.90,270.00,7.00,0.00,29.85,M,10.00,M,SCT,SCT,BKN,M,6500.00,16000.00,25000.00,M,M,M,M,M,M,M,M,105.06,KMTN 202355Z 27007KT 10SM SCT065 SCT160 BKN250 33/25 A2985
MTN,2019-07-20 20:45,89.60,75.20,62.68,0.00,0.00,0.00,29.86,M,10.00,M,FEW,SCT,BKN,M,6000.00,16000.00,25000.00,M,M,M,M,M,M,M,M,100.23,KMTN 210045Z 00000KT 10SM FEW060 SCT160 BKN250 32/24 A2986
MTN,2019-07-20 21:45,87.80,78.80,74.77,0.00,0.00,0.00,29.86,M,10.00,M,SCT,SCT,M,M,16000.00,25000.00,M,M,M,M,M,M,M,M,M,102.37,KMTN 210145Z 00000KT 10SM SCT160 SCT250 31/26 A2986
MTN,2019-07-20 22:03,86.00,77.00,74.61,0.00,0.00,0.00,29.87,M,10.00,M,CLR,M,M,M,M,M,M,M,M,M,M,M,M,M,M,97.15,KMTN 210203Z AUTO 00000KT 10SM CLR 30/25 A2987 RMK AO2
MTN,2019-07-20 22:21,86.00,78.80,79.18,0.00,0.00,0.00,29.87,M,10.00,M,CLR,M,M,M,M,M,M,M,M,M,M,M,M,M,M,99.38,KMTN 210221Z AUTO 00000KT 10SM CLR 30/26 A2987 RMK AO2
MTN,2019-07-20 22:42,86.00,77.00,74.61,0.00,0.00,0.00,29.87,M,10.00,M,CLR,M,M,M,M,M,M,M,M,M,M,M,M,M,M,97.15,KMTN 210242Z AUTO 00000KT 10SM CLR 30/25 A2987 RMK AO2
MTN,2019-07-20 23:03,86.00,78.80,79.18,0.00,0.00,0.00,29.86,M,10.00,M,CLR,M,M,M,M,M,M,M,M,M,M,M,M,M,M,99.38,KMTN 210303Z AUTO 00000KT 10SM CLR 30/26 A2986 RMK AO2
MTN,2019-07-20 23:21,84.20,80.60,88.98,0.00,0.00,0.00,29.85,M,10.00,M,CLR,M,M,M,M,M,M,M,M,M,M,M,M,M,M,98.50,KMTN 210321Z AUTO 00000KT 10SM CLR 29/27 A2985 RMK AO2
MTN,2019-07-20 23:42,84.20,80.60,88.98,0.00,0.00,0.00,29.85,M,10.00,M,CLR,M,M,M,M,M,M,M,M,M,M,M,M,M,M,98.50,KMTN 210342Z AUTO 00000KT 10SM CLR 29/27 A2985 RMK AO2
MTN,2019-07-21 00:03,84.20,78.80,83.88,0.00,0.00,0.00,29.86,M,10.00,M,CLR,M,M,M,M,M,M,M,M,M,M,M,M,M,M,96.10,KMTN 210403Z AUTO 00000KT 10SM CLR 29/26 A2986 RMK AO2
MTN,2019-07-21 00:21,82.40,80.60,94.31,0.00,0.00,0.00,29.86,M,10.00,M,CLR,M,M,M,M,M,M,M,M,M,M,M,M,M,M,95.00,KMTN 210421Z AUTO 00000KT 10SM CLR 28/27 A2986 RMK AO2
MTN,2019-07-21 00:42,82.40,78.80,88.90,0.00,0.00,0.00,29.87,M,10.00,M,CLR,M,M,M,M,M,M,M,M,M,M,M,M,M,M,92.76,KMTN 210442Z AUTO 00000KT 10SM CLR 28/26 A2987 RMK AO2
MTN,2019-07-21 01:03,82.40,78.80,88.90,0.00,0.00,0.00,29.87,M,10.00,M,CLR,M,M,M,M,M,M,M,M,M,M,M,M,M,M,92.76,KMTN 210503Z AUTO 00000KT 10SM CLR 28/26 A2987 RMK AO2
MTN,2019-07-21 01:21,82.40,78.80,88.90,0.00,0.00,0.00,29.87,M,10.00,M,CLR,M,M,M,M,M,M,M,M,M,M,M,M,M,M,92.76,KMTN 210521Z AUTO 00000KT 10SM CLR 28/26 A2987 RMK AO2
MTN,2019-07-21 01:42,86.00,78.80,79.18,220.00,3.00,0.00,29.87,M,10.00,M,CLR,M,M,M,M,M,M,M,M,M,M,M,M,M,M,99.38,KMTN 210542Z AUTO 22003KT 10SM CLR 30/26 A2987 RMK AO2
MTN,2019-07-21 02:03,86.00,77.00,74.61,250.00,3.00,0.00,29.87,M,10.00,M,CLR,M,M,M,M,M,M,M,M,M,M,M,M,M,M,97.15,KMTN 210603Z AUTO 25003KT 10SM CLR 30/25 A2987 RMK AO2
MTN,2019-07-21 02:21,82.40,77.00,83.77,0.00,0.00,0.00,29.87,M,10.00,M,CLR,M,M,M,M,M,M,M,M,M,M,M,M,M,M,90.85,KMTN 210621Z AUTO 00000KT 10SM CLR 28/25 A2987 RMK AO2
MTN,2019-07-21 02:42,84.20,77.00,79.04,0.00,0.00,0.00,29.87,M,10.00,M,CLR,M,M,M,M,M,M,M,M,M,M,M,M,M,M,94.16,KMTN 210642Z AUTO 00000KT 10SM CLR 29/25 A2987 RMK AO2
MTN,2019-07-21 03:03,84.20,77.00,79.04,0.00,0.00,0.00,29.87,M,10.00,M,CLR,M,M,M,M,M,M,M,M,M,M,M,M,M,M,94.16,KMTN 210703Z AUTO 00000KT 10SM CLR 29/25 A2987 RMK AO2
MTN,2019-07-21 03:21,82.40,77.00,83.77,0.00,0.00,0.00,29.86,M,10.00,M,CLR,M,M,M,M,M,M,M,M,M,M,M,M,M,M,90.85,KMTN 210721Z AUTO 00000KT 10SM CLR 28/25 A2986 RMK AO2
MTN,2019-07-21 03:42,82.40,77.00,83.77,0.00,0.00,0.00,29.85,M,10.00,M,CLR,M,M,M,M,M,M,M,M,M,M,M,M,M,M,90.85,KMTN 210742Z AUTO 00000KT 10SM CLR 28/25 A2985 RMK AO2
MTN,2019-07-21 04:03,84.20,78.80,83.88,0.00,0.00,0.00,29.84,M,10.00,M,CLR,M,M,M,M,M,M,M,M,M,M,M,M,M,M,96.10,KMTN 210803Z AUTO 00000KT 10SM CLR 29/26 A2984 RMK AO2
MTN,2019-07-21 04:21,82.40,78.80,88.90,0.00,0.00,0.00,29.84,M,10.00,M,CLR,M,M,M,M,M,M,M,M,M,M,M,M,M,M,92.76,KMTN 210821Z AUTO 00000KT 10SM CLR 28/26 A2984 RMK AO2
MTN,2019-07-21 04:42,80.60,78.80,94.27,270.00,3.00,0.00,29.84,M,10.00,M,CLR,M,M,M,M,M,M,M,M,M,M,M,M,M,M,89.33,KMTN 210842Z AUTO 27003KT 10SM CLR 27/26 A2984 RMK AO2
MTN,2019-07-21 05:03,82.40,78.80,88.90,0.00,0.00,0.00,29.84,M,10.00,M,CLR,M,M,M,M,M,M,M,M,M,M,M,M,M,M,92.76,KMTN 210903Z AUTO 00000KT 10SM CLR 28/26 A2984 RMK AO2
MTN,2019-07-21 05:21,82.40,78.80,88.90,0.00,0.00,0.00,29.84,M,10.00,M,CLR,M,M,M,M,M,M,M,M,M,M,M,M,M,M,92.76,KMTN 210921Z AUTO 00000KT 10SM CLR 28/26 A2984 RMK AO2
MTN,2019-07-21 05:30,82.40,78.80,88.90,240.00,3.00,0.00,29.85,M,10.00,M,CLR,M,M,M,M,M,M,M,M,M,M,M,M,M,M,92.76,KMTN 210930Z AUTO 24003KT 10SM CLR 28/26 A2985 RMK AO2
MTN,2019-07-21 05:45,82.40,78.80,88.90,240.00,3.00,0.00,29.85,M,6.00,M,FEW,M,M,M,15000.00,M,M,M,BR,M,M,M,M,M,M,92.76,KMTN 210945Z 24003KT 6SM BR FEW150 28/26 A2985
MTN,2019-07-21 06:45,84.20,78.80,83.88,270.00,3.00,0.00,29.87,M,6.00,M,SCT,M,M,M,15000.00,M,M,M,HZ,M,M,M,M,M,M,96.10,KMTN 211045Z 27003KT 6SM HZ SCT150 29/26 A2987
MTN,2019-07-21 07:45,87.80,78.80,74.77,250.00,6.00,0.00,29.89,M,10.00,M,SCT,M,M,M,15000.00,M,M,M,M,M,M,M,M,M,M,102.37,KMTN 211145Z 25006KT 10SM SCT150 31/26 A2989
MTN,2019-07-21 08:45,89.60,77.00,66.55,280.00,10.00,0.00,29.90,M,10.00,M,FEW,M,M,M,18000.00,M,M,M,M,M,M,M,M,M,M,102.54,KMTN 211245Z 28010KT 10SM FEW180 32/25 A2990
MTN,2019-07-21 09:45,93.20,78.80,63.11,260.00,10.00,0.00,29.90,M,10.00,M,SCT,M,M,M,18000.00,M,M,M,M,M,M,M,M,M,M,110.34,KMTN 211345Z 26010KT 10SM SCT180 34/26 A2990
MTN,2019-07-21 10:45,93.20,77.00,59.47,290.00,10.00,0.00,29.89,M,10.00,18.00,FEW,M,M,M,18000.00,M,M,M,M,M,M,M,M,M,M,107.52,KMTN 211445Z 29010G18KT 10SM FEW180 34/25 A2989
MTN,2019-07-21 11:45,96.80,75.20,50.13,290.00,7.00,0.00,29.88,M,10.00,M,FEW,SCT,M,M,6000.00,15000.00,M,M,M,M,M,M,M,M,M,109.75,KMTN 211545Z 29007KT 10SM FEW060 SCT150 36/24 A2988
MTN,2019-07-21 12:45,96.80,75.20,50.13,260.00,8.00,0.00,29.87,M,10.00,M,SCT,SCT,M,M,6000.00,25000.00,M,M,M,M,M,M,M,M,M,109.75,KMTN 211645Z 26008KT 10SM SCT060 SCT250 36/24 A2987
MTN,2019-07-21 13:45,98.60,75.20,47.45,300.00,9.00,0.00,29.87,M,10.00,M,SCT,SCT,M,M,5000.00,25000.00,M,M,M,M,M,M,M,M,M,112.12,KMTN 211745Z 30009KT 10SM SCT050 SCT250 37/24 A2987
MTN,2019-07-21 14:45,98.60,73.40,44.67,290.00,9.00,0.00,29.86,M,10.00,15.00,SCT,SCT,M,M,5000.00,7000.00,M,M,M,M,M,M,M,M,M,109.78,KMTN 211845Z 29009G15KT 10SM SCT050 SCT070 37/23 A2986
MTN,2019-07-21 15:50,98.60,75.20,47.45,290.00,10.00,0.00,29.84,M,10.00,M,SCT,SCT,M,M,6000.00,7000.00,M,M,M,M,M,M,M,M,M,112.12,KMTN 211950Z 29010KT 10SM SCT060 SCT070 37/24 A2984
MTN,2019-07-21 16:45,98.60,73.40,44.67,270.00,6.00,0.00,29.83,M,10.00,M,SCT,SCT,M,M,6000.00,7500.00,M,M,M,M,M,M,M,M,M,109.78,KMTN 212045Z 27006KT 10SM SCT060 SCT075 37/23 A2983
MTN,2019-07-21 17:45,98.60,75.20,47.45,270.00,5.00,0.00,29.82,M,10.00,M,SCT,M,M,M,6000.00,M,M,M,M,M,M,M,M,M,M,112.12,KMTN 212145Z 27005KT 10SM SCT060 37/24 A2982
MTN,2019-07-21 18:50,98.60,73.40,44.67,240.00,5.00,0.00,29.83,M,10.00,M,SCT,M,M,M,6000.00,M,M,M,M,M,M,M,M,M,M,109.78,KMTN 212250Z 24005KT 10SM SCT060 37/23 A2983
MTN,2019-07-21 19:45,96.80,73.40,47.19,240.00,3.00,0.00,29.84,M,10.00,M,SCT,M,M,M,20000.00,M,M,M,M,M,M,M,M,M,M,107.44,KMTN 212345Z 24003KT 10SM SCT200 36/23 A2984
MTN,2019-07-21 20:45,93.20,77.00,59.47,0.00,0.00,0.00,29.85,M,10.00,M,SCT,BKN,OVC,M,6000.00,9000.00,20000.00,M,M,M,M,M,M,M,M,107.52,KMTN 220045Z 00000KT 10SM SCT060 BKN090 OVC200 34/25 A2985 RMK FREQ LTGCCCG NW-NE MOV SE
MTN,2019-07-21 21:00,93.20,75.20,56.01,270.00,20.00,0.00,29.87,M,10.00,33.00,SCT,BKN,OVC,M,6000.00,9000.00,20000.00,M,M,M,M,M,M,M,M,105.02,KMTN 220100Z 27020G33KT 10SM SCT060 BKN090 OVC200 34/24 A2987 RMK FREQ LTGCCCG NW-NE MOV SE
MTN,2019-07-21 21:45,84.20,71.60,65.95,310.00,7.00,0.00,29.86,M,10.00,15.00,BKN,OVC,M,M,9000.00,20000.00,M,M,M,M,M,M,M,M,M,89.60,KMTN 220145Z 31007G15KT 10SM BKN090 OVC200 29/22 A2986 RMK CONS LTGCCCG NE-E MOV SE
MTN,2019-07-21 22:03,82.40,71.60,69.90,310.00,8.00,0.00,29.88,M,10.00,M,CLR,M,M,M,M,M,M,M,M,M,M,M,M,M,M,87.18,KMTN 220203Z AUTO 31008KT 10SM CLR 28/22 A2988 RMK AO2 LTG DSNT NE
MTN,2019-07-21 22:21,80.60,71.60,74.11,290.00,7.00,0.00,29.89,M,10.00,M,CLR,M,M,M,M,M,M,M,M,M,M,M,M,M,M,84.57,KMTN 220221Z AUTO 29007KT 10SM CLR 27/22 A2989 RMK AO2 LTG DSNT N THRU E
MTN,2019-07-21 22:42,80.60,71.60,74.11,290.00,5.00,0.00,29.89,M,10.00,M,CLR,M,M,M,M,M,M,M,M,M,M,M,M,M,M,84.57,KMTN 220242Z AUTO 29005KT 10SM CLR 27/22 A2989 RMK AO2 LTG DSNT NE
MTN,2019-07-21 23:03,80.60,71.60,74.11,330.00,4.00,0.00,29.88,M,10.00,M,CLR,M,M,M,M,M,M,M,M,M,M,M,M,M,M,84.57,KMTN 220303Z AUTO 33004KT 10SM CLR 27/22 A2988 RMK AO2
MTN,2019-07-21 23:21,80.60,71.60,74.11,180.00,3.00,0.00,29.88,M,10.00,M,CLR,M,M,M,M,M,M,M,M,M,M,M,M,M,M,84.57,KMTN 220321Z AUTO 18003KT 10SM CLR 27/22 A2988 RMK AO2
MTN,2019-07-21 23:42,80.60,71.60,74.11,190.00,3.00,0.00,29.87,M,10.00,M,CLR,M,M,M,M,M,M,M,M,M,M,M,M,M,M,84.57,KMTN 220342Z AUTO 19003KT 10SM CLR 27/22 A2987 RMK AO2
MTN,2019-07-22 00:03,80.60,71.60,74.11,220.00,3.00,0.00,29.88,M,10.00,M,CLR,M,M,M,M,M,M,M,M,M,M,M,M,M,M,84.57,KMTN 220403Z AUTO 22003KT 10SM CLR 27/22 A2988 RMK AO2
MTN,2019-07-22 00:21,82.40,71.60,69.90,190.00,3.00,0.00,29.89,M,10.00,M,CLR,M,M,M,M,M,M,M,M,M,M,M,M,M,M,87.18,KMTN 220421Z AUTO 19003KT 10SM CLR 28/22 A2989 RMK AO2
MTN,2019-07-22 00:42,82.40,71.60,69.90,0.00,0.00,0.00,29.89,M,10.00,M,SCT,M,M,M,8000.00,M,M,M,M,M,M,M,M,M,M,87.18,KMTN 220442Z AUTO 00000KT 10SM SCT080 28/22 A2989 RMK AO2
MTN,2019-07-22 01:03,80.60,71.60,74.11,230.00,5.00,0.00,29.89,M,10.00,M,SCT,M,M,M,8000.00,M,M,M,M,M,M,M,M,M,M,84.57,KMTN 220503Z AUTO 23005KT 10SM SCT080 27/22 A2989 RMK AO2
MTN,2019-07-22 01:21,80.60,71.60,74.11,0.00,0.00,0.00,29.89,M,10.00,M,SCT,M,M,M,8000.00,M,M,M,M,M,M,M,M,M,M,84.57,KMTN 220521Z AUTO 00000KT 10SM SCT080 27/22 A2989 RMK AO2
MTN,2019-07-22 01:42,80.60,71.60,74.11,230.00,3.00,0.00,29.89,M,10.00,M,BKN,M,M,M,9000.00,M,M,M,M,M,M,M,M,M,M,84.57,KMTN 220542Z AUTO 23003KT 10SM BKN090 27/22 A2989 RMK AO2
MTN,2019-07-22 02:03,80.60,71.60,74.11,180.00,3.00,0.00,29.89,M,10.00,M,SCT,M,M,M,9000.00,M,M,M,M,M,M,M,M,M,M,84.57,KMTN 220603Z AUTO 18003KT 10SM SCT090 27/22 A2989 RMK AO2
MTN,2019-07-22 02:21,80.60,71.60,74.11,170.00,3.00,0.00,29.89,M,10.00,M,CLR,M,M,M,M,M,M,M,M,M,M,M,M,M,M,84.57,KMTN 220621Z AUTO 17003KT 10SM CLR 27/22 A2989 RMK AO2
MTN,2019-07-22 02:42,78.80,73.40,83.55,0.00,0.00,0.00,29.89,M,10.00,M,CLR,M,M,M,M,M,M,M,M,M,M,M,M,M,M,M,KMTN 220642Z AUTO 00000KT 10SM CLR 26/23 A2989 RMK AO2
MTN,2019-07-22 03:03,78.80,73.40,83.55,0.00,0.00,0.00,29.89,M,10.00,M,CLR,M,M,M,M,M,M,M,M,M,M,M,M,M,M,M,KMTN 220703Z AUTO 00000KT 10SM CLR 26/23 A2989 RMK AO2
MTN,2019-07-22 03:21,78.80,73.40,83.55,0.00,0.00,0.00,29.88,M,10.00,M,CLR,M,M,M,M,M,M,M,M,M,M,M,M,M,M,M,KMTN 220721Z AUTO 00000KT 10SM CLR 26/23 A2988 RMK AO2
MTN,2019-07-22 03:42,78.80,73.40,83.55,0.00,0.00,0.00,29.88,M,10.00,M,CLR,M,M,M,M,M,M,M,M,M,M,M,M,M,M,M,KMTN 220742Z AUTO 00000KT 10SM CLR 26/23 A2988 RMK AO2
MTN,2019-07-22 04:03,77.00,73.40,88.67,0.00,0.00,0.00,29.87,M,10.00,M,CLR,M,M,M,M,M,M,M,M,M,M,M,M,M,M,M,KMTN 220803Z AUTO 00000KT 10SM CLR 25/23 A2987 RMK AO2
MTN,2019-07-22 04:21,77.00,73.40,88.67,0.00,0.00,0.00,29.88,M,10.00,M,CLR,M,M,M,M,M,M,M,M,M,M,M,M,M,M,M,KMTN 220821Z AUTO 00000KT 10SM CLR 25/23 A2988 RMK AO2
MTN,2019-07-22 04:42,77.00,73.40,88.67,0.00,0.00,0.00,29.89,M,10.00,M,CLR,M,M,M,M,M,M,M,M,M,M,M,M,M,M,M,KMTN 220842Z AUTO 00000KT 10SM CLR 25/23 A2989 RMK AO2
MTN,2019-07-22 05:03,77.00,73.40,88.67,0.00,0.00,0.00,29.88,M,10.00,M,CLR,M,M,M,M,M,M,M,M,M,M,M,M,M,M,M,KMTN 220903Z AUTO 00000KT 10SM CLR 25/23 A2988 RMK AO2
MTN,2019-07-22 05:21,77.00,73.40,88.67,0.00,0.00,0.00,29.88,M,10.00,M,CLR,M,M,M,M,M,M,M,M,M,M,M,M,M,M,M,KMTN 220921Z AUTO 00000KT 10SM CLR 25/23 A2988 RMK AO2
MTN,2019-07-22 05:30,77.00,73.40,88.67,0.00,0.00,0.00,29.88,M,10.00,M,CLR,M,M,M,M,M,M,M,M,M,M,M,M,M,M,M,KMTN 220930Z AUTO 00000KT 10SM CLR 25/23 A2988 RMK AO2
MTN,2019-07-22 05:45,77.00,73.40,88.67,0.00,0.00,0.00,29.87,M,10.00,M,SCT,SCT,M,M,18000.00,25000.00,M,M,M,M,M,M,M,M,M,M,KMTN 220945Z 00000KT 10SM SCT180 SCT250 25/23 A2987
MTN,2019-07-22 06:45,78.80,75.20,88.75,0.00,0.00,0.00,29.87,M,10.00,M,SCT,SCT,M,M,18000.00,25000.00,M,M,M,M,M,M,M,M,M,M,KMTN 221045Z 00000KT 10SM SCT180 SCT250 26/24 A2987
MTN,2019-07-22 07:55,82.40,75.20,78.90,240.00,5.00,0.00,29.87,M,10.00,M,SCT,SCT,M,M,18000.00,25000.00,M,M,M,M,M,M,M,M,M,89.48,KMTN 221155Z 24005KT 10SM SCT180 SCT250 28/24 A2987
MTN,2019-07-22 08:45,84.20,71.60,65.95,250.00,5.00,0.00,29.86,M,10.00,M,SCT,M,M,M,20000.00,M,M,M,M,M,M,M,M,M,M,89.60,KMTN 221245Z 25005KT 10SM SCT200 29/22 A2986
MTN,2019-07-22 09:45,87.80,71.60,58.78,240.00,5.00,0.00,29.86,M,10.00,M,SCT,M,M,M,20000.00,M,M,M,M,M,M,M,M,M,M,94.18,KMTN 221345Z 24005KT 10SM SCT200 31/22 A2986
MTN,2019-07-22 10:45,87.80,71.60,58.78,160.00,8.00,0.00,29.84,M,10.00,M,SCT,M,M,M,20000.00,M,M,M,M,M,M,M,M,M,M,94.18,KMTN 221445Z 16008KT 10SM SCT200 31/22 A2984
MTN,2019-07-22 11:55,89.60,75.20,62.68,120.00,7.00,0.00,29.83,M,10.00,M,SCT,M,M,M,20000.00,M,M,M,M,M,M,M,M,M,M,100.23,KMTN 221555Z 12007KT 10SM SCT200 32/24 A2983
MTN,2019-07-22 12:45,91.40,77.00,62.90,120.00,9.00,0.00,29.81,M,10.00,M,FEW,SCT,M,M,9000.00,20000.00,M,M,M,M,M,M,M,M,M,105.06,KMTN 221645Z 12009KT 10SM FEW090 SCT200 33/25 A2981
MTN,2019-07-22 13:45,91.40,78.80,66.75,130.00,9.00,0.00,29.79,M,10.00,M,SCT,SCT,M,M,4800.00,20000.00,M,M,M,M,M,M,M,M,M,107.79,KMTN 221745Z 13009KT 10SM SCT048 SCT200 33/26 2979
MTN,2019-07-22 14:45,91.40,80.60,70.81,140.00,11.00,0.00,29.76,M,10.00,M,SCT,BKN,BKN,M,6000.00,7000.00,9000.00,M,M,M,M,M,M,M,M,110.88,KMTN 221845Z 14011KT 10SM SCT060 BKN070 BKN090 33/27 A2976
MTN,2019-07-22 15:48,95.00,73.40,49.87,200.00,10.00,0.00,29.74,M,7.00,15.00,SCT,BKN,BKN,M,8000.00,9000.00,16000.00,M,TS,M,M,M,M,M,M,105.13,KMTN 221948Z 20010G15KT 7SM TS SCT080 BKN090 BKN160 35/23 A2974 RMK TSB44 SE MOV E OCNL LTGCCCG SE
MTN,2019-07-22 16:15,82.40,75.20,78.90,260.00,24.00,0.00,39.81,M,1.00,36.00,OVC,M,M,M,3800.00,M,M,M,TSRA,M,M,M,M,M,M,89.48,KMTN 222015Z 26024G36KT 1SM TSRA OVC038 28/24 A3981
MTN,2019-07-22 16:25,75.20,75.20,100.00,280.00,11.00,0.00,29.79,M,7.00,26.00,BKN,BKN,M,M,1700.00,4100.00,M,M,-RA,M,M,M,M,M,M,M,KMTN 222025Z 28011G26KT 7SM -RA BKN017 BKN041 24/24 A2979 RMK TS NE MOV E OCNL
MTN,2019-07-22 16:50,77.00,73.40,88.67,290.00,6.00,0.00,29.76,M,7.00,M,BKN,BKN,M,M,6500.00,10000.00,M,M,M,M,M,M,M,M,M,M,KMTN 222050Z 29006KT 7SM BKN065 BKN100 25/23 A2976 RMK TSE50
MTN,2019-07-22 17:50,78.80,73.40,83.55,260.00,4.00,0.00,29.77,M,10.00,M,BKN,BKN,M,M,6000.00,10000.00,M,M,M,M,M,M,M,M,M,M,KMTN 222150Z 26004KT 10SM BKN060 BKN100 26/23 A2977
MTN,2019-07-22 18:50,80.60,73.40,78.76,250.00,4.00,0.00,29.77,M,10.00,M,FEW,BKN,BKN,M,10000.00,14000.00,19000.00,M,M,M,M,M,M,M,M,85.32,KMTN 222250Z 25004KT 10SM FEW100 BKN140 BKN190 27/23 A2977
MTN,2019-07-22 19:48,80.60,73.40,78.76,260.00,4.00,0.00,29.78,M,10.00,M,SCT,BKN,OVC,M,11000.00,14000.00,19000.00,M,M,M,M,M,M,M,M,85.32,KMTN 222348Z 26004KT 10SM SCT110 BKN140 OVC190 27/23 A2978
MTN,2019-07-22 20:50,82.40,75.20,78.90,0.00,0.00,0.00,29.78,M,10.00,M,SCT,SCT,BKN,M,12000.00,14000.00,19000.00,M,M,M,M,M,M,M,M,89.48,KMTN 230050Z 00000KT 10SM SCT120 SCT140 BKN190 28/24 A2978
MTN,2019-07-22 21:45,82.40,75.20,78.90,210.00,12.00,0.00,29.79,M,6.00,20.00,SCT,BKN,OVC,M,4000.00,8500.00,12000.00,M,RA,M,M,M,M,M,M,89.48,KMTN 230145Z 21012G20KT 6SM RA SCT040 BKN085 OVC120 28/24 A2979
MTN,2019-07-22 22:03,78.80,75.20,88.75,170.00,4.00,0.00,29.78,M,10.00,M,SCT,SCT,SCT,M,4100.00,8000.00,9500.00,M,-RA,M,M,M,M,M,M,M,KMTN 230203Z AUTO 17004KT 10SM -RA SCT041 SCT080 SCT095 26/24 A2978 RMK AO2
MTN,2019-07-22 22:21,78.80,75.20,88.75,0.00,0.00,0.00,29.78,M,10.00,M,SCT,M,M,M,12000.00,M,M,M,M,M,M,M,M,M,M,M,KMTN 230221Z AUTO 00000KT 10SM SCT120 26/24 A2978 RMK AO2
MTN,2019-07-22 22:42,78.80,75.20,88.75,180.00,3.00,0.00,29.78,M,10.00,M,SCT,M,M,M,12000.00,M,M,M,M,M,M,M,M,M,M,M,KMTN 230242Z AUTO 18003KT 10SM SCT120 26/24 A2978 RMK AO2 LTG DSNT N
MTN,2019-07-22 23:03,78.80,73.40,83.55,210.00,10.00,0.00,29.80,M,10.00,14.00,SCT,M,M,M,11000.00,M,M,M,M,M,M,M,M,M,M,M,KMTN 230303Z AUTO 21010G14KT 10SM SCT110 26/23 A2980 RMK AO2 LTG DSNT N
MTN,2019-07-22 23:21,78.80,69.80,73.95,260.00,7.00,0.00,29.80,M,10.00,M,SCT,SCT,BKN,M,3800.00,4900.00,11000.00,M,M,M,M,M,M,M,M,M,KMTN 230321Z AUTO 26007KT 10SM SCT038 SCT049 BKN110 26/21 A2980 RMK AO2
MTN,2019-07-22 23:42,77.00,71.60,83.44,310.00,5.00,0.00,29.80,M,10.00,M,BKN,BKN,BKN,M,3100.00,3800.00,5000.00,M,M,M,M,M,M,M,M,M,KMTN 230342Z AUTO 31005KT 10SM BKN031 BKN038 BKN050 25/22 A2980 RMK AO2
MTN,2019-07-23 00:03,77.00,71.60,83.44,300.00,5.00,0.00,29.80,M,10.00,M,SCT,SCT,OVC,M,3400.00,4600.00,9500.00,M,M,M,M,M,M,M,M,M,KMTN 230403Z AUTO 30005KT 10SM SCT034 SCT046 OVC095 25/22 A2980 RMK AO2
MTN,2019-07-23 00:21,77.00,71.60,83.44,280.00,3.00,0.00,29.79,M,10.00,M,OVC,M,M,M,8500.00,M,M,M,M,M,M,M,M,M,M,M,KMTN 230421Z AUTO 28003KT 10SM OVC085 25/22 A2979 RMK AO2
MTN,2019-07-23 00:42,75.20,71.60,88.59,300.00,3.00,0.00,29.78,M,10.00,M,SCT,SCT,M,M,8500.00,12000.00,M,M,M,M,M,M,M,M,M,M,KMTN 230442Z AUTO 30003KT 10SM SCT085 SCT120 24/22 A2978 RMK AO2
MTN,2019-07-23 01:03,75.20,71.60,88.59,290.00,4.00,0.00,29.78,M,10.00,M,SCT,SCT,M,M,4300.00,8000.00,M,M,M,M,M,M,M,M,M,M,KMTN 230503Z AUTO 29004KT 10SM SCT043 SCT080 24/22 A2978 RMK AO2 LTG DSNT SE
MTN,2019-07-23 01:21,75.20,71.60,88.59,290.00,3.00,0.00,29.78,M,10.00,M,BKN,BKN,BKN,M,4300.00,8000.00,11000.00,M,M,M,M,M,M,M,M,M,KMTN 230521Z AUTO 29003KT 10SM BKN043 BKN080 BKN110 24/22 A2978 RMK AO2
MTN,2019-07-23 01:42,75.20,71.60,88.59,0.00,0.00,0.00,29.77,M,10.00,M,SCT,BKN,OVC,M,1800.00,4300.00,9500.00,M,M,M,M,M,M,M,M,M,KMTN 230542Z AUTO 00000KT 10SM SCT018 BKN043 OVC095 24/22 A2977 RMK AO2
MTN,2019-07-23 02:03,75.20,73.40,94.14,0.00,0.00,0.00,29.76,M,10.00,M,SCT,SCT,OVC,M,1800.00,2700.00,4600.00,M,-DZ,M,M,M,M,M,M,M,KMTN 230603Z AUTO 00000KT 10SM -DZ SCT018 SCT027 OVC046 24/23 A2976 RMK AO2
MTN,2019-07-23 02:21,75.20,73.40,94.14,40.00,3.00,0.00,29.75,M,10.00,M,SCT,BKN,OVC,M,1800.00,2500.00,4700.00,M,M,M,M,M,M,M,M,M,KMTN 230621Z AUTO 04003KT 10SM SCT018 BKN025 OVC047 24/23 A2975 RMK AO2
MTN,2019-07-23 02:42,73.40,71.60,94.10,320.00,7.00,0.00,29.73,M,10.00,M,BKN,OVC,M,M,1400.00,2500.00,M,M,M,M,M,M,M,M,M,M,KMTN 230642Z AUTO 32007KT 10SM BKN014 OVC025 23/22 A2973 RMK AO2
MTN,2019-07-23 03:03,69.80,68.00,94.01,300.00,16.00,0.07,29.76,M,2.50,27.00,SCT,BKN,OVC,M,800.00,1400.00,1800.00,M,+RA,M,M,M,M,M,M,M,KMTN 230703Z AUTO 30016G27KT 2 1/2SM +RA SCT008 BKN014 OVC018 21/20 A2976 RMK AO2 P0007
MTN,2019-07-23 03:21,68.00,68.00,100.00,300.00,10.00,0.27,29.75,M,5.00,17.00,SCT,BKN,OVC,M,800.00,1900.00,4800.00,M,RA,M,M,M,M,M,M,M,KMTN 230721Z AUTO 30010G17KT 5SM RA SCT008 BKN019 OVC048 20/20 A2975 RMK AO2 P0027
MTN,2019-07-23 03:42,68.00,68.00,100.00,290.00,12.00,0.32,29.76,M,7.00,20.00,SCT,BKN,OVC,M,1100.00,4400.00,5500.00,M,RA,M,M,M,M,M,M,M,KMTN 230742Z AUTO 29012G20KT 7SM RA SCT011 BKN044 OVC055 20/20 A2976 RMK AO2 P0032
MTN,2019-07-23 04:03,68.00,68.00,100.00,290.00,15.00,0.00,29.77,M,10.00,20.00,SCT,BKN,OVC,M,1100.00,5000.00,7000.00,M,M,M,M,M,M,M,M,M,KMTN 230803Z AUTO 29015G20KT 10SM SCT011 BKN050 OVC070 20/20 A2977 RMK AO2
MTN,2019-07-23 04:21,68.00,68.00,100.00,280.00,13.00,0.00,29.78,M,10.00,20.00,SCT,SCT,SCT,M,1300.00,4100.00,5000.00,M,M,M,M,M,M,M,M,M,KMTN 230821Z AUTO 28013G20KT 10SM SCT013 SCT041 SCT050 20/20 A2978 RMK AO2
MTN,2019-07-23 04:42,68.00,68.00,100.00,280.00,10.00,0.00,29.79,M,10.00,M,SCT,SCT,M,M,10000.00,12000.00,M,M,M,M,M,M,M,M,M,M,KMTN 230842Z AUTO 28010KT 10SM SCT100 SCT120 20/20 A2979 RMK AO2
MTN,2019-07-23 05:03,68.00,68.00,100.00,280.00,9.00,0.00,29.80,M,10.00,M,SCT,BKN,BKN,M,1400.00,10000.00,12000.00,M,M,M,M,M,M,M,M,M,KMTN 230903Z AUTO 28009KT 10SM SCT014 BKN100 BKN120 20/20 A2980 RMK AO2
MTN,2019-07-23 05:21,68.00,68.00,100.00,290.00,7.00,0.00,29.81,M,10.00,M,SCT,SCT,BKN,M,1400.00,7000.00,9000.00,M,M,M,M,M,M,M,M,M,KMTN 230921Z AUTO 29007KT 10SM SCT014 SCT070 BKN090 20/20 A2981 RMK AO2
MTN,2019-07-23 05:30,68.00,68.00,100.00,280.00,8.00,0.00,29.82,M,10.00,M,SCT,SCT,BKN,M,1400.00,7000.00,10000.00,M,M,M,M,M,M,M,M,M,KMTN 230930Z AUTO 28008KT 10SM SCT014 SCT070 BKN100 20/20 A2982 RMK AO2
MTN,2019-07-23 05:45,69.80,68.00,94.01,270.00,6.00,0.00,29.84,M,10.00,M,BKN,BKN,M,M,1400.00,10000.00,M,M,-DZ,M,M,M,M,M,M,M,KMTN 230945Z 27006KT 10SM -DZ BKN014 BKN100 21/20 A2984
MTN,2019-07-23 06:45,69.80,68.00,94.01,270.00,7.00,0.00,29.87,M,7.00,M,SCT,BKN,OVC,M,1600.00,6000.00,9000.00,M,-RA,M,M,M,M,M,M,M,KMTN 231045Z 27007KT 7SM -RA SCT016 BKN060 OVC090 21/20 A2987
MTN,2019-07-23 07:50,69.80,69.80,100.00,260.00,5.00,0.00,29.88,M,7.00,M,FEW,BKN,OVC,M,1600.00,6000.00,9000.00,M,-RA,M,M,M,M,M,M,M,KMTN 231150Z 26005KT 7SM -RA FEW016 BKN060 OVC090 21/21 A2988
MTN,2019-07-23 08:50,71.60,69.80,94.06,250.00,5.00,0.00,29.90,M,7.00,M,FEW,BKN,OVC,M,1500.00,9000.00,12000.00,M,M,M,M,M,M,M,M,M,KMTN 231250Z 25005KT 7SM FEW015 BKN090 OVC120 22/21 A2990
MTN,2019-07-23 09:50,71.60,69.80,94.06,280.00,6.00,0.00,29.90,M,10.00,M,FEW,OVC,M,M,1500.00,12000.00,M,M,-RA,M,M,M,M,M,M,M,KMTN 231350Z 28006KT 10SM -RA FEW015 OVC120 22/21 A2990
MTN,2019-07-23 10:50,73.40,69.80,88.51,290.00,7.00,0.00,29.89,M,10.00,M,BKN,BKN,M,M,1500.00,9000.00,M,M,M,M,M,M,M,M,M,M,KMTN 231450Z 29007KT 10SM BKN015 BKN090 23/21 A2989
MTN,2019-07-23 11:50,75.20,69.80,83.32,290.00,5.00,0.00,29.89,M,10.00,M,BKN,BKN,BKN,M,2000.00,2700.00,3300.00,M,M,M,M,M,M,M,M,M,KMTN 231550Z 29005KT 10SM BKN020 BKN027 BKN033 24/21 A2989
MTN,2019-07-23 12:50,75.20,68.00,78.34,320.00,4.00,0.00,29.89,M,10.00,M,BKN,OVC,M,M,2500.00,3700.00,M,M,M,M,M,M,M,M,M,M,KMTN 231650Z 32004KT 10SM BKN025 OVC037 24/20 A2989
MTN,2019-07-23 13:50,75.20,66.20,73.61,0.00,0.00,0.00,29.90,M,10.00,M,BKN,OVC,M,M,3000.00,4700.00,M,M,M,M,M,M,M,M,M,M,KMTN 231750Z 00000KT 10SM BKN030 OVC047 24/19 A2990
MTN,2019-07-23 14:45,77.00,68.00,73.78,340.00,3.00,0.00,29.89,M,10.00,M,SCT,OVC,M,M,4700.00,5500.00,M,M,M,M,M,M,M,M,M,M,KMTN 231845Z 34003KT 10SM SCT047 OVC055 25/20 A2989
MTN,2019-07-23 15:54,77.00,68.00,73.78,330.00,3.00,0.00,29.88,M,10.00,M,SCT,SCT,OVC,M,6000.00,7000.00,9500.00,M,M,M,M,M,M,M,M,M,KMTN 231954Z 33003KT 10SM SCT060 SCT070 OVC095 25/20 A2988
MTN,2019-07-23 16:45,75.20,68.00,78.34,320.00,4.00,0.00,29.89,M,10.00,M,BKN,M,M,M,7000.00,M,M,M,M,M,M,M,M,M,M,M,KMTN 232045Z 32004KT 10SM BKN070 24/20 A2989
MTN,2019-07-23 17:45,75.20,69.80,83.32,0.00,0.00,0.00,29.87,M,10.00,M,SCT,SCT,BKN,M,3500.00,8000.00,14000.00,M,M,M,M,M,M,M,M,M,KMTN 232145Z 00000KT 10SM SCT035 SCT080 BKN140 24/21 A2987
MTN,2019-07-23 18:45,75.20,69.80,83.32,0.00,0.00,0.00,29.89,M,10.00,M,SCT,SCT,BKN,M,5000.00,6500.00,8000.00,M,M,M,M,M,M,M,M,M,KMTN 232245Z 00000KT 10SM SCT050 SCT065 BKN080 24/21 A2989
MTN,2019-07-23 19:45,75.20,69.80,83.32,310.00,4.00,0.00,29.88,M,10.00,M,SCT,BKN,BKN,M,9000.00,14000.00,20000.00,M,M,M,M,M,M,M,M,M,KMTN 232345Z 31004KT 10SM SCT090 BKN140 BKN200 24/21 A2988
MTN,2019-07-23 20:45,73.40,69.80,88.51,0.00,0.00,0.00,29.88,M,10.00,M,SCT,SCT,BKN,M,5500.00,9000.00,14000.00,M,M,M,M,M,M,M,M,M,KMTN 240045Z 00000KT 10SM SCT055 SCT090 BKN140 23/21 A2988
MTN,2019-07-23 21:45,73.40,69.80,88.51,0.00,0.00,0.00,29.89,M,10.00,M,BKN,BKN,M,M,14000.00,20000.00,M,M,M,M,M,M,M,M,M,M,KMTN 240145Z 00000KT 10SM BKN140 BKN200 23/21 A2989 RMK LAST
MTN,2019-07-23 22:03,71.60,69.80,94.06,0.00,0.00,0.00,29.90,M,10.00,M,CLR,M,M,M,M,M,M,M,M,M,M,M,M,M,M,M,KMTN 240203Z AUTO 00000KT 10SM CLR 22/21 A2990 RMK AO2
MTN,2019-07-23 22:21,71.60,69.80,94.06,0.00,0.00,0.00,29.89,M,10.00,M,CLR,M,M,M,M,M,M,M,M,M,M,M,M,M,M,M,KMTN 240221Z AUTO 00000KT 10SM CLR 22/21 A2989 RMK AO2
MTN,2019-07-23 22:42,71.60,69.80,94.06,300.00,3.00,0.00,29.89,M,10.00,M,CLR,M,M,M,M,M,M,M,M,M,M,M,M,M,M,M,KMTN 240242Z AUTO 30003KT 10SM CLR 22/21 A2989 RMK AO2
MTN,2019-07-23 23:03,71.60,68.00,88.43,310.00,3.00,0.00,29.90,M,10.00,M,CLR,M,M,M,M,M,M,M,M,M,M,M,M,M,M,M,KMTN 240303Z AUTO 31003KT 10SM CLR 22/20 A2990 RMK AO2
MTN,2019-07-23 23:21,69.80,68.00,94.01,300.00,5.00,0.00,29.90,M,10.00,M,CLR,M,M,M,M,M,M,M,M,M,M,M,M,M,M,M,KMTN 240321Z AUTO 30005KT 10SM CLR 21/20 A2990 RMK AO2
MTN,2019-07-23 23:42,69.80,68.00,94.01,300.00,4.00,0.00,29.90,M,10.00,M,CLR,M,M,M,M,M,M,M,M,M,M,M,M,M,M,M,KMTN 240342Z AUTO 30004KT 10SM CLR 21/20 A2990 RMK AO2
MTN,2019-07-24 00:03,69.80,68.00,94.01,310.00,4.00,0.00,29.90,M,10.00,M,SCT,M,M,M,6500.00,M,M,M,M,M,M,M,M,M,M,M,KMTN 240403Z AUTO 31004KT 10SM SCT065 21/20 A2990 RMK AO2
MTN,2019-07-24 00:21,69.80,68.00,94.01,320.00,3.00,0.00,29.90,M,10.00,M,SCT,M,M,M,6500.00,M,M,M,M,M,M,M,M,M,M,M,KMTN 240421Z AUTO 32003KT 10SM SCT065 21/20 A2990 RMK AO2
MTN,2019-07-24 00:42,69.80,68.00,94.01,320.00,3.00,0.00,29.90,M,10.00,M,CLR,M,M,M,M,M,M,M,M,M,M,M,M,M,M,M,KMTN 240442Z AUTO 32003KT 10SM CLR 21/20 A2990 RMK AO2
MTN,2019-07-24 01:03,69.80,68.00,94.01,320.00,4.00,0.00,29.90,M,10.00,M,CLR,M,M,M,M,M,M,M,M,M,M,M,M,M,M,M,KMTN 240503Z AUTO 32004KT 10SM CLR 21/20 A2990 RMK AO2
MTN,2019-07-24 01:21,69.80,68.00,94.01,320.00,4.00,0.00,29.90,M,10.00,M,CLR,M,M,M,M,M,M,M,M,M,M,M,M,M,M,M,KMTN 240521Z AUTO 32004KT 10SM CLR 21/20 A2990 RMK AO2
MTN,2019-07-24 01:42,69.80,68.00,94.01,330.00,3.00,0.00,29.89,M,10.00,M,SCT,M,M,M,4800.00,M,M,M,M,M,M,M,M,M,M,M,KMTN 240542Z AUTO 33003KT 10SM SCT048 21/20 A2989 RMK AO2
MTN,2019-07-24 02:03,69.80,68.00,94.01,320.00,4.00,0.00,29.89,M,10.00,M,CLR,M,M,M,M,M,M,M,M,M,M,M,M,M,M,M,KMTN 240603Z AUTO 32004KT 10SM CLR 21/20 A2989 RMK AO2
MTN,2019-07-24 02:21,69.80,66.20,88.34,320.00,3.00,0.00,29.90,M,10.00,M,CLR,M,M,M,M,M,M,M,M,M,M,M,M,M,M,M,KMTN 240621Z AUTO 32003KT 10SM CLR 21/19 A2990 RMK AO2
MTN,2019-07-24 02:42,68.00,66.20,93.97,0.00,0.00,0.00,29.91,M,10.00,M,CLR,M,M,M,M,M,M,M,M,M,M,M,M,M,M,M,KMTN 240642Z AUTO 00000KT 10SM CLR 20/19 A2991 RMK AO2
MTN,2019-07-24 03:03,68.00,66.20,93.97,0.00,0.00,0.00,29.91,M,10.00,M,CLR,M,M,M,M,M,M,M,M,M,M,M,M,M,M,M,KMTN 240703Z AUTO 00000KT 10SM CLR 20/19 A2991 RMK AO2
MTN,2019-07-24 03:21,68.00,66.20,93.97,0.00,0.00,0.00,29.91,M,10.00,M,CLR,M,M,M,M,M,M,M,M,M,M,M,M,M,M,M,KMTN 240721Z AUTO 00000KT 10SM CLR 20/19 A2991 RMK AO2
MTN,2019-07-24 03:42,68.00,66.20,93.97,0.00,0.00,0.00,29.92,M,10.00,M,CLR,M,M,M,M,M,M,M,M,M,M,M,M,M,M,M,KMTN 240742Z AUTO 00000KT 10SM CLR 20/19 A2992 RMK AO2
MTN,2019-07-24 04:00,68.00,66.20,93.97,0.00,0.00,0.00,29.91,M,10.00,M,CLR,M,M,M,M,M,M,M,M,M,M,M,M,M,M,M,KMTN 240800Z AUTO 00000KT 10SM CLR 20/19 A2991 RMK AO2
MTN,2019-07-24 04:21,68.00,66.20,93.97,0.00,0.00,0.00,29.92,M,10.00,M,CLR,M,M,M,M,M,M,M,M,M,M,M,M,M,M,M,KMTN 240821Z AUTO 00000KT 10SM CLR 20/19 A2992 RMK AO2
MTN,2019-07-24 04:39,68.00,66.20,93.97,320.00,3.00,0.00,29.92,M,10.00,M,CLR,M,M,M,M,M,M,M,M,M,M,M,M,M,M,M,KMTN 240839Z AUTO 32003KT 10SM CLR 20/19 A2992 RMK AO2
MTN,2019-07-24 05:00,68.00,66.20,93.97,320.00,3.00,0.00,29.93,M,10.00,M,CLR,M,M,M,M,M,M,M,M,M,M,M,M,M,M,M,KMTN 240900Z AUTO 32003KT 10SM CLR 20/19 A2993 RMK AO2
MTN,2019-07-24 05:21,66.20,64.40,93.92,310.00,3.00,0.00,29.94,M,10.00,M,CLR,M,M,M,M,M,M,M,M,M,M,M,M,M,M,M,KMTN 240921Z AUTO 31003KT 10SM CLR 19/18 A2994 RMK AO2
MTN,2019-07-24 05:45,66.20,64.40,93.92,0.00,0.00,0.00,29.95,M,10.00,M,BKN,M,M,M,10000.00,M,M,M,M,M,M,M,M,M,M,M,KMTN 240945Z 00000KT 10SM BKN100 19/18 A2995 RMK FIRST
MTN,2019-07-24 06:50,64.40,64.40,100.00,310.00,4.00,0.00,29.96,M,10.00,M,BKN,M,M,M,10000.00,M,M,M,M,M,M,M,M,M,M,M,KMTN 241050Z 31004KT 10SM BKN100 18/18 A2996
MTN,2019-07-24 07:54,69.80,66.20,88.34,300.00,4.00,0.00,29.97,M,10.00,M,SCT,M,M,M,20000.00,M,M,M,M,M,M,M,M,M,M,M,KMTN 241154Z 30004KT 10SM SCT200 21/19 A2997
MTN,2019-07-24 08:45,73.40,66.20,78.19,300.00,3.00,0.00,29.98,M,10.00,M,SCT,M,M,M,20000.00,M,M,M,M,M,M,M,M,M,M,M,KMTN 241245Z 30003KT 10SM SCT200 23/19 A2998
MTN,2019-07-24 09:45,77.00,68.00,73.78,320.00,5.00,0.00,29.98,M,10.00,M,SCT,M,M,M,20000.00,M,M,M,M,M,M,M,M,M,M,M,KMTN 241345Z 32005KT 10SM SCT200 25/20 A2998
MTN,2019-07-24 10:45,80.60,64.40,57.84,340.00,5.00,0.00,29.98,M,10.00,M,FEW,SCT,M,M,3000.00,20000.00,M,M,M,M,M,M,M,M,M,82.27,KMTN 241445Z 34005KT 10SM FEW030 SCT200 27/18 A2998
MTN,2019-07-24 11:45,80.60,64.40,57.84,30.00,3.00,0.00,29.98,M,10.00,M,SCT,SCT,M,M,4300.00,20000.00,M,M,M,M,M,M,M,M,M,82.27,KMTN 241545Z 03003KT 10SM SCT043 SCT200 27/18 A2998
MTN,2019-07-24 12:45,82.40,60.80,48.05,20.00,5.00,0.00,29.98,M,10.00,M,SCT,M,M,M,5000.00,M,M,M,M,M,M,M,M,M,M,82.90,KMTN 241645Z 02005KT 10SM SCT050 28/16 A2998
MTN,2019-07-24 13:45,84.20,59.00,42.52,350.00,5.00,0.00,29.98,M,10.00,M,SCT,M,M,M,5500.00,M,M,M,M,M,M,M,M,M,M,83.92,KMTN 241745Z 35005KT 10SM SCT055 29/15 A2998
MTN,2019-07-24 14:50,84.20,59.00,42.52,10.00,8.00,0.00,29.97,M,10.00,M,SCT,M,M,M,6000.00,M,M,M,M,M,M,M,M,M,M,83.92,KMTN 241850Z 01008KT 320V030 10SM SCT060 29/15 A2997
MTN,2019-07-24 15:51,82.40,60.80,48.05,40.00,6.00,0.00,29.97,M,10.00,M,SCT,SCT,SCT,M,6500.00,9000.00,25000.00,M,M,M,M,M,M,M,M,82.90,KMTN 241951Z 04006KT 10SM SCT065 SCT090 SCT250 28/16 A2997
MTN,2019-07-24 16:54,82.40,60.80,48.05,0.00,0.00,0.00,29.97,M,10.00,M,BKN,BKN,BKN,M,8500.00,11000.00,25000.00,M,M,M,M,M,M,M,M,82.90,KMTN 242054Z 00000KT 10SM BKN085 BKN110 BKN250 28/16 A2997
MTN,2019-07-24 17:45,82.40,62.60,51.21,0.00,0.00,0.00,29.97,M,10.00,M,SCT,BKN,BKN,M,7000.00,9000.00,25000.00,M,M,M,M,M,M,M,M,83.41,KMTN 242145Z 00000KT 10SM SCT070 BKN090 BKN250 28/17 A2997
MTN,2019-07-24 18:45,82.40,59.00,45.07,M,3.00,0.00,29.98,M,10.00,M,SCT,BKN,M,M,10000.00,25000.00,M,M,M,M,M,M,M,M,M,82.46,KMTN 242245Z VRB03KT 10SM SCT100 BKN250 28/15 A2998
MTN,2019-07-24 19:45,80.60,60.80,50.95,320.00,6.00,0.00,29.99,M,10.00,M,BKN,BKN,M,M,10000.00,25000.00,M,M,M,M,M,M,M,M,M,81.46,KMTN 242345Z 32006KT 10SM BKN100 BKN250 27/16 A2999
MTN,2019-07-24 20:45,75.20,62.60,64.91,310.00,3.00,0.00,30.02,M,10.00,M,BKN,BKN,M,M,10000.00,25000.00,M,M,M,M,M,M,M,M,M,M,KMTN 250045Z 31003KT 10SM BKN100 BKN250 24/17 A3002
MTN,2019-07-24 21:45,73.40,62.60,68.94,0.00,0.00,0.00,30.03,M,10.00,M,SCT,BKN,M,M,10000.00,25000.00,M,M,M,M,M,M,M,M,M,M,KMTN 250145Z 00000KT 10SM SCT100 BKN250 23/17 A3003 RMK LAST
MTN,2019-07-24 22:21,71.60,62.60,73.27,290.00,3.00,0.00,30.04,M,10.00,M,CLR,M,M,M,M,M,M,M,M,M,M,M,M,M,M,M,KMTN 250221Z AUTO 29003KT 10SM CLR 22/17 A3004 RMK AO2
MTN,2019-07-24 22:39,73.40,62.60,68.94,0.00,0.00,0.00,30.04,M,10.00,M,CLR,M,M,M,M,M,M,M,M,M,M,M,M,M,M,M,KMTN 250239Z AUTO 00000KT 10SM CLR 23/17 A3004 RMK AO2
MTN,2019-07-24 23:00,71.60,62.60,73.27,290.00,3.00,0.00,30.05,M,10.00,M,CLR,M,M,M,M,M,M,M,M,M,M,M,M,M,M,M,KMTN 250300Z AUTO 29003KT 10SM CLR 22/17 A3005 RMK AO2
MTN,2019-07-24 23:21,71.60,62.60,73.27,290.00,3.00,0.00,30.05,M,10.00,M,CLR,M,M,M,M,M,M,M,M,M,M,M,M,M,M,M,KMTN 250321Z AUTO 29003KT 10SM CLR 22/17 A3005 RMK AO2
MTN,2019-07-24 23:39,71.60,62.60,73.27,290.00,3.00,0.00,30.04,M,10.00,M,CLR,M,M,M,M,M,M,M,M,M,M,M,M,M,M,M,KMTN 250339Z AUTO 29003KT 10SM CLR 22/17 A3004 RMK AO2
MTN,2019-07-25 00:00,71.60,62.60,73.27,290.00,5.00,0.00,30.04,M,10.00,M,CLR,M,M,M,M,M,M,M,M,M,M,M,M,M,M,M,KMTN 250400Z AUTO 29005KT 10SM CLR 22/17 A3004 RMK AO2
MTN,2019-07-25 00:21,71.60,62.60,73.27,270.00,4.00,0.00,30.04,M,10.00,M,CLR,M,M,M,M,M,M,M,M,M,M,M,M,M,M,M,KMTN 250421Z AUTO 27004KT 10SM CLR 22/17 A3004 RMK AO2
MTN,2019-07-25 00:39,71.60,62.60,73.27,300.00,5.00,0.00,30.04,M,10.00,M,CLR,M,M,M,M,M,M,M,M,M,M,M,M,M,M,M,KMTN 250439Z AUTO 30005KT 10SM CLR 22/17 A3004 RMK AO2
MTN,2019-07-25 01:00,71.60,62.60,73.27,300.00,4.00,0.00,30.04,M,10.00,M,CLR,M,M,M,M,M,M,M,M,M,M,M,M,M,M,M,KMTN 250500Z AUTO 30004KT 10SM CLR 22/17 A3004 RMK AO2
MTN,2019-07-25 01:21,69.80,62.60,77.90,290.00,4.00,0.00,30.04,M,10.00,M,CLR,M,M,M,M,M,M,M,M,M,M,M,M,M,M,M,KMTN 250521Z AUTO 29004KT 10SM CLR 21/17 A3004 RMK AO2
MTN,2019-07-25 01:39,69.80,62.60,77.90,270.00,4.00,0.00,30.05,M,10.00,M,CLR,M,M,M,M,M,M,M,M,M,M,M,M,M,M,M,KMTN 250539Z AUTO 27004KT 10SM CLR 21/17 A3005 RMK AO2
MTN,2019-07-25 02:00,68.00,62.60,82.86,290.00,3.00,0.00,30.04,M,10.00,M,CLR,M,M,M,M,M,M,M,M,M,M,M,M,M,M,M,KMTN 250600Z AUTO 29003KT 10SM CLR 20/17 A3004 RMK AO2
MTN,2019-07-25 02:21,69.80,62.60,77.90,90.00,4.00,0.00,30.05,M,10.00,M,CLR,M,M,M,M,M,M,M,M,M,M,M,M,M,M,M,KMTN 250621Z AUTO 09004KT 10SM CLR 21/17 A3005 RMK AO2
MTN,2019-07-25 02:39,69.80,62.60,77.90,0.00,0.00,0.00,30.05,M,7.00,M,CLR,M,M,M,M,M,M,M,M,M,M,M,M,M,M,M,KMTN 250639Z AUTO 00000KT 7SM CLR 21/17 A3005 RMK AO2
MTN,2019-07-25 03:00,68.00,62.60,82.86,0.00,0.00,0.00,30.05,M,10.00,M,CLR,M,M,M,M,M,M,M,M,M,M,M,M,M,M,M,KMTN 250700Z AUTO 00000KT 10SM CLR 20/17 A3005 RMK AO2
MTN,2019-07-25 03:21,68.00,62.60,82.86,230.00,3.00,0.00,30.06,M,10.00,M,CLR,M,M,M,M,M,M,M,M,M,M,M,M,M,M,M,KMTN 250721Z AUTO 23003KT 10SM CLR 20/17 A3006 RMK AO2
MTN,2019-07-25 03:39,68.00,62.60,82.86,0.00,0.00,0.00,30.06,M,10.00,M,CLR,M,M,M,M,M,M,M,M,M,M,M,M,M,M,M,KMTN 250739Z AUTO 00000KT 10SM CLR 20/17 A3006 RMK AO2
MTN,2019-07-25 04:00,66.20,62.60,88.18,0.00,0.00,0.00,30.06,M,10.00,M,CLR,M,M,M,M,M,M,M,M,M,M,M,M,M,M,M,KMTN 250800Z AUTO 00000KT 10SM CLR 19/17 A3006 RMK AO2
MTN,2019-07-25 04:21,68.00,62.60,82.86,0.00,0.00,0.00,30.06,M,10.00,M,CLR,M,M,M,M,M,M,M,M,M,M,M,M,M,M,M,KMTN 250821Z AUTO 00000KT 10SM CLR 20/17 A3006 RMK AO2
MTN,2019-07-25 04:39,66.20,62.60,88.18,0.00,0.00,0.00,30.06,M,10.00,M,CLR,M,M,M,M,M,M,M,M,M,M,M,M,M,M,M,KMTN 250839Z AUTO 00000KT 10SM CLR 19/17 A3006 RMK AO2
MTN,2019-07-25 05:00,66.20,62.60,88.18,280.00,3.00,0.00,30.06,M,10.00,M,CLR,M,M,M,M,M,M,M,M,M,M,M,M,M,M,M,KMTN 250900Z AUTO 28003KT 10SM CLR 19/17 A3006 RMK AO2
MTN,2019-07-25 05:21,64.40,60.80,88.09,290.00,4.00,0.00,30.07,M,10.00,M,CLR,M,M,M,M,M,M,M,M,M,M,M,M,M,M,M,KMTN 250921Z AUTO 29004KT 10SM CLR 18/16 A3007 RMK AO2
MTN,2019-07-25 05:30,62.60,60.80,93.83,280.00,4.00,0.00,30.07,M,10.00,M,CLR,M,M,M,M,M,M,M,M,M,M,M,M,M,M,M,KMTN 250930Z AUTO 28004KT 10SM CLR 17/16 A3007 RMK AO2
MTN,2019-07-25 05:45,64.40,62.60,93.88,310.00,4.00,0.00,30.08,M,10.00,M,FEW,M,M,M,25000.00,M,M,M,M,M,M,M,M,M,M,M,KMTN 250945Z 31004KT 10SM FEW250 18/17 A3008
MTN,2019-07-25 06:45,66.20,62.60,88.18,310.00,3.00,0.00,30.10,M,10.00,M,FEW,M,M,M,25000.00,M,M,M,M,M,M,M,M,M,M,M,KMTN 251045Z 31003KT 10SM FEW250 19/17 A3010
MTN,2019-07-25 07:45,69.80,64.40,82.98,320.00,5.00,0.00,30.11,M,10.00,M,CLR,M,M,M,M,M,M,M,M,M,M,M,M,M,M,M,KMTN 251145Z 32005KT 10SM SKC 21/18 A3011
MTN,2019-07-25 08:45,73.40,64.40,73.44,340.00,3.00,0.00,30.12,M,10.00,M,CLR,M,M,M,M,M,M,M,M,M,M,M,M,M,M,M,KMTN 251245Z 34003KT 10SM SKC 23/18 A3012
MTN,2019-07-25 09:45,78.80,64.40,61.36,330.00,4.00,0.00,30.13,M,10.00,M,CLR,M,M,M,M,M,M,M,M,M,M,M,M,M,M,M,KMTN 251345Z 33004KT 10SM SKC 26/18 A3013
MTN,2019-07-25 10:54,82.40,66.20,58.08,310.00,4.00,0.00,30.14,M,10.00,M,CLR,M,M,M,M,M,M,M,M,M,M,M,M,M,M,84.63,KMTN 251454Z 31004KT 10SM SKC 28/19 A3014
MTN,2019-07-25 11:54,84.20,62.60,48.32,340.00,4.00,0.00,30.14,M,10.00,M,SCT,M,M,M,3900.00,M,M,M,M,M,M,M,M,M,M,85.03,KMTN 251554Z 34004KT 10SM SCT039 29/17 A3014
MTN,2019-07-25 12:45,84.20,62.60,48.32,320.00,6.00,0.00,30.14,M,10.00,M,SCT,M,M,M,5000.00,M,M,M,M,M,M,M,M,M,M,85.03,KMTN 251645Z 32006KT 10SM SCT050 29/17 A3014
MTN,2019-07-25 13:45,86.00,60.80,42.80,60.00,4.00,0.00,30.14,M,10.00,M,SCT,SCT,M,M,6000.00,8000.00,M,M,M,M,M,M,M,M,M,86.05,KMTN 251745Z 06004KT 10SM SCT060 SCT080 30/16 A3014
MTN,2019-07-25 14:45,84.20,59.00,42.52,40.00,4.00,0.00,30.14,M,10.00,M,SCT,M,M,M,6000.00,M,M,M,M,M,M,M,M,M,M,83.92,KMTN 251845Z 04004KT 10SM SCT060 29/15 A3014
MTN,2019-07-25 15:45,86.00,57.20,37.62,310.00,8.00,0.00,30.13,M,10.00,M,SCT,M,M,M,7000.00,M,M,M,M,M,M,M,M,M,M,84.97,KMTN 251945Z 31008KT 10SM SCT070 30/14 A3013
MTN,2019-07-25 16:45,86.00,57.20,37.62,300.00,5.00,0.00,30.13,M,10.00,M,SCT,M,M,M,8500.00,M,M,M,M,M,M,M,M,M,M,84.97,KMTN 252045Z 30005KT 10SM SCT085 30/14 A3013
MTN,2019-07-25 17:45,86.00,57.20,37.62,340.00,4.00,0.00,30.13,M,10.00,M,FEW,M,M,M,8500.00,M,M,M,M,M,M,M,M,M,M,84.97,KMTN 252145Z 34004KT 10SM FEW085 30/14 A3013
MTN,2019-07-25 18:45,84.20,59.00,42.52,0.00,0.00,0.00,30.15,M,10.00,M,FEW,M,M,M,8500.00,M,M,M,M,M,M,M,M,M,M,83.92,KMTN 252245Z 00000KT 10SM FEW085 29/15 A3015
MTN,2019-07-25 19:45,82.40,60.80,48.05,0.00,0.00,0.00,30.16,M,10.00,M,FEW,M,M,M,8500.00,M,M,M,M,M,M,M,M,M,M,82.90,KMTN 252345Z 00000KT 10SM FEW085 28/16 A3016
MTN,2019-07-25 20:45,78.80,62.60,57.60,0.00,0.00,0.00,30.18,M,10.00,M,FEW,M,M,M,12000.00,M,M,M,M,M,M,M,M,M,M,M,KMTN 260045Z 00000KT 10SM FEW120 26/17 A3018
MTN,2019-07-25 21:45,73.40,66.20,78.19,0.00,0.00,0.00,30.19,M,10.00,M,CLR,M,M,M,M,M,M,M,M,M,M,M,M,M,M,M,KMTN 260145Z 00000KT 10SM SKC 23/19 A3019
MTN,2019-07-25 22:21,71.60,66.20,83.09,0.00,0.00,0.00,30.19,M,10.00,M,CLR,M,M,M,M,M,M,M,M,M,M,M,M,M,M,M,KMTN 260221Z AUTO 00000KT 10SM CLR 22/19 A3019 RMK AO2
MTN,2019-07-25 22:39,71.60,66.20,83.09,0.00,0.00,0.00,30.20,M,10.00,M,CLR,M,M,M,M,M,M,M,M,M,M,M,M,M,M,M,KMTN 260239Z AUTO 00000KT 10SM CLR 22/19 A3020 RMK AO2
MTN,2019-07-25 23:00,71.60,66.20,83.09,0.00,0.00,0.00,30.20,M,10.00,M,CLR,M,M,M,M,M,M,M,M,M,M,M,M,M,M,M,KMTN 260300Z AUTO 00000KT 10SM CLR 22/19 A3020 RMK AO2
MTN,2019-07-25 23:21,71.60,66.20,83.09,0.00,0.00,0.00,30.20,M,10.00,M,CLR,M,M,M,M,M,M,M,M,M,M,M,M,M,M,M,KMTN 260321Z AUTO 00000KT 10SM CLR 22/19 A3020 RMK AO2
MTN,2019-07-25 23:39,69.80,66.20,88.34,0.00,0.00,0.00,30.20,M,10.00,M,CLR,M,M,M,M,M,M,M,M,M,M,M,M,M,M,M,KMTN 260339Z AUTO 00000KT 10SM CLR 21/19 A3020 RMK AO2
MTN,2019-07-26 00:00,69.80,66.20,88.34,0.00,0.00,0.00,30.20,M,10.00,M,CLR,M,M,M,M,M,M,M,M,M,M,M,M,M,M,M,KMTN 260400Z AUTO 00000KT 10SM CLR 21/19 A3020 RMK AO2
MTN,2019-07-26 00:21,69.80,64.40,82.98,300.00,3.00,0.00,30.20,M,10.00,M,CLR,M,M,M,M,M,M,M,M,M,M,M,M,M,M,M,KMTN 260421Z AUTO 30003KT 10SM CLR 21/18 A3020 RMK AO2
MTN,2019-07-26 00:39,68.00,64.40,88.26,0.00,0.00,0.00,30.20,M,10.00,M,CLR,M,M,M,M,M,M,M,M,M,M,M,M,M,M,M,KMTN 260439Z AUTO 00000KT 10SM CLR 20/18 A3020 RMK AO2
MTN,2019-07-26 01:00,69.80,64.40,82.98,0.00,0.00,0.00,30.20,M,10.00,M,CLR,M,M,M,M,M,M,M,M,M,M,M,M,M,M,M,KMTN 260500Z AUTO 00000KT 10SM CLR 21/18 A3020 RMK AO2
MTN,2019-07-26 01:21,68.00,64.40,88.26,0.00,0.00,0.00,30.21,M,10.00,M,CLR,M,M,M,M,M,M,M,M,M,M,M,M,M,M,M,KMTN 260521Z AUTO 00000KT 10SM CLR 20/18 A3021 RMK AO2
MTN,2019-07-26 01:39,68.00,64.40,88.26,0.00,0.00,0.00,30.21,M,10.00,M,CLR,M,M,M,M,M,M,M,M,M,M,M,M,M,M,M,KMTN 260539Z AUTO 00000KT 10SM CLR 20/18 A3021 RMK AO2
MTN,2019-07-26 02:00,68.00,64.40,88.26,0.00,0.00,0.00,30.21,M,10.00,M,CLR,M,M,M,M,M,M,M,M,M,M,M,M,M,M,M,KMTN 260600Z AUTO 00000KT 10SM CLR 20/18 A3021 RMK AO2
MTN,2019-07-26 02:21,68.00,64.40,88.26,0.00,0.00,0.00,30.21,M,10.00,M,CLR,M,M,M,M,M,M,M,M,M,M,M,M,M,M,M,KMTN 260621Z AUTO 00000KT 10SM CLR 20/18 A3021 RMK AO2
MTN,2019-07-26 02:39,66.20,64.40,93.92,0.00,0.00,0.00,30.22,M,10.00,M,CLR,M,M,M,M,M,M,M,M,M,M,M,M,M,M,M,KMTN 260639Z AUTO 00000KT 10SM CLR 19/18 A3022 RMK AO2
MTN,2019-07-26 03:00,64.40,62.60,93.88,300.00,3.00,0.00,30.22,M,10.00,M,CLR,M,M,M,M,M,M,M,M,M,M,M,M,M,M,M,KMTN 260700Z AUTO 30003KT 10SM CLR 18/17 A3022 RMK AO2
MTN,2019-07-26 03:21,68.00,64.40,88.26,290.00,4.00,0.00,30.22,M,10.00,M,CLR,M,M,M,M,M,M,M,M,M,M,M,M,M,M,M,KMTN 260721Z AUTO 29004KT 10SM CLR 20/18 A3022 RMK AO2
MTN,2019-07-26 03:39,66.20,64.40,93.92,0.00,0.00,0.00,30.22,M,10.00,M,CLR,M,M,M,M,M,M,M,M,M,M,M,M,M,M,M,KMTN 260739Z AUTO 00000KT 10SM CLR 19/18 A3022 RMK AO2
MTN,2019-07-26 04:00,66.20,64.40,93.92,0.00,0.00,0.00,30.22,M,10.00,M,CLR,M,M,M,M,M,M,M,M,M,M,M,M,M,M,M,KMTN 260800Z AUTO 00000KT 10SM CLR 19/18 A3022 RMK AO2
MTN,2019-07-26 04:21,64.40,64.40,100.00,0.00,0.00,0.00,30.23,M,10.00,M,CLR,M,M,M,M,M,M,M,M,M,M,M,M,M,M,M,KMTN 260821Z AUTO 00000KT 10SM CLR 18/18 A3023 RMK AO2
MTN,2019-07-26 04:39,64.40,62.60,93.88,300.00,3.00,0.00,30.23,M,10.00,M,CLR,M,M,M,M,M,M,M,M,M,M,M,M,M,M,M,KMTN 260839Z AUTO 30003KT 10SM CLR 18/17 A3023 RMK AO2
MTN,2019-07-26 05:00,66.20,62.60,88.18,300.00,3.00,0.00,30.23,M,10.00,M,CLR,M,M,M,M,M,M,M,M,M,M,M,M,M,M,M,KMTN 260900Z AUTO 30003KT 10SM CLR 19/17 A3023 RMK AO2
MTN,2019-07-26 05:21,64.40,62.60,93.88,310.00,3.00,0.00,30.24,M,10.00,M,CLR,M,M,M,M,M,M,M,M,M,M,M,M,M,M,M,KMTN 260921Z AUTO 31003KT 10SM CLR 18/17 A3024 RMK AO2
MTN,2019-07-26 05:30,64.40,62.60,93.88,320.00,3.00,0.00,30.25,M,10.00,M,CLR,M,M,M,M,M,M,M,M,M,M,M,M,M,M,M,KMTN 260930Z AUTO 32003KT 10SM CLR 18/17 A3025 RMK AO2
MTN,2019-07-26 05:45,66.20,64.40,93.92,310.00,3.00,0.00,30.25,M,10.00,M,CLR,M,M,M,M,M,M,M,M,M,M,M,M,M,M,M,KMTN 260945Z 31003KT 10SM SKC 19/18 A3025 RMK FIRST
MTN,2019-07-26 06:45,68.00,62.60,82.86,0.00,0.00,0.00,30.25,M,10.00,M,CLR,M,M,M,M,M,M,M,M,M,M,M,M,M,M,M,KMTN 261045Z 00000KT 10SM SKC 20/17 A3025
MTN,2019-07-26 07:45,71.60,64.40,78.04,0.00,0.00,0.00,30.27,M,10.00,M,FEW,M,M,M,20000.00,M,M,M,M,M,M,M,M,M,M,M,KMTN 261145Z 00000KT 10SM FEW200 22/18 A3027
MTN,2019-07-26 08:45,77.00,64.40,65.12,0.00,0.00,0.00,30.28,M,10.00,M,FEW,M,M,M,25000.00,M,M,M,M,M,M,M,M,M,M,M,KMTN 261245Z 00000KT 10SM FEW250 25/18 A3028
MTN,2019-07-26 09:45,84.20,64.40,51.47,0.00,0.00,0.00,30.28,M,10.00,M,FEW,M,M,M,25000.00,M,M,M,M,M,M,M,M,M,M,85.71,KMTN 261345Z 00000KT 10SM FEW250 29/18 A3028
MTN,2019-07-26 10:45,84.20,64.40,51.47,100.00,7.00,0.00,30.29,M,10.00,M,FEW,FEW,M,M,7000.00,25000.00,M,M,M,M,M,M,M,M,M,85.71,KMTN 261445Z 10007KT 10SM FEW070 FEW250 29/18 A3029
MTN,2019-07-26 11:45,86.00,62.60,45.61,90.00,7.00,0.00,30.29,M,10.00,M,SCT,SCT,M,M,6000.00,25000.00,M,M,M,M,M,M,M,M,M,86.72,KMTN 261545Z 09007KT 10SM SCT060 SCT250 30/17 A3029
MTN,2019-07-26 12:45,87.80,62.60,43.07,120.00,7.00,0.00,30.29,M,10.00,M,SCT,SCT,M,M,6000.00,25000.00,M,M,M,M,M,M,M,M,M,88.48,KMTN 261645Z 12007KT 10SM SCT060 SCT250 31/17 A3029
MTN,2019-07-26 13:45,87.80,62.60,43.07,130.00,8.00,0.00,30.28,M,10.00,M,SCT,SCT,M,M,6000.00,25000.00,M,M,M,M,M,M,M,M,M,88.48,KMTN 261745Z 13008KT 10SM SCT060 SCT250 31/17 A3028
MTN,2019-07-26 14:50,87.80,57.20,35.53,150.00,8.00,0.00,30.27,M,10.00,M,SCT,SCT,M,M,6000.00,25000.00,M,M,M,M,M,M,M,M,M,86.58,KMTN 261850Z 15008KT 10SM SCT060 SCT250 31/14 A3027
MTN,2019-07-26 15:50,87.80,57.20,35.53,110.00,5.00,0.00,30.27,M,10.00,M,SCT,M,M,M,6000.00,M,M,M,M,M,M,M,M,M,M,86.58,KMTN 261950Z 11005KT 10SM SCT060 31/14 A3027
MTN,2019-07-26 16:45,87.80,55.40,33.29,0.00,0.00,0.00,30.25,M,10.00,M,SCT,SCT,M,M,6000.00,25000.00,M,M,M,M,M,M,M,M,M,86.11,KMTN 262045Z 00000KT 10SM SCT060 SCT250 31/13 A3025
MTN,2019-07-26 17:45,87.80,55.40,33.29,150.00,7.00,0.00,30.24,M,10.00,M,SCT,SCT,M,M,6000.00,20000.00,M,M,M,M,M,M,M,M,M,86.11,KMTN 262145Z 15007KT 10SM SCT060 SCT200 31/13 A3024
MTN,2019-07-26 18:45,84.20,57.20,39.86,130.00,6.00,0.00,30.24,M,10.00,M,FEW,SCT,M,M,6000.00,25000.00,M,M,M,M,M,M,M,M,M,83.47,KMTN 262245Z 13006KT 10SM FEW060 SCT250 29/14 A3024
MTN,2019-07-26 19:55,82.40,60.80,48.05,130.00,8.00,0.00,30.25,M,10.00,M,SCT,M,M,M,20000.00,M,M,M,M,M,M,M,M,M,M,82.90,KMTN 262355Z 13008KT 10SM SCT200 28/16 A3025
MTN,2019-07-26 20:45,78.80,59.00,50.69,0.00,0.00,0.00,30.25,M,10.00,M,SCT,M,M,M,20000.00,M,M,M,M,M,M,M,M,M,M,M,KMTN 270045Z 00000KT 10SM SCT200 26/15 A3025
MTN,2019-07-26 21:45,75.20,66.20,73.61,0.00,0.00,0.00,30.26,M,10.00,M,FEW,M,M,M,20000.00,M,M,M,M,M,M,M,M,M,M,M,KMTN 270145Z 00000KT 10SM FEW200 24/19 A3026
MTN,2019-07-26 22:21,73.40,66.20,78.19,0.00,0.00,0.00,30.27,M,10.00,M,CLR,M,M,M,M,M,M,M,M,M,M,M,M,M,M,M,KMTN 270221Z AUTO 00000KT 10SM CLR 23/19 A3027 RMK AO2
MTN,2019-07-26 22:39,73.40,68.00,83.21,0.00,0.00,0.00,30.27,M,10.00,M,CLR,M,M,M,M,M,M,M,M,M,M,M,M,M,M,M,KMTN 270239Z AUTO 00000KT 10SM CLR 23/20 A3027 RMK AO2
MTN,2019-07-26 22:57,71.60,68.00,88.43,0.00,0.00,0.00,30.27,M,10.00,M,CLR,M,M,M,M,M,M,M,M,M,M,M,M,M,M,M,KMTN 270257Z AUTO 00000KT 10SM CLR 22/20 A3027 RMK AO2
MTN,2019-07-26 23:21,71.60,64.40,78.04,0.00,0.00,0.00,30.27,M,10.00,M,CLR,M,M,M,M,M,M,M,M,M,M,M,M,M,M,M,KMTN 270321Z AUTO 00000KT 10SM CLR 22/18 A3027 RMK AO2
MTN,2019-07-26 23:39,71.60,64.40,78.04,0.00,0.00,0.00,30.27,M,10.00,M,CLR,M,M,M,M,M,M,M,M,M,M,M,M,M,M,M,KMTN 270339Z AUTO 00000KT 10SM CLR 22/18 A3027 RMK AO2
MTN,2019-07-27 00:00,71.60,66.20,83.09,280.00,3.00,0.00,30.27,M,10.00,M,CLR,M,M,M,M,M,M,M,M,M,M,M,M,M,M,M,KMTN 270400Z AUTO 28003KT 10SM CLR 22/19 A3027 RMK AO2
MTN,2019-07-27 00:21,71.60,64.40,78.04,300.00,3.00,0.00,30.27,M,10.00,M,CLR,M,M,M,M,M,M,M,M,M,M,M,M,M,M,M,KMTN 270421Z AUTO 30003KT 10SM CLR 22/18 A3027 RMK AO2
MTN,2019-07-27 00:39,71.60,64.40,78.04,290.00,3.00,0.00,30.27,M,10.00,M,CLR,M,M,M,M,M,M,M,M,M,M,M,M,M,M,M,KMTN 270439Z AUTO 29003KT 10SM CLR 22/18 A3027 RMK AO2
MTN,2019-07-27 01:00,71.60,64.40,78.04,0.00,0.00,0.00,30.27,M,10.00,M,CLR,M,M,M,M,M,M,M,M,M,M,M,M,M,M,M,KMTN 270500Z AUTO 00000KT 10SM CLR 22/18 A3027 RMK AO2
MTN,2019-07-27 01:21,69.80,66.20,88.34,0.00,0.00,0.00,30.27,M,10.00,M,CLR,M,M,M,M,M,M,M,M,M,M,M,M,M,M,M,KMTN 270521Z AUTO 00000KT 10SM CLR 21/19 A3027 RMK AO2
MTN,2019-07-27 01:39,69.80,66.20,88.34,0.00,0.00,0.00,30.27,M,10.00,M,CLR,M,M,M,M,M,M,M,M,M,M,M,M,M,M,M,KMTN 270539Z AUTO 00000KT 10SM CLR 21/19 A3027 RMK AO2
MTN,2019-07-27 02:00,69.80,68.00,94.01,0.00,0.00,0.00,30.26,M,10.00,M,CLR,M,M,M,M,M,M,M,M,M,M,M,M,M,M,M,KMTN 270600Z AUTO 00000KT 10SM CLR 21/20 A3026 RMK AO2
MTN,2019-07-27 02:21,69.80,66.20,88.34,0.00,0.00,0.00,30.26,M,10.00,M,CLR,M,M,M,M,M,M,M,M,M,M,M,M,M,M,M,KMTN 270621Z AUTO 00000KT 10SM CLR 21/19 A3026 RMK AO2
MTN,2019-07-27 02:39,69.80,66.20,88.34,0.00,0.00,0.00,30.26,M,10.00,M,CLR,M,M,M,M,M,M,M,M,M,M,M,M,M,M,M,KMTN 270639Z AUTO 00000KT 10SM CLR 21/19 A3026 RMK AO2
MTN,2019-07-27 03:00,69.80,64.40,82.98,0.00,0.00,0.00,30.26,M,10.00,M,CLR,M,M,M,M,M,M,M,M,M,M,M,M,M,M,M,KMTN 270700Z AUTO 00000KT 10SM CLR 21/18 A3026 RMK AO2
MTN,2019-07-27 03:21,68.00,64.40,88.26,300.00,3.00,0.00,30.26,M,10.00,M,CLR,M,M,M,M,M,M,M,M,M,M,M,M,M,M,M,KMTN 270721Z AUTO 30003KT 10SM CLR 20/18 A3026 RMK AO2
MTN,2019-07-27 03:39,68.00,64.40,88.26,0.00,0.00,0.00,30.26,M,10.00,M,CLR,M,M,M,M,M,M,M,M,M,M,M,M,M,M,M,KMTN 270739Z AUTO 00000KT 10SM CLR 20/18 A3026 RMK AO2
MTN,2019-07-27 04:00,69.80,64.40,82.98,290.00,3.00,0.00,30.26,M,10.00,M,CLR,M,M,M,M,M,M,M,M,M,M,M,M,M,M,M,KMTN 270800Z AUTO 29003KT 10SM CLR 21/18 A3026 RMK AO2
MTN,2019-07-27 04:21,69.80,64.40,82.98,290.00,3.00,0.00,30.26,M,10.00,M,CLR,M,M,M,M,M,M,M,M,M,M,M,M,M,M,M,KMTN 270821Z AUTO 29003KT 10SM CLR 21/18 A3026 RMK AO2
MTN,2019-07-27 04:39,68.00,64.40,88.26,0.00,0.00,0.00,30.27,M,10.00,M,CLR,M,M,M,M,M,M,M,M,M,M,M,M,M,M,M,KMTN 270839Z AUTO 00000KT 10SM CLR 20/18 A3027 RMK AO2
MTN,2019-07-27 05:00,68.00,64.40,88.26,0.00,0.00,0.00,30.27,M,10.00,M,CLR,M,M,M,M,M,M,M,M,M,M,M,M,M,M,M,KMTN 270900Z AUTO 00000KT 10SM CLR 20/18 A3027 RMK AO2
MTN,2019-07-27 05:21,68.00,64.40,88.26,0.00,0.00,0.00,30.27,M,10.00,M,CLR,M,M,M,M,M,M,M,M,M,M,M,M,M,M,M,KMTN 270921Z AUTO 00000KT 10SM CLR 20/18 A3027 RMK AO2
MTN,2019-07-27 05:30,68.00,64.40,88.26,0.00,0.00,0.00,30.28,M,10.00,M,CLR,M,M,M,M,M,M,M,M,M,M,M,M,M,M,M,KMTN 270930Z AUTO 00000KT 10SM CLR 20/18 A3028 RMK AO2
MTN,2019-07-27 05:45,69.80,66.20,88.34,0.00,0.00,0.00,30.28,M,10.00,M,CLR,M,M,M,M,M,M,M,M,M,M,M,M,M,M,M,KMTN 270945Z 00000KT 10SM SKC 21/19 A3028
MTN,2019-07-27 06:45,68.00,68.00,100.00,0.00,0.00,0.00,30.29,M,6.00,M,CLR,M,M,M,M,M,M,M,HZ,M,M,M,M,M,M,M,KMTN 271045Z 00000KT 6SM HZ SKC 20/20 A3029
MTN,2019-07-27 07:45,73.40,69.80,88.51,0.00,0.00,0.00,30.30,M,10.00,M,CLR,M,M,M,M,M,M,M,M,M,M,M,M,M,M,M,KMTN 271145Z 00000KT 10SM SKC 23/21 A3030
MTN,2019-07-27 08:45,78.80,69.80,73.95,0.00,0.00,0.00,30.30,M,10.00,M,CLR,M,M,M,M,M,M,M,M,M,M,M,M,M,M,M,KMTN 271245Z 00000KT 10SM SKC 26/21 A3030
MTN,2019-07-27 09:45,82.40,69.80,65.74,0.00,0.00,0.00,30.30,M,10.00,M,CLR,M,M,M,M,M,M,M,M,M,M,M,M,M,M,86.22,KMTN 271345Z 00000KT 10SM SKC 28/21 A3030
MTN,2019-07-27 10:45,84.20,71.60,65.95,150.00,4.00,0.00,30.30,M,10.00,M,FEW,M,M,M,5000.00,M,M,M,M,M,M,M,M,M,M,89.60,KMTN 271445Z 15004KT 10SM FEW050 29/22 A3030
MTN,2019-07-27 11:45,86.00,71.60,62.25,120.00,4.00,0.00,30.29,M,10.00,M,SCT,M,M,M,5000.00,M,M,M,M,M,M,M,M,M,M,91.92,KMTN 271545Z 12004KT 10SM SCT050 30/22 A3029
MTN,2019-07-27 12:15,87.80,69.80,55.29,120.00,8.00,0.00,30.27,M,10.00,M,SCT,M,M,M,5000.00,M,M,M,M,M,M,M,M,M,M,92.71,KMTN 271615Z 12008KT 10SM SCT050 31/21 A3027
MTN,2019-07-27 12:45,87.80,66.20,48.84,130.00,8.00,0.00,30.26,M,10.00,M,SCT,M,M,M,5000.00,M,M,M,M,M,M,M,M,M,M,90.31,KMTN 271645Z 13008KT 10SM SCT050 31/19 A3026
MTN,2019-07-27 13:50,87.80,66.20,48.84,120.00,9.00,0.00,30.24,M,10.00,M,SCT,M,M,M,5000.00,M,M,M,M,M,M,M,M,M,M,90.31,KMTN 271750Z 12009KT 10SM SCT050 31/19 A3024
MTN,2019-07-27 14:50,87.80,64.40,45.88,130.00,9.00,0.00,30.23,M,10.00,M,SCT,M,M,M,5000.00,M,M,M,M,M,M,M,M,M,M,89.33,KMTN 271850Z 13009KT 10SM SCT050 31/18 A3023
MTN,2019-07-27 15:50,89.60,66.20,46.14,130.00,9.00,0.00,30.22,M,10.00,M,SCT,M,M,M,5000.00,M,M,M,M,M,M,M,M,M,M,92.27,KMTN 271950Z 13009KT 10SM SCT050 32/19 A3022
MTN,2019-07-27 17:55,87.80,64.40,45.88,150.00,10.00,0.00,30.18,M,10.00,M,SCT,M,M,M,5000.00,M,M,M,M,M,M,M,M,M,M,89.33,KMTN 272155Z 15010KT 10SM SCT050 31/18 A3018
MTN,2019-07-27 18:50,86.00,66.20,51.72,150.00,8.00,0.00,30.18,M,10.00,M,FEW,M,M,M,5000.00,M,M,M,M,M,M,M,M,M,M,88.39,KMTN 272250Z 15008KT 10SM FEW050 30/19 A3018
MTN,2019-07-27 19:50,84.20,66.20,54.80,150.00,8.00,0.00,30.18,M,10.00,M,CLR,M,M,M,M,M,M,M,M,M,M,M,M,M,M,86.50,KMTN 272350Z 15008KT 10SM SKC 29/19 A3018
MTN,2019-07-27 20:50,82.40,66.20,58.08,170.00,5.00,0.00,30.19,M,10.00,M,CLR,M,M,M,M,M,M,M,M,M,M,M,M,M,M,84.63,KMTN 280050Z 17005KT 10SM SKC 28/19 A3019
MTN,2019-07-27 21:45,80.60,68.00,65.54,0.00,0.00,0.00,30.20,M,10.00,M,CLR,M,M,M,M,M,M,M,M,M,M,M,M,M,M,83.29,KMTN 280145Z 00000KT 10SM SKC 27/20 A3020 RMK LAST
MTN,2019-07-27 22:21,78.80,68.00,69.52,160.00,3.00,0.00,30.20,M,10.00,M,CLR,M,M,M,M,M,M,M,M,M,M,M,M,M,M,M,KMTN 280221Z AUTO 16003KT 10SM CLR 26/20 A3020 RMK AO2
MTN,2019-07-27 22:39,78.80,68.00,69.52,170.00,4.00,0.00,30.20,M,10.00,M,CLR,M,M,M,M,M,M,M,M,M,M,M,M,M,M,M,KMTN 280239Z AUTO 17004KT 10SM CLR 26/20 A3020 RMK AO2
MTN,2019-07-27 23:00,78.80,64.40,61.36,160.00,5.00,0.00,30.20,M,10.00,M,CLR,M,M,M,M,M,M,M,M,M,M,M,M,M,M,M,KMTN 280300Z AUTO 16005KT 10SM CLR 26/18 A3020 RMK AO2
MTN,2019-07-27 23:21,78.80,64.40,61.36,170.00,6.00,0.00,30.20,M,10.00,M,CLR,M,M,M,M,M,M,M,M,M,M,M,M,M,M,M,KMTN 280321Z AUTO 17006KT 10SM CLR 26/18 A3020 RMK AO2
MTN,2019-07-27 23:39,78.80,64.40,61.36,170.00,6.00,0.00,30.20,M,10.00,M,CLR,M,M,M,M,M,M,M,M,M,M,M,M,M,M,M,KMTN 280339Z AUTO 17006KT 10SM CLR 26/18 A3020 RMK AO2
MTN,2019-07-28 00:00,78.80,64.40,61.36,180.00,4.00,0.00,30.20,M,10.00,M,CLR,M,M,M,M,M,M,M,M,M,M,M,M,M,M,M,KMTN 280400Z AUTO 18004KT 10SM CLR 26/18 A3020 RMK AO2
MTN,2019-07-28 00:21,78.80,64.40,61.36,200.00,4.00,0.00,30.20,M,10.00,M,CLR,M,M,M,M,M,M,M,M,M,M,M,M,M,M,M,KMTN 280421Z AUTO 20004KT 10SM CLR 26/18 A3020 RMK AO2
MTN,2019-07-28 00:39,78.80,64.40,61.36,210.00,4.00,0.00,30.20,M,10.00,M,CLR,M,M,M,M,M,M,M,M,M,M,M,M,M,M,M,KMTN 280439Z AUTO 21004KT 10SM CLR 26/18 A3020 RMK AO2
MTN,2019-07-28 01:00,78.80,64.40,61.36,190.00,5.00,0.00,30.19,M,10.00,M,CLR,M,M,M,M,M,M,M,M,M,M,M,M,M,M,M,KMTN 280500Z AUTO 19005KT 10SM CLR 26/18 A3019 RMK AO2
MTN,2019-07-28 01:21,78.80,64.40,61.36,210.00,4.00,0.00,30.19,M,10.00,M,CLR,M,M,M,M,M,M,M,M,M,M,M,M,M,M,M,KMTN 280521Z AUTO 21004KT 10SM CLR 26/18 A3019 RMK AO2
MTN,2019-07-28 01:39,77.00,64.40,65.12,210.00,6.00,0.00,30.18,M,10.00,M,CLR,M,M,M,M,M,M,M,M,M,M,M,M,M,M,M,KMTN 280539Z AUTO 21006KT 10SM CLR 25/18 A3018 RMK AO2
MTN,2019-07-28 02:00,77.00,64.40,65.12,200.00,5.00,0.00,30.18,M,10.00,M,CLR,M,M,M,M,M,M,M,M,M,M,M,M,M,M,M,KMTN 280600Z AUTO 20005KT 10SM CLR 25/18 A3018 RMK AO2
MTN,2019-07-28 02:21,77.00,64.40,65.12,190.00,4.00,0.00,30.18,M,10.00,M,CLR,M,M,M,M,M,M,M,M,M,M,M,M,M,M,M,KMTN 280621Z AUTO 19004KT 10SM CLR 25/18 A3018 RMK AO2
MTN,2019-07-28 02:39,77.00,64.40,65.12,180.00,5.00,0.00,30.18,M,10.00,M,CLR,M,M,M,M,M,M,M,M,M,M,M,M,M,M,M,KMTN 280639Z AUTO 18005KT 10SM CLR 25/18 A3018 RMK AO2
MTN,2019-07-28 03:00,77.00,64.40,65.12,180.00,4.00,0.00,30.18,M,10.00,M,CLR,M,M,M,M,M,M,M,M,M,M,M,M,M,M,M,KMTN 280700Z AUTO 18004KT 10SM CLR 25/18 A3018 RMK AO2
MTN,2019-07-28 03:21,75.20,66.20,73.61,160.00,4.00,0.00,30.18,M,10.00,M,CLR,M,M,M,M,M,M,M,M,M,M,M,M,M,M,M,KMTN 280721Z AUTO 16004KT 10SM CLR 24/19 A3018 RMK AO2
MTN,2019-07-28 03:39,75.20,66.20,73.61,170.00,3.00,0.00,30.18,M,10.00,M,CLR,M,M,M,M,M,M,M,M,M,M,M,M,M,M,M,KMTN 280739Z AUTO 17003KT 10SM CLR 24/19 A3018 RMK AO2
MTN,2019-07-28 04:00,75.20,66.20,73.61,180.00,3.00,0.00,30.17,M,10.00,M,CLR,M,M,M,M,M,M,M,M,M,M,M,M,M,M,M,KMTN 280800Z AUTO 18003KT 10SM CLR 24/19 A3017 RMK AO2
MTN,2019-07-28 04:21,75.20,66.20,73.61,180.00,4.00,0.00,30.17,M,10.00,M,CLR,M,M,M,M,M,M,M,M,M,M,M,M,M,M,M,KMTN 280821Z AUTO 18004KT 10SM CLR 24/19 A3017 RMK AO2
MTN,2019-07-28 04:39,73.40,66.20,78.19,160.00,4.00,0.00,30.18,M,10.00,M,CLR,M,M,M,M,M,M,M,M,M,M,M,M,M,M,M,KMTN 280839Z AUTO 16004KT 10SM CLR 23/19 A3018 RMK AO2
MTN,2019-07-28 05:00,73.40,66.20,78.19,170.00,4.00,0.00,30.18,M,10.00,M,CLR,M,M,M,M,M,M,M,M,M,M,M,M,M,M,M,KMTN 280900Z AUTO 17004KT 10SM CLR 23/19 A3018 RMK AO2
MTN,2019-07-28 05:21,73.40,66.20,78.19,150.00,3.00,0.00,30.18,M,10.00,M,CLR,M,M,M,M,M,M,M,M,M,M,M,M,M,M,M,KMTN 280921Z AUTO 15003KT 10SM CLR 23/19 A3018 RMK AO2
MTN,2019-07-28 05:30,73.40,66.20,78.19,160.00,3.00,0.00,30.17,M,10.00,M,CLR,M,M,M,M,M,M,M,M,M,M,M,M,M,M,M,KMTN 280930Z AUTO 16003KT 10SM CLR 23/19 A3017 RMK AO2
MTN,2019-07-28 05:45,75.20,66.20,73.61,190.00,3.00,0.00,30.18,M,10.00,M,FEW,M,M,M,12000.00,M,M,M,M,M,M,M,M,M,M,M,KMTN 280945Z 19003KT 10SM FEW120 24/19 A3018 RMK FIRST
MTN,2019-07-28 06:45,75.20,66.20,73.61,0.00,0.00,0.00,30.17,M,10.00,M,CLR,M,M,M,M,M,M,M,M,M,M,M,M,M,M,M,KMTN 281045Z 00000KT 10SM SKC 24/19 A3017
MTN,2019-07-28 07:45,77.00,66.20,69.33,230.00,3.00,0.00,30.18,M,10.00,M,FEW,M,M,M,20000.00,M,M,M,M,M,M,M,M,M,M,M,KMTN 281145Z 23003KT 10SM FEW200 25/19 A3018
MTN,2019-07-28 08:55,80.60,68.00,65.54,250.00,5.00,0.00,30.18,M,10.00,M,CLR,M,M,M,M,M,M,M,M,M,M,M,M,M,M,83.29,KMTN 281255Z 25005KT 10SM SKC 27/20 A3018
MTN,2019-07-28 09:55,82.40,68.00,61.81,240.00,4.00,0.00,30.17,M,10.00,M,CLR,M,M,M,M,M,M,M,M,M,M,M,M,M,M,85.38,KMTN 281355Z 24004KT 10SM SKC 28/20 A3017
MTN,2019-07-28 10:55,87.80,68.00,51.98,240.00,5.00,0.00,30.16,M,10.00,M,CLR,M,M,M,M,M,M,M,M,M,M,M,M,M,M,91.43,KMTN 281455Z 24005KT 10SM SKC 31/20 A3016
MTN,2019-07-28 11:45,89.60,66.20,46.14,240.00,9.00,0.00,30.15,M,10.00,M,SCT,M,M,M,6000.00,M,M,M,M,M,M,M,M,M,M,92.27,KMTN 281545Z 24009KT 10SM SCT060 32/19 A3015
MTN,2019-07-28 12:45,89.60,69.80,52.23,250.00,9.00,0.00,30.13,M,10.00,M,SCT,SCT,M,M,6000.00,7500.00,M,M,M,M,M,M,M,M,M,94.85,KMTN 281645Z 25009KT 10SM SCT060 SCT075 32/21 A3013
MTN,2019-07-28 13:10,87.80,73.40,62.47,140.00,9.00,0.00,30.12,M,10.00,M,SCT,BKN,M,M,6000.00,7500.00,M,M,M,M,M,M,M,M,M,95.86,KMTN 281710Z 14009KT 10SM SCT060 BKN075 31/23 A3012
MTN,2019-07-28 13:45,89.60,71.60,55.53,130.00,10.00,0.00,30.11,M,10.00,M,SCT,BKN,M,M,6500.00,7500.00,M,M,M,M,M,M,M,M,M,96.41,KMTN 281745Z 13010KT 10SM SCT065 BKN075 32/22 A3011
MTN,2019-07-28 14:45,89.60,71.60,55.53,130.00,14.00,0.00,30.10,M,10.00,M,BKN,M,M,M,6500.00,M,M,M,M,M,M,M,M,M,M,96.41,KMTN 281845Z 13014KT 10SM BKN065 32/22 A3010
MTN,2019-07-28 15:45,89.60,69.80,52.23,140.00,12.00,0.00,30.08,M,10.00,M,BKN,M,M,M,6500.00,M,M,M,M,M,M,M,M,M,M,94.85,KMTN 281945Z 14012KT 10SM BKN065 32/21 A3008
MTN,2019-07-28 16:45,89.60,69.80,52.23,140.00,9.00,0.00,30.07,M,10.00,M,BKN,M,M,M,7000.00,M,M,M,M,M,M,M,M,M,M,94.85,KMTN 282045Z 14009KT 10SM BKN070 32/21 A3007
MTN,2019-07-28 17:45,89.60,71.60,55.53,150.00,11.00,0.00,30.06,M,10.00,M,SCT,M,M,M,7000.00,M,M,M,M,M,M,M,M,M,M,96.41,KMTN 282145Z 15011KT 10SM SCT070 32/22 A3006
MTN,2019-07-28 18:45,87.80,71.60,58.78,150.00,9.00,0.00,30.05,M,10.00,M,SCT,M,M,M,7000.00,M,M,M,M,M,M,M,M,M,M,94.18,KMTN 282245Z 15009KT 10SM SCT070 31/22 A3005
MTN,2019-07-28 19:45,86.00,71.60,62.25,170.00,6.00,0.00,30.07,M,10.00,M,SCT,M,M,M,7000.00,M,M,M,M,M,M,M,M,M,M,91.92,KMTN 282345Z 17006KT 10SM SCT070 30/22 A3007
MTN,2019-07-28 20:45,84.20,71.60,65.95,180.00,5.00,0.00,30.07,M,10.00,M,SCT,M,M,M,8000.00,M,M,M,M,M,M,M,M,M,M,89.60,KMTN 290045Z 18005KT 10SM SCT080 29/22 A3007
MTN,2019-07-28 21:50,82.40,73.40,74.28,180.00,4.00,0.00,30.08,M,10.00,M,SCT,M,M,M,12000.00,M,M,M,M,M,M,M,M,M,M,88.26,KMTN 290150Z 18004KT 10SM SCT120 28/23 A3008
MTN,2019-07-28 22:21,80.60,75.20,83.66,170.00,5.00,0.00,30.08,M,10.00,M,CLR,M,M,M,M,M,M,M,M,M,M,M,M,M,M,86.17,KMTN 290221Z AUTO 17005KT 10SM CLR 27/24 A3008 RMK AO2
MTN,2019-07-28 22:39,80.60,77.00,88.83,170.00,3.00,0.00,30.08,M,10.00,M,CLR,M,M,M,M,M,M,M,M,M,M,M,M,M,M,87.59,KMTN 290239Z AUTO 17003KT 10SM CLR 27/25 A3008 RMK AO2
MTN,2019-07-28 23:00,80.60,77.00,88.83,0.00,0.00,0.00,30.08,M,10.00,M,CLR,M,M,M,M,M,M,M,M,M,M,M,M,M,M,87.59,KMTN 290300Z AUTO 00000KT 10SM CLR 27/25 A3008 RMK AO2
MTN,2019-07-28 23:18,80.60,77.00,88.83,180.00,5.00,0.00,30.07,M,10.00,M,CLR,M,M,M,M,M,M,M,M,M,M,M,M,M,M,87.59,KMTN 290318Z AUTO 18005KT 10SM CLR 27/25 A3007 RMK AO2
MTN,2019-07-28 23:39,80.60,77.00,88.83,210.00,3.00,0.00,30.07,M,10.00,M,CLR,M,M,M,M,M,M,M,M,M,M,M,M,M,M,87.59,KMTN 290339Z AUTO 21003KT 10SM CLR 27/25 A3007 RMK AO2
MTN,2019-07-29 00:00,80.60,75.20,83.66,0.00,0.00,0.00,30.07,M,10.00,M,SCT,M,M,M,7000.00,M,M,M,M,M,M,M,M,M,M,86.17,KMTN 290400Z AUTO 00000KT 10SM SCT070 27/24 A3007 RMK AO2
MTN,2019-07-29 00:21,80.60,73.40,78.76,190.00,4.00,0.00,30.07,M,10.00,M,CLR,M,M,M,M,M,M,M,M,M,M,M,M,M,M,85.32,KMTN 290421Z AUTO 19004KT 10SM CLR 27/23 A3007 RMK AO2
MTN,2019-07-29 00:39,80.60,73.40,78.76,190.00,4.00,0.00,30.07,M,10.00,M,CLR,M,M,M,M,M,M,M,M,M,M,M,M,M,M,85.32,KMTN 290439Z AUTO 19004KT 10SM CLR 27/23 A3007 RMK AO2
MTN,2019-07-29 01:00,80.60,73.40,78.76,190.00,3.00,0.00,30.07,M,10.00,M,CLR,M,M,M,M,M,M,M,M,M,M,M,M,M,M,85.32,KMTN 290500Z AUTO 19003KT 10SM CLR 27/23 A3007 RMK AO2
MTN,2019-07-29 01:21,80.60,73.40,78.76,0.00,0.00,0.00,30.07,M,10.00,M,CLR,M,M,M,M,M,M,M,M,M,M,M,M,M,M,85.32,KMTN 290521Z AUTO 00000KT 10SM CLR 27/23 A3007 RMK AO2
MTN,2019-07-29 01:39,80.60,73.40,78.76,0.00,0.00,0.00,30.07,M,10.00,M,CLR,M,M,M,M,M,M,M,M,M,M,M,M,M,M,85.32,KMTN 290539Z AUTO 00000KT 10SM CLR 27/23 A3007 RMK AO2
MTN,2019-07-29 02:00,78.80,73.40,83.55,190.00,3.00,0.00,30.06,M,10.00,M,SCT,M,M,M,7500.00,M,M,M,M,M,M,M,M,M,M,M,KMTN 290600Z AUTO 19003KT 10SM SCT075 26/23 A3006 RMK AO2
MTN,2019-07-29 02:21,78.80,73.40,83.55,0.00,0.00,0.00,30.06,M,10.00,M,CLR,M,M,M,M,M,M,M,M,M,M,M,M,M,M,M,KMTN 290621Z AUTO 00000KT 10SM CLR 26/23 A3006 RMK AO2
MTN,2019-07-29 02:39,78.80,71.60,78.62,0.00,0.00,0.00,30.06,M,10.00,M,CLR,M,M,M,M,M,M,M,M,M,M,M,M,M,M,M,KMTN 290639Z AUTO 00000KT 10SM CLR 26/22 A3006 RMK AO2
MTN,2019-07-29 03:00,77.00,71.60,83.44,0.00,0.00,0.00,30.05,M,10.00,M,CLR,M,M,M,M,M,M,M,M,M,M,M,M,M,M,M,KMTN 290700Z AUTO 00000KT 10SM CLR 25/22 A3005 RMK AO2
MTN,2019-07-29 03:21,77.00,71.60,83.44,0.00,0.00,0.00,30.05,M,10.00,M,CLR,M,M,M,M,M,M,M,M,M,M,M,M,M,M,M,KMTN 290721Z AUTO 00000KT 10SM CLR 25/22 A3005 RMK AO2
MTN,2019-07-29 03:39,77.00,73.40,88.67,0.00,0.00,0.00,30.05,M,10.00,M,CLR,M,M,M,M,M,M,M,M,M,M,M,M,M,M,M,KMTN 290739Z AUTO 00000KT 10SM CLR 25/23 A3005 RMK AO2
MTN,2019-07-29 04:00,77.00,71.60,83.44,170.00,3.00,0.00,30.05,M,10.00,M,CLR,M,M,M,M,M,M,M,M,M,M,M,M,M,M,M,KMTN 290800Z AUTO 17003KT 10SM CLR 25/22 A3005 RMK AO2
MTN,2019-07-29 04:21,77.00,71.60,83.44,0.00,0.00,0.00,30.05,M,10.00,M,CLR,M,M,M,M,M,M,M,M,M,M,M,M,M,M,M,KMTN 290821Z AUTO 00000KT 10SM CLR 25/22 A3005 RMK AO2
MTN,2019-07-29 04:39,77.00,71.60,83.44,190.00,3.00,0.00,30.05,M,10.00,M,CLR,M,M,M,M,M,M,M,M,M,M,M,M,M,M,M,KMTN 290839Z AUTO 19003KT 10SM CLR 25/22 A3005 RMK AO2
MTN,2019-07-29 05:00,77.00,71.60,83.44,180.00,3.00,0.00,30.05,M,10.00,M,CLR,M,M,M,M,M,M,M,M,M,M,M,M,M,M,M,KMTN 290900Z AUTO 18003KT 10SM CLR 25/22 A3005 RMK AO2
MTN,2019-07-29 05:21,77.00,71.60,83.44,0.00,0.00,0.00,30.05,M,10.00,M,CLR,M,M,M,M,M,M,M,M,M,M,M,M,M,M,M,KMTN 290921Z AUTO 00000KT 10SM CLR 25/22 A3005 RMK AO2
MTN,2019-07-29 05:30,77.00,71.60,83.44,0.00,0.00,0.00,30.05,M,10.00,M,CLR,M,M,M,M,M,M,M,M,M,M,M,M,M,M,M,KMTN 290930Z AUTO 00000KT 10SM CLR 25/22 A3005 RMK AO2
MTN,2019-07-29 05:45,77.00,71.60,83.44,0.00,0.00,0.00,30.05,M,10.00,M,CLR,M,M,M,M,M,M,M,M,M,M,M,M,M,M,M,KMTN 290945Z 00000KT 10SM SKC 25/22 A3005
MTN,2019-07-29 06:45,78.80,71.60,78.62,0.00,0.00,0.00,30.06,M,10.00,M,CLR,M,M,M,M,M,M,M,M,M,M,M,M,M,M,M,KMTN 291045Z 00000KT 10SM SKC 26/22 A3006
MTN,2019-07-29 07:50,80.60,73.40,78.76,0.00,0.00,0.00,30.06,M,10.00,M,CLR,M,M,M,M,M,M,M,M,M,M,M,M,M,M,85.32,KMTN 291150Z 00000KT 10SM SKC 27/23 A3006
MTN,2019-07-29 08:50,82.40,71.60,69.90,0.00,0.00,0.00,30.06,M,10.00,M,CLR,M,M,M,M,M,M,M,M,M,M,M,M,M,M,87.18,KMTN 291250Z 00000KT 10SM SKC 28/22 A3006
MTN,2019-07-29 09:45,86.00,71.60,62.25,310.00,3.00,0.00,30.06,M,10.00,M,CLR,M,M,M,M,M,M,M,M,M,M,M,M,M,M,91.92,KMTN 291345Z 31003KT 10SM SKC 30/22 A3006
MTN,2019-07-29 10:50,89.60,73.40,59.01,150.00,5.00,0.00,30.05,M,10.00,M,FEW,M,M,M,7000.00,M,M,M,M,M,M,M,M,M,M,98.20,KMTN 291450Z 15005KT 10SM FEW070 32/23 A3005
MTN,2019-07-29 11:45,89.60,75.20,62.68,110.00,6.00,0.00,30.05,M,10.00,M,FEW,M,M,M,7000.00,M,M,M,M,M,M,M,M,M,M,100.23,KMTN 291545Z 11006KT 10SM FEW070 32/24 A3005
MTN,2019-07-29 12:45,89.60,73.40,59.01,130.00,6.00,0.00,30.04,M,10.00,M,SCT,M,M,M,7000.00,M,M,M,M,M,M,M,M,M,M,98.20,KMTN 291645Z 13006KT 10SM SCT070 32/23 A3004
MTN,2019-07-29 13:50,91.40,73.40,55.77,120.00,7.00,0.00,30.02,M,10.00,M,SCT,M,M,M,6500.00,M,M,M,M,M,M,M,M,M,M,100.52,KMTN 291750Z 12007KT 10SM SCT065 33/23 A3002
MTN,2019-07-29 14:45,89.60,73.40,59.01,140.00,10.00,0.00,30.01,M,10.00,M,BKN,BKN,M,M,6500.00,7000.00,M,M,M,M,M,M,M,M,M,98.20,KMTN 291845Z 14010KT 10SM BKN065 BKN070 32/23 A3001
MTN,2019-07-29 15:45,91.40,73.40,55.77,150.00,12.00,0.00,29.99,M,10.00,M,SCT,M,M,M,8500.00,M,M,M,M,M,M,M,M,M,M,100.52,KMTN 291945Z 15012KT 10SM SCT085 33/23 A2999
MTN,2019-07-29 16:45,91.40,73.40,55.77,150.00,11.00,0.00,29.99,M,10.00,M,SCT,M,M,M,12000.00,M,M,M,M,M,M,M,M,M,M,100.52,KMTN 292045Z 15011KT 10SM SCT120 33/23 A2999
MTN,2019-07-29 17:45,89.60,71.60,55.53,160.00,11.00,0.00,29.97,M,10.00,M,SCT,M,M,M,6500.00,M,M,M,M,M,M,M,M,M,M,96.41,KMTN 292145Z 16011KT 10SM SCT065 32/22 A2997
MTN,2019-07-29 17:54,87.80,73.40,62.47,150.00,8.00,0.00,29.97,M,10.00,M,SCT,M,M,M,6500.00,M,M,M,TS,M,M,M,M,M,M,95.86,KMTN 292154Z 15008KT 10SM TS SCT065 31/23 A2997 RMK TSB53 OCNL LTGCC NW TS NW MOV NE
MTN,2019-07-29 18:54,89.60,71.60,55.53,290.00,8.00,0.00,29.99,M,10.00,15.00,BKN,M,M,M,7500.00,M,M,M,M,M,M,M,M,M,M,96.41,KMTN 292254Z 29008G15KT 10SM BKN075 32/22 A2999 RMK OCNL LTCCC W-N TS W-N MOV NE
MTN,2019-07-29 19:15,82.40,71.60,69.90,330.00,4.00,0.00,29.99,M,10.00,M,SCT,M,M,M,8500.00,M,M,M,M,M,M,M,M,M,M,87.18,KMTN 292315Z 33004KT 10SM SCT085 28/22 A2999 RMK TSE14 TS MOVD N
MTN,2019-07-29 19:45,82.40,71.60,69.90,0.00,0.00,0.00,29.99,M,10.00,M,SCT,SCT,SCT,M,6500.00,9000.00,11000.00,M,M,M,M,M,M,M,M,87.18,KMTN 292345Z 00000KT 10SM SCT065 SCT090 SCT110 28/22 A2999
MTN,2019-07-29 20:45,80.60,69.80,69.71,0.00,0.00,0.00,29.99,M,10.00,M,SCT,M,M,M,18000.00,M,M,M,M,M,M,M,M,M,M,83.90,KMTN 300045Z 00000KT 10SM SCT180 27/21 A2999
MTN,2019-07-29 21:45,80.60,75.20,83.66,0.00,0.00,0.00,30.00,M,10.00,M,SCT,SCT,M,M,16000.00,20000.00,M,M,M,M,M,M,M,M,M,86.17,KMTN 300145Z 00000KT 10SM SCT160 SCT200 27/24 A3000 RMK LAST
MTN,2019-07-29 22:21,78.80,73.40,83.55,0.00,0.00,0.00,30.01,M,10.00,M,CLR,M,M,M,M,M,M,M,M,M,M,M,M,M,M,M,KMTN 300221Z AUTO 00000KT 10SM CLR 26/23 A3001 RMK AO2
MTN,2019-07-29 22:39,78.80,73.40,83.55,0.00,0.00,0.00,30.00,M,10.00,M,CLR,M,M,M,M,M,M,M,M,M,M,M,M,M,M,M,KMTN 300239Z AUTO 00000KT 10SM CLR 26/23 A3000 RMK AO2
MTN,2019-07-29 23:00,78.80,73.40,83.55,0.00,0.00,0.00,30.00,M,10.00,M,CLR,M,M,M,M,M,M,M,M,M,M,M,M,M,M,M,KMTN 300300Z AUTO 00000KT 10SM CLR 26/23 A3000 RMK AO2
MTN,2019-07-29 23:21,78.80,75.20,88.75,0.00,0.00,0.00,30.01,M,10.00,M,CLR,M,M,M,M,M,M,M,M,M,M,M,M,M,M,M,KMTN 300321Z AUTO 00000KT 10SM CLR 26/24 A3001 RMK AO2
MTN,2019-07-29 23:39,78.80,77.00,94.23,0.00,0.00,0.00,30.00,M,10.00,M,CLR,M,M,M,M,M,M,M,M,M,M,M,M,M,M,M,KMTN 300339Z AUTO 00000KT 10SM CLR 26/25 A3000 RMK AO2
MTN,2019-07-30 00:00,78.80,77.00,94.23,0.00,0.00,0.00,30.00,M,10.00,M,CLR,M,M,M,M,M,M,M,M,M,M,M,M,M,M,M,KMTN 300400Z AUTO 00000KT 10SM CLR 26/25 A3000 RMK AO2
MTN,2019-07-30 00:21,78.80,75.20,88.75,0.00,0.00,0.00,30.00,M,10.00,M,CLR,M,M,M,M,M,M,M,M,M,M,M,M,M,M,M,KMTN 300421Z AUTO 00000KT 10SM CLR 26/24 A3000 RMK AO2
MTN,2019-07-30 00:39,80.60,77.00,88.83,170.00,3.00,0.00,30.00,M,10.00,M,CLR,M,M,M,M,M,M,M,M,M,M,M,M,M,M,87.59,KMTN 300439Z AUTO 17003KT 10SM CLR 27/25 A3000 RMK AO2
MTN,2019-07-30 01:00,80.60,73.40,78.76,170.00,4.00,0.00,30.00,M,10.00,M,CLR,M,M,M,M,M,M,M,M,M,M,M,M,M,M,85.32,KMTN 300500Z AUTO 17004KT 10SM CLR 27/23 A3000 RMK AO2
MTN,2019-07-30 01:21,80.60,73.40,78.76,180.00,4.00,0.00,30.00,M,10.00,M,CLR,M,M,M,M,M,M,M,M,M,M,M,M,M,M,85.32,KMTN 300521Z AUTO 18004KT 10SM CLR 27/23 A3000 RMK AO2
MTN,2019-07-30 01:39,80.60,73.40,78.76,210.00,3.00,0.00,30.00,M,10.00,M,CLR,M,M,M,M,M,M,M,M,M,M,M,M,M,M,85.32,KMTN 300539Z AUTO 21003KT 10SM CLR 27/23 A3000 RMK AO2
MTN,2019-07-30 02:00,80.60,73.40,78.76,0.00,0.00,0.00,30.00,M,10.00,M,CLR,M,M,M,M,M,M,M,M,M,M,M,M,M,M,85.32,KMTN 300600Z AUTO 00000KT 10SM CLR 27/23 A3000 RMK AO2
MTN,2019-07-30 02:21,80.60,73.40,78.76,170.00,3.00,0.00,29.99,M,10.00,M,CLR,M,M,M,M,M,M,M,M,M,M,M,M,M,M,85.32,KMTN 300621Z AUTO 17003KT 10SM CLR 27/23 A2999 RMK AO2
MTN,2019-07-30 02:39,78.80,73.40,83.55,0.00,0.00,0.00,30.00,M,10.00,M,CLR,M,M,M,M,M,M,M,M,M,M,M,M,M,M,M,KMTN 300639Z AUTO 00000KT 10SM CLR 26/23 A3000 RMK AO2
MTN,2019-07-30 03:00,78.80,73.40,83.55,180.00,4.00,0.00,30.00,M,10.00,M,CLR,M,M,M,M,M,M,M,M,M,M,M,M,M,M,M,KMTN 300700Z AUTO 18004KT 10SM CLR 26/23 A3000 RMK AO2
MTN,2019-07-30 03:21,80.60,71.60,74.11,180.00,4.00,0.00,29.99,M,10.00,M,CLR,M,M,M,M,M,M,M,M,M,M,M,M,M,M,84.57,KMTN 300721Z AUTO 18004KT 10SM CLR 27/22 A2999 RMK AO2
MTN,2019-07-30 03:39,78.80,73.40,83.55,160.00,4.00,0.00,29.99,M,10.00,M,CLR,M,M,M,M,M,M,M,M,M,M,M,M,M,M,M,KMTN 300739Z AUTO 16004KT 10SM CLR 26/23 A2999 RMK AO2
MTN,2019-07-30 04:00,78.80,71.60,78.62,160.00,3.00,0.00,29.99,M,10.00,M,CLR,M,M,M,M,M,M,M,M,M,M,M,M,M,M,M,KMTN 300800Z AUTO 16003KT 10SM CLR 26/22 A2999 RMK AO2
MTN,2019-07-30 04:21,78.80,71.60,78.62,160.00,3.00,0.00,29.99,M,10.00,M,CLR,M,M,M,M,M,M,M,M,M,M,M,M,M,M,M,KMTN 300821Z AUTO 16003KT 10SM CLR 26/22 A2999 RMK AO2
MTN,2019-07-30 04:39,77.00,71.60,83.44,150.00,3.00,0.00,29.99,M,10.00,M,CLR,M,M,M,M,M,M,M,M,M,M,M,M,M,M,M,KMTN 300839Z AUTO 15003KT 10SM CLR 25/22 A2999 RMK AO2
MTN,2019-07-30 05:00,77.00,71.60,83.44,0.00,0.00,0.00,30.00,M,10.00,M,CLR,M,M,M,M,M,M,M,M,M,M,M,M,M,M,M,KMTN 300900Z AUTO 00000KT 10SM CLR 25/22 A3000 RMK AO2
MTN,2019-07-30 05:21,77.00,71.60,83.44,160.00,4.00,0.00,30.00,M,10.00,M,CLR,M,M,M,M,M,M,M,M,M,M,M,M,M,M,M,KMTN 300921Z AUTO 16004KT 10SM CLR 25/22 A3000 RMK AO2
MTN,2019-07-30 05:30,77.00,71.60,83.44,150.00,3.00,0.00,30.00,M,10.00,M,CLR,M,M,M,M,M,M,M,M,M,M,M,M,M,M,M,KMTN 300930Z AUTO 15003KT 10SM CLR 25/22 A3000 RMK AO2
MTN,2019-07-30 05:45,78.80,73.40,83.55,0.00,0.00,0.00,30.00,M,10.00,M,CLR,M,M,M,M,M,M,M,M,M,M,M,M,M,M,M,KMTN 300945Z 00000KT 10SM SKC 26/23 A3000 RMK FIRST
MTN,2019-07-30 06:45,78.80,73.40,83.55,0.00,0.00,0.00,30.01,M,10.00,M,CLR,M,M,M,M,M,M,M,M,M,M,M,M,M,M,M,KMTN 301045Z 00000KT 10SM SKC 26/23 A3001
MTN,2019-07-30 07:45,80.60,73.40,78.76,200.00,4.00,0.00,30.03,M,10.00,M,CLR,M,M,M,M,M,M,M,M,M,M,M,M,M,M,85.32,KMTN 301145Z 20004KT 10SM SKC 27/23 A3003
MTN,2019-07-30 08:45,82.40,73.40,74.28,0.00,0.00,0.00,30.03,M,10.00,M,CLR,M,M,M,M,M,M,M,M,M,M,M,M,M,M,88.26,KMTN 301245Z 00000KT 10SM SKC 28/23 A3003
MTN,2019-07-30 09:45,84.20,73.40,70.08,170.00,4.00,0.00,30.03,M,5.00,M,CLR,M,M,M,M,M,M,M,HZ,M,M,M,M,M,M,90.94,KMTN 301345Z 17004KT 5SM HZ SKC 29/23 A3003
MTN,2019-07-30 10:45,86.00,75.20,70.27,120.00,6.00,0.00,30.03,M,5.00,M,CLR,M,M,M,M,M,M,M,HZ,M,M,M,M,M,M,95.19,KMTN 301445Z 12006KT 5SM HZ SKC 30/24 A3003
MTN,2019-07-30 11:45,87.80,75.20,66.35,130.00,7.00,0.00,30.03,M,6.00,M,FEW,M,M,M,6000.00,M,M,M,HZ,M,M,M,M,M,M,97.76,KMTN 301545Z 13007KT 6SM HZ FEW060 31/24 A3003
MTN,2019-07-30 12:45,89.60,75.20,62.68,130.00,8.00,0.00,30.02,M,6.00,M,SCT,M,M,M,6000.00,M,M,M,HZ,M,M,M,M,M,M,100.23,KMTN 301645Z 13008KT 6SM HZ SCT060 32/24 A3002
MTN,2019-07-30 13:45,91.40,77.00,62.90,130.00,9.00,0.00,30.00,M,7.00,M,SCT,M,M,M,6000.00,M,M,M,M,M,M,M,M,M,M,105.06,KMTN 301745Z 13009KT 7SM SCT060 33/25 A3000
MTN,2019-07-30 14:45,93.20,73.40,52.73,140.00,17.00,0.00,29.97,M,10.00,M,SCT,SCT,SCT,M,6000.00,16000.00,25000.00,M,M,M,M,M,M,M,M,102.82,KMTN 301845Z 14017KT 10SM SCT060 SCT160 SCT250 34/23 A2997
MTN,2019-07-30 15:45,93.20,73.40,52.73,140.00,16.00,0.00,29.96,M,10.00,21.00,SCT,SCT,SCT,M,6000.00,16000.00,25000.00,M,M,M,M,M,M,M,M,102.82,KMTN 301945Z 14016G21KT 10SM SCT060 SCT160 SCT250 34/23 A2996
MTN,2019-07-30 16:54,93.20,71.60,49.62,150.00,16.00,0.00,29.95,M,10.00,M,SCT,SCT,M,M,7000.00,25000.00,M,M,M,M,M,M,M,M,M,100.88,KMTN 302054Z 15016KT 10SM SCT070 SCT250 34/22 A2995
MTN,2019-07-30 17:45,91.40,71.60,52.48,160.00,14.00,0.00,29.96,M,10.00,M,SCT,SCT,M,M,6500.00,25000.00,M,M,M,M,M,M,M,M,M,98.64,KMTN 302145Z 16014KT 10SM SCT065 SCT250 33/22 A2996 RMK TCU DSNT NW-N
MTN,2019-07-30 18:45,89.60,71.60,55.53,150.00,12.00,0.00,29.96,M,10.00,M,FEW,FEW,SCT,M,7000.00,15000.00,25000.00,M,M,M,M,M,M,M,M,96.41,KMTN 302245Z 15012KT 10SM FEW070 FEW150 SCT250 32/22 A2996 RMK TCU DSNT NW-N
MTN,2019-07-30 19:45,87.80,71.60,58.78,170.00,10.00,0.00,29.97,M,10.00,16.00,FEW,SCT,BKN,M,7000.00,15000.00,25000.00,M,M,M,M,M,M,M,M,94.18,KMTN 302345Z 17010G16KT 10SM FEW070 SCT150 BKN250 31/22 A2997 RMK TCU DSNT NW-N
MTN,2019-07-30 20:45,86.00,73.40,66.15,160.00,10.00,0.00,29.99,M,10.00,M,FEW,SCT,BKN,M,12000.00,16000.00,25000.00,M,M,M,M,M,M,M,M,93.45,KMTN 310045Z 16010KT 10SM FEW120 SCT160 BKN250 30/23 A2999
MTN,2019-07-30 21:45,84.20,71.60,65.95,190.00,6.00,0.00,30.01,M,10.00,M,SCT,BKN,M,M,15000.00,25000.00,M,M,M,M,M,M,M,M,M,89.60,KMTN 310145Z 19006KT 10SM SCT150 BKN250 29/22 A3001 RMK LAST
MTN,2019-07-30 22:21,82.40,71.60,69.90,160.00,7.00,0.00,30.01,M,10.00,M,CLR,M,M,M,M,M,M,M,M,M,M,M,M,M,M,87.18,KMTN 310221Z AUTO 16007KT 10SM CLR 28/22 A3001 RMK AO2
MTN,2019-07-30 22:39,82.40,71.60,69.90,170.00,6.00,0.00,30.01,M,10.00,M,CLR,M,M,M,M,M,M,M,M,M,M,M,M,M,M,87.18,KMTN 310239Z AUTO 17006KT 10SM CLR 28/22 A3001 RMK AO2
MTN,2019-07-30 23:00,82.40,73.40,74.28,160.00,6.00,0.00,30.01,M,10.00,M,CLR,M,M,M,M,M,M,M,M,M,M,M,M,M,M,88.26,KMTN 310300Z AUTO 16006KT 10SM CLR 28/23 A3001 RMK AO2
MTN,2019-07-30 23:21,80.60,73.40,78.76,150.00,4.00,0.00,30.01,M,10.00,M,CLR,M,M,M,M,M,M,M,M,M,M,M,M,M,M,85.32,KMTN 310321Z AUTO 15004KT 10SM CLR 27/23 A3001 RMK AO2
MTN,2019-07-30 23:39,80.60,75.20,83.66,160.00,5.00,0.00,30.01,M,10.00,M,CLR,M,M,M,M,M,M,M,M,M,M,M,M,M,M,86.17,KMTN 310339Z AUTO 16005KT 10SM CLR 27/24 A3001 RMK AO2
MTN,2019-07-31 00:00,80.60,73.40,78.76,170.00,4.00,0.00,30.01,M,10.00,M,CLR,M,M,M,M,M,M,M,M,M,M,M,M,M,M,85.32,KMTN 310400Z AUTO 17004KT 10SM CLR 27/23 A3001 RMK AO2
MTN,2019-07-31 00:21,80.60,73.40,78.76,160.00,4.00,0.00,30.01,M,10.00,M,CLR,M,M,M,M,M,M,M,M,M,M,M,M,M,M,85.32,KMTN 310421Z AUTO 16004KT 10SM CLR 27/23 A3001 RMK AO2
MTN,2019-07-31 00:39,80.60,73.40,78.76,170.00,5.00,0.00,30.01,M,10.00,M,CLR,M,M,M,M,M,M,M,M,M,M,M,M,M,M,85.32,KMTN 310439Z AUTO 17005KT 10SM CLR 27/23 A3001 RMK AO2
MTN,2019-07-31 01:00,80.60,71.60,74.11,190.00,5.00,0.00,30.01,M,10.00,M,CLR,M,M,M,M,M,M,M,M,M,M,M,M,M,M,84.57,KMTN 310500Z AUTO 19005KT 10SM CLR 27/22 A3001 RMK AO2
MTN,2019-07-31 01:21,78.80,73.40,83.55,170.00,3.00,0.00,30.01,M,10.00,M,CLR,M,M,M,M,M,M,M,M,M,M,M,M,M,M,M,KMTN 310521Z AUTO 17003KT 10SM CLR 26/23 A3001 RMK AO2
MTN,2019-07-31 01:39,80.60,73.40,78.76,220.00,3.00,0.00,30.00,M,10.00,M,CLR,M,M,M,M,M,M,M,M,M,M,M,M,M,M,85.32,KMTN 310539Z AUTO 22003KT 10SM CLR 27/23 A3000 RMK AO2
MTN,2019-07-31 02:00,78.80,71.60,78.62,240.00,5.00,0.00,30.01,M,10.00,M,CLR,M,M,M,M,M,M,M,M,M,M,M,M,M,M,M,KMTN 310600Z AUTO 24005KT 10SM CLR 26/22 A3001 RMK AO2
MTN,2019-07-31 02:21,78.80,71.60,78.62,230.00,3.00,0.00,30.01,M,10.00,M,CLR,M,M,M,M,M,M,M,M,M,M,M,M,M,M,M,KMTN 310621Z AUTO 23003KT 10SM CLR 26/22 A3001 RMK AO2
MTN,2019-07-31 02:39,77.00,69.80,78.48,260.00,4.00,0.00,30.00,M,10.00,M,CLR,M,M,M,M,M,M,M,M,M,M,M,M,M,M,M,KMTN 310639Z AUTO 26004KT 10SM CLR 25/21 A3000 RMK AO2
MTN,2019-07-31 03:00,77.00,69.80,78.48,0.00,0.00,0.00,30.00,M,10.00,M,CLR,M,M,M,M,M,M,M,M,M,M,M,M,M,M,M,KMTN 310700Z AUTO 00000KT 10SM CLR 25/21 A3000 RMK AO2
MTN,2019-07-31 03:21,77.00,69.80,78.48,240.00,3.00,0.00,30.01,M,10.00,M,CLR,M,M,M,M,M,M,M,M,M,M,M,M,M,M,M,KMTN 310721Z AUTO 24003KT 10SM CLR 25/21 A3001 RMK AO2
MTN,2019-07-31 03:39,75.20,69.80,83.32,0.00,0.00,0.00,30.01,M,10.00,M,CLR,M,M,M,M,M,M,M,M,M,M,M,M,M,M,M,KMTN 310739Z AUTO 00000KT 10SM CLR 24/21 A3001 RMK AO2
MTN,2019-07-31 04:00,77.00,69.80,78.48,0.00,0.00,0.00,30.01,M,10.00,M,CLR,M,M,M,M,M,M,M,M,M,M,M,M,M,M,M,KMTN 310800Z AUTO 00000KT 10SM CLR 25/21 A3001 RMK AO2
MTN,2019-07-31 04:21,77.00,69.80,78.48,0.00,0.00,0.00,30.00,M,10.00,M,CLR,M,M,M,M,M,M,M,M,M,M,M,M,M,M,M,KMTN 310821Z AUTO 00000KT 10SM CLR 25/21 A3000 RMK AO2
MTN,2019-07-31 04:39,75.20,69.80,83.32,270.00,3.00,0.00,30.01,M,10.00,M,CLR,M,M,M,M,M,M,M,M,M,M,M,M,M,M,M,KMTN 310839Z AUTO 27003KT 10SM CLR 24/21 A3001 RMK AO2
MTN,2019-07-31 05:00,73.40,69.80,88.51,0.00,0.00,0.00,30.01,M,10.00,M,CLR,M,M,M,M,M,M,M,M,M,M,M,M,M,M,M,KMTN 310900Z AUTO 00000KT 10SM CLR 23/21 A3001 RMK AO2
MTN,2019-07-31 05:21,73.40,69.80,88.51,300.00,4.00,0.00,30.01,M,10.00,M,CLR,M,M,M,M,M,M,M,M,M,M,M,M,M,M,M,KMTN 310921Z AUTO 30004KT 10SM CLR 23/21 A3001 RMK AO2
MTN,2019-07-31 05:30,73.40,69.80,88.51,300.00,4.00,0.00,30.02,M,10.00,M,CLR,M,M,M,M,M,M,M,M,M,M,M,M,M,M,M,KMTN 310930Z AUTO 30004KT 10SM CLR 23/21 A3002 RMK AO2
MTN,2019-07-31 05:45,75.20,69.80,83.32,300.00,4.00,0.00,30.02,M,10.00,M,BKN,BKN,M,M,15000.00,25000.00,M,M,M,M,M,M,M,M,M,M,KMTN 310945Z 30004KT 10SM BKN150 BKN250 24/21 A3002
MTN,2019-07-31 06:45,75.20,71.60,88.59,0.00,0.00,0.00,30.03,M,10.00,M,BKN,BKN,M,M,15000.00,25000.00,M,M,M,M,M,M,M,M,M,M,KMTN 311045Z 00000KT 10SM BKN150 BKN250 24/22 A3003
MTN,2019-07-31 07:54,77.00,71.60,83.44,0.00,0.00,0.00,30.04,M,10.00,M,BKN,M,M,M,20000.00,M,M,M,M,M,M,M,M,M,M,M,KMTN 311154Z 00000KT 10SM BKN200 25/22 A3004
MTN,2019-07-31 08:45,78.80,69.80,73.95,0.00,0.00,0.00,30.05,M,10.00,M,BKN,BKN,M,M,15000.00,20000.00,M,M,M,M,M,M,M,M,M,M,KMTN 311245Z 00000KT 10SM BKN150 BKN200 26/21 A3005
MTN,2019-07-31 09:45,80.60,71.60,74.11,0.00,0.00,0.00,30.05,M,10.00,M,BKN,M,M,M,25000.00,M,M,M,M,M,M,M,M,M,M,84.57,KMTN 311345Z 00000KT 10SM BKN250 27/22 A3005
MTN,2019-07-31 10:45,84.20,69.80,62.03,0.00,0.00,0.00,30.06,M,10.00,M,SCT,BKN,M,M,11000.00,25000.00,M,M,M,M,M,M,M,M,M,88.43,KMTN 311445Z 00000KT 10SM SCT110 BKN250 29/21 A3006
MTN,2019-07-31 11:45,84.20,71.60,65.95,170.00,4.00,0.00,30.06,M,10.00,M,SCT,BKN,M,M,15000.00,19000.00,M,M,M,M,M,M,M,M,M,89.60,KMTN 311545Z 17004KT 10SM SCT150 BKN190 29/22 A3006
MTN,2019-07-31 12:45,84.20,73.40,70.08,150.00,5.00,0.00,30.06,M,10.00,M,BKN,M,M,M,12000.00,M,M,M,M,M,M,M,M,M,M,90.94,KMTN 311645Z 15005KT 10SM BKN120 29/23 A3006
MTN,2019-07-31 13:45,84.20,71.60,65.95,130.00,3.00,0.00,30.05,M,10.00,M,OVC,M,M,M,12000.00,M,M,M,M,M,M,M,M,M,M,89.60,KMTN 311745Z 13003KT 10SM OVC120 29/22 A3005
MTN,2019-07-31 14:45,86.00,73.40,66.15,240.00,3.00,0.00,30.03,M,10.00,M,FEW,BKN,M,M,7000.00,12000.00,M,M,M,M,M,M,M,M,M,93.45,KMTN 311845Z 24003KT 10SM FEW070 BKN120 30/23 A3003
MTN,2019-07-31 15:45,87.80,73.40,62.47,300.00,4.00,0.00,30.01,M,10.00,M,SCT,SCT,BKN,M,4100.00,4900.00,12000.00,M,M,M,M,M,M,M,M,95.86,KMTN 311945Z 30004KT 10SM SCT041 SCT049 BKN120 31/23 A3001
MTN,2019-07-31 16:45,87.80,68.00,51.98,290.00,10.00,0.00,30.00,M,10.00,M,SCT,BKN,BKN,M,12000.00,15000.00,25000.00,M,M,M,M,M,M,M,M,91.43,KMTN 312045Z 29010KT 10SM SCT120 BKN150 BKN250 31/20 A3000
MTN,2019-07-31 17:45,87.80,69.80,55.29,310.00,7.00,0.00,30.00,M,10.00,M,SCT,M,M,M,10000.00,M,M,M,M,M,M,M,M,M,M,92.71,KMTN 312145Z 31007KT 10SM SCT100 31/21 A3000
MTN,2019-07-31 18:45,84.20,69.80,62.03,310.00,8.00,0.00,30.02,M,10.00,M,BKN,M,M,M,11000.00,M,M,M,M,M,M,M,M,M,M,88.43,KMTN 312245Z 31008KT 10SM BKN110 29/21 A3002
MTN,2019-07-31 19:45,82.40,69.80,65.74,0.00,0.00,0.00,30.03,M,10.00,M,BKN,M,M,M,10000.00,M,M,M,M,M,M,M,M,M,M,86.22,KMTN 312345Z 00000KT 10SM BKN100 28/21 A3003 RMK LTG DSNT S AND SE
MTN,2019-07-31 20:45,80.60,71.60,74.11,270.00,3.00,0.00,30.03,M,10.00,M,SCT,M,M,M,9000.00,M,M,M,M,M,M,M,M,M,M,84.57,KMTN 010045Z 27003KT 10SM SCT090 27/22 A3003
MTN,2019-07-31 21:45,78.80,71.60,78.62,0.00,0.00,0.00,30.04,M,10.00,M,CLR,M,M,M,M,M,M,M,M,M,M,M,M,M,M,M,KMTN 010145Z 00000KT 10SM SKC 26/22 A3004
MTN,2019-07-31 22:18,77.00,71.60,83.44,0.00,0.00,0.00,30.05,M,10.00,M,SCT,M,M,M,8500.00,M,M,M,M,M,M,M,M,M,M,M,KMTN 010218Z AUTO 00000KT 10SM SCT085 25/22 A3005 RMK AO2
MTN,2019-07-31 22:39,78.80,71.60,78.62,0.00,0.00,0.00,30.05,M,10.00,M,CLR,M,M,M,M,M,M,M,M,M,M,M,M,M,M,M,KMTN 010239Z AUTO 00000KT 10SM CLR 26/22 A3005 RMK AO2
MTN,2019-07-31 23:00,77.00,71.60,83.44,0.00,0.00,0.00,30.05,M,10.00,M,CLR,M,M,M,M,M,M,M,M,M,M,M,M,M,M,M,KMTN 010300Z AUTO 00000KT 10SM CLR 25/22 A3005 RMK AO2
MTN,2019-07-31 23:21,77.00,71.60,83.44,160.00,4.00,0.00,30.05,M,10.00,M,CLR,M,M,M,M,M,M,M,M,M,M,M,M,M,M,M,KMTN 010321Z AUTO 16004KT 10SM CLR 25/22 A3005 RMK AO2
MTN,2019-07-31 23:39,77.00,71.60,83.44,150.00,3.00,0.00,30.05,M,10.00,M,CLR,M,M,M,M,M,M,M,M,M,M,M,M,M,M,M,KMTN 010339Z AUTO 15003KT 10SM CLR 25/22 A3005 RMK AO2
MTN,2019-08-01 00:00,77.00,71.60,83.44,0.00,0.00,0.00,30.05,M,10.00,M,CLR,M,M,M,M,M,M,M,M,M,M,M,M,M,M,M,KMTN 010400Z AUTO 00000KT 10SM CLR 25/22 A3005 RMK AO2
MTN,2019-08-01 00:21,78.80,71.60,78.62,0.00,0.00,0.00,30.05,M,10.00,M,CLR,M,M,M,M,M,M,M,M,M,M,M,M,M,M,M,KMTN 010421Z AUTO 00000KT 10SM CLR 26/22 A3005 RMK AO2
MTN,2019-08-01 00:39,77.00,71.60,83.44,220.00,3.00,0.00,30.05,M,10.00,M,CLR,M,M,M,M,M,M,M,M,M,M,M,M,M,M,M,KMTN 010439Z AUTO 22003KT 10SM CLR 25/22 A3005 RMK AO2
MTN,2019-08-01 01:00,75.20,71.60,88.59,330.00,3.00,0.00,30.06,M,10.00,M,CLR,M,M,M,M,M,M,M,M,M,M,M,M,M,M,M,KMTN 010500Z AUTO 33003KT 10SM CLR 24/22 A3006 RMK AO2
MTN,2019-08-01 01:21,75.20,71.60,88.59,0.00,0.00,0.00,30.06,M,10.00,M,CLR,M,M,M,M,M,M,M,M,M,M,M,M,M,M,M,KMTN 010521Z AUTO 00000KT 10SM CLR 24/22 A3006 RMK AO2
MTN,2019-08-01 01:39,73.40,71.60,94.10,0.00,0.00,0.00,30.07,M,10.00,M,SCT,M,M,M,6500.00,M,M,M,M,M,M,M,M,M,M,M,KMTN 010539Z AUTO 00000KT 10SM SCT065 23/22 A3007 RMK AO2
MTN,2019-08-01 02:00,73.40,71.60,94.10,0.00,0.00,0.00,30.07,M,10.00,M,SCT,M,M,M,6500.00,M,M,M,M,M,M,M,M,M,M,M,KMTN 010600Z AUTO 00000KT 10SM SCT065 23/22 A3007 RMK AO2
MTN,2019-08-01 02:21,73.40,71.60,94.10,0.00,0.00,0.00,30.05,M,10.00,M,CLR,M,M,M,M,M,M,M,M,M,M,M,M,M,M,M,KMTN 010621Z AUTO 00000KT 10SM CLR 23/22 A3005 RMK AO2
MTN,2019-08-01 02:39,73.40,71.60,94.10,0.00,0.00,0.00,30.06,M,10.00,M,CLR,M,M,M,M,M,M,M,M,M,M,M,M,M,M,M,KMTN 010639Z AUTO 00000KT 10SM CLR 23/22 A3006 RMK AO2
MTN,2019-08-01 03:00,73.40,71.60,94.10,0.00,0.00,0.00,30.06,M,10.00,M,CLR,M,M,M,M,M,M,M,M,M,M,M,M,M,M,M,KMTN 010700Z AUTO 00000KT 10SM CLR 23/22 A3006 RMK AO2
MTN,2019-08-01 03:15,73.40,71.60,94.10,0.00,0.00,0.00,30.06,M,10.00,M,CLR,M,M,M,M,M,M,M,M,M,M,M,M,M,M,M,KMTN 010715Z AUTO 00000KT 10SM CLR 23/22 A3006 RMK AO2
MTN,2019-08-01 03:39,73.40,71.60,94.10,0.00,0.00,0.00,30.05,M,10.00,M,CLR,M,M,M,M,M,M,M,M,M,M,M,M,M,M,M,KMTN 010739Z AUTO 00000KT 10SM CLR 23/22 A3005 RMK AO2
MTN,2019-08-01 04:00,73.40,71.60,94.10,310.00,3.00,0.00,30.05,M,10.00,M,CLR,M,M,M,M,M,M,M,M,M,M,M,M,M,M,M,KMTN 010800Z AUTO 31003KT 10SM CLR 23/22 A3005 RMK AO2
MTN,2019-08-01 04:21,73.40,71.60,94.10,0.00,0.00,0.00,30.05,M,10.00,M,CLR,M,M,M,M,M,M,M,M,M,M,M,M,M,M,M,KMTN 010821Z AUTO 00000KT 10SM CLR 23/22 A3005 RMK AO2
MTN,2019-08-01 04:39,71.60,69.80,94.06,290.00,4.00,0.00,30.05,M,10.00,M,CLR,M,M,M,M,M,M,M,M,M,M,M,M,M,M,M,KMTN 010839Z AUTO 29004KT 10SM CLR 22/21 A3005 RMK AO2
MTN,2019-08-01 05:00,71.60,69.80,94.06,290.00,3.00,0.00,30.05,M,10.00,M,CLR,M,M,M,M,M,M,M,M,M,M,M,M,M,M,M,KMTN 010900Z AUTO 29003KT 10SM CLR 22/21 A3005 RMK AO2
MTN,2019-08-01 05:21,71.60,69.80,94.06,290.00,4.00,0.00,30.05,M,10.00,M,CLR,M,M,M,M,M,M,M,M,M,M,M,M,M,M,M,KMTN 010921Z AUTO 29004KT 10SM CLR 22/21 A3005 RMK AO2
MTN,2019-08-01 05:45,71.60,71.60,100.00,0.00,0.00,0.00,30.06,M,10.00,M,SCT,M,M,M,16000.00,M,M,M,M,M,M,M,M,M,M,M,KMTN 010945Z 00000KT 10SM SCT160 22/22 A3006 RMK FIRST
MTN,2019-08-01 06:45,71.60,71.60,100.00,0.00,0.00,0.00,30.06,M,10.00,M,SCT,M,M,M,20000.00,M,M,M,M,M,M,M,M,M,M,M,KMTN 011045Z 00000KT 10SM SCT200 22/22 A3006
MTN,2019-08-01 07:45,75.20,71.60,88.59,320.00,4.00,0.00,30.08,M,10.00,M,FEW,SCT,M,M,15000.00,25000.00,M,M,M,M,M,M,M,M,M,M,KMTN 011145Z 32004KT 10SM FEW150 SCT250 24/22 A3008
MTN,2019-08-01 08:45,80.60,73.40,78.76,320.00,3.00,0.00,30.09,M,6.00,M,FEW,SCT,M,M,18000.00,25000.00,M,M,HZ,M,M,M,M,M,M,85.32,KMTN 011245Z 32003KT 6SM HZ FEW180 SCT250 27/23 A3009
MTN,2019-08-01 09:45,82.40,73.40,74.28,0.00,0.00,0.00,30.10,M,6.00,M,SCT,SCT,SCT,M,4000.00,18000.00,25000.00,M,HZ,M,M,M,M,M,M,88.26,KMTN 011345Z 00000KT 6SM HZ SCT040 SCT180 SCT250 28/23 A3010
MTN,2019-08-01 10:45,84.20,75.20,74.44,M,4.00,0.00,30.10,M,6.00,M,SCT,SCT,SCT,M,2200.00,3000.00,25000.00,M,HZ,M,M,M,M,M,M,92.45,KMTN 011445Z VRB04KT 6SM HZ SCT022 SCT030 SCT250 29/24 A3010
MTN,2019-08-01 10:54,84.20,75.20,74.44,140.00,7.00,0.00,30.11,M,6.00,M,BKN,BKN,BKN,M,2200.00,3100.00,25000.00,M,HZ,M,M,M,M,M,M,92.45,KMTN 011454Z 14007KT 6SM HZ BKN022 BKN031 BKN250 29/24 A3011
MTN,2019-08-01 11:45,84.20,75.20,74.44,160.00,7.00,0.00,30.11,M,10.00,M,SCT,SCT,SCT,M,2500.00,18000.00,25000.00,M,M,M,M,M,M,M,M,92.45,KMTN 011545Z 16007KT 10SM SCT025 SCT180 SCT250 29/24 A3011
MTN,2019-08-01 12:45,87.80,71.60,58.78,150.00,7.00,0.00,30.11,M,10.00,M,SCT,SCT,SCT,M,2500.00,11000.00,25000.00,M,M,M,M,M,M,M,M,94.18,KMTN 011645Z 15007KT 10SM SCT025 SCT110TCU SCT250 31/22 A3011 RMK TCU N-SE MOV SE
MTN,2019-08-01 13:45,84.20,73.40,70.08,130.00,6.00,0.00,30.10,M,7.00,M,SCT,BKN,BKN,M,4500.00,5000.00,11000.00,M,-VCTSRA,M,M,M,M,M,M,90.94,KMTN 011745Z 13006KT 7SM -VCTSRA SCT045 BKN050 BKN110 29/23 A3010 RMK FRQ LTGCG OHD
MTN,2019-08-01 14:45,77.00,75.20,94.19,0.00,0.00,0.00,30.10,M,10.00,M,BKN,BKN,M,M,5000.00,11000.00,M,M,-RA,M,M,M,M,M,M,M,KMTN 011845Z 00000KT 10SM -RA BKN050 BKN110 25/24 A3010 RMK OCNL LTG DSNT W-S
MTN,2019-08-01 15:45,80.60,75.20,83.66,220.00,4.00,0.00,30.08,M,10.00,M,SCT,SCT,M,M,5000.00,11000.00,M,M,M,M,M,M,M,M,M,86.17,KMTN 011945Z 22004KT 10SM SCT050 SCT110 27/24 A3008
MTN,2019-08-01 16:45,86.00,68.00,55.04,0.00,0.00,0.00,30.06,M,10.00,M,SCT,BKN,BKN,M,6000.00,11000.00,20000.00,M,M,M,M,M,M,M,M,89.41,KMTN 012045Z 00000KT 10SM SCT060 BKN110 BKN200 30/20 A3006
MTN,2019-08-01 17:45,84.20,69.80,62.03,70.00,8.00,0.00,30.07,M,10.00,M,SCT,BKN,M,M,5000.00,10000.00,M,M,M,M,M,M,M,M,M,88.43,KMTN 012145Z 07008KT 10SM SCT050 BKN100 29/21 A3007
MTN,2019-08-01 18:45,82.40,69.80,65.74,80.00,7.00,0.00,30.05,M,10.00,M,FEW,BKN,BKN,M,5000.00,11000.00,20000.00,M,M,M,M,M,M,M,M,86.22,KMTN 012245Z 08007KT 10SM FEW050 BKN110 BKN200 28/21 A3005
MTN,2019-08-01 19:45,80.60,71.60,74.11,80.00,5.00,0.00,30.09,M,10.00,M,SCT,SCT,M,M,11000.00,20000.00,M,M,M,M,M,M,M,M,M,84.57,KMTN 012345Z 08005KT 10SM SCT110 SCT200 27/22 A3009
MTN,2019-08-01 20:45,78.80,69.80,73.95,90.00,4.00,0.00,30.09,M,10.00,M,SCT,SCT,M,M,11000.00,20000.00,M,M,M,M,M,M,M,M,M,M,KMTN 020045Z 09004KT 10SM SCT110 SCT200 26/21 A3009
MTN,2019-08-01 21:45,75.20,71.60,88.59,70.00,3.00,0.00,30.09,M,10.00,M,SCT,SCT,M,M,12000.00,20000.00,M,M,M,M,M,M,M,M,M,M,KMTN 020145Z 07003KT 10SM SCT120 SCT200 24/22 A3009
MTN,2019-08-01 22:21,75.20,69.80,83.32,0.00,0.00,0.00,30.10,M,10.00,M,CLR,M,M,M,M,M,M,M,M,M,M,M,M,M,M,M,KMTN 020221Z AUTO 00000KT 10SM CLR 24/21 A3010 RMK AO2
MTN,2019-08-01 22:39,77.00,69.80,78.48,90.00,4.00,0.00,30.11,M,10.00,M,CLR,M,M,M,M,M,M,M,M,M,M,M,M,M,M,M,KMTN 020239Z AUTO 09004KT 10SM CLR 25/21 A3011 RMK AO2
MTN,2019-08-01 23:00,77.00,68.00,73.78,90.00,4.00,0.00,30.10,M,10.00,M,CLR,M,M,M,M,M,M,M,M,M,M,M,M,M,M,M,KMTN 020300Z AUTO 09004KT 10SM CLR 25/20 A3010 RMK AO2
MTN,2019-08-01 23:21,77.00,69.80,78.48,110.00,4.00,0.00,30.10,M,10.00,M,CLR,M,M,M,M,M,M,M,M,M,M,M,M,M,M,M,KMTN 020321Z AUTO 11004KT 10SM CLR 25/21 A3010 RMK AO2
MTN,2019-08-01 23:36,77.00,69.80,78.48,130.00,3.00,0.00,30.11,M,10.00,M,CLR,M,M,M,M,M,M,M,M,M,M,M,M,M,M,M,KMTN 020336Z AUTO 13003KT 10SM CLR 25/21 A3011 RMK AO2
MTN,2019-08-02 00:00,73.40,69.80,88.51,0.00,0.00,0.00,30.11,M,10.00,M,CLR,M,M,M,M,M,M,M,M,M,M,M,M,M,M,M,KMTN 020400Z AUTO 00000KT 10SM CLR 23/21 A3011 RMK AO2
MTN,2019-08-02 00:21,73.40,69.80,88.51,0.00,0.00,0.00,30.11,M,10.00,M,CLR,M,M,M,M,M,M,M,M,M,M,M,M,M,M,M,KMTN 020421Z AUTO 00000KT 10SM CLR 23/21 A3011 RMK AO2
MTN,2019-08-02 00:27,73.40,69.80,88.51,0.00,0.00,0.00,30.11,M,10.00,M,CLR,M,M,M,M,M,M,M,M,M,M,M,M,M,M,M,KMTN 020427Z AUTO 00000KT 10SM CLR 23/21 A3011 RMK AO2
MTN,2019-08-02 00:42,73.40,69.80,88.51,0.00,0.00,0.00,30.11,M,10.00,M,CLR,M,M,M,M,M,M,M,M,M,M,M,M,M,M,M,KMTN 020442Z AUTO 00000KT 10SM CLR 23/21 A3011 RMK AO2
MTN,2019-08-02 01:03,73.40,69.80,88.51,0.00,0.00,0.00,30.12,M,10.00,M,CLR,M,M,M,M,M,M,M,M,M,M,M,M,M,M,M,KMTN 020503Z AUTO 00000KT 10SM CLR 23/21 A3012 RMK AO2
MTN,2019-08-02 01:21,73.40,71.60,94.10,0.00,0.00,0.00,30.11,M,10.00,M,CLR,M,M,M,M,M,M,M,M,M,M,M,M,M,M,M,KMTN 020521Z AUTO 00000KT 10SM CLR 23/22 A3011 RMK AO2
MTN,2019-08-02 01:42,73.40,71.60,94.10,0.00,0.00,0.00,30.11,M,10.00,M,CLR,M,M,M,M,M,M,M,M,M,M,M,M,M,M,M,KMTN 020542Z AUTO 00000KT 10SM CLR 23/22 A3011 RMK AO2
MTN,2019-08-02 02:03,73.40,71.60,94.10,0.00,0.00,0.00,30.11,M,10.00,M,CLR,M,M,M,M,M,M,M,M,M,M,M,M,M,M,M,KMTN 020603Z AUTO 00000KT 10SM CLR 23/22 A3011 RMK AO2
MTN,2019-08-02 02:21,73.40,69.80,88.51,0.00,0.00,0.00,30.11,M,10.00,M,CLR,M,M,M,M,M,M,M,M,M,M,M,M,M,M,M,KMTN 020621Z AUTO 00000KT 10SM CLR 23/21 A3011 RMK AO2 LTG DSNT SW
MTN,2019-08-02 02:42,71.60,69.80,94.06,0.00,0.00,0.00,30.11,M,10.00,M,CLR,M,M,M,M,M,M,M,M,M,M,M,M,M,M,M,KMTN 020642Z AUTO 00000KT 10SM CLR 22/21 A3011 RMK AO2
MTN,2019-08-02 03:03,71.60,71.60,100.00,330.00,3.00,0.00,30.10,M,10.00,M,CLR,M,M,M,M,M,M,M,M,M,M,M,M,M,M,M,KMTN 020703Z AUTO 33003KT 10SM CLR 22/22 A3010 RMK AO2
MTN,2019-08-02 03:21,71.60,71.60,100.00,0.00,0.00,0.00,30.10,M,10.00,M,CLR,M,M,M,M,M,M,M,M,M,M,M,M,M,M,M,KMTN 020721Z AUTO 00000KT 10SM CLR 22/22 A3010 RMK AO2
MTN,2019-08-02 03:42,71.60,69.80,94.06,0.00,0.00,0.00,30.10,M,10.00,M,CLR,M,M,M,M,M,M,M,M,M,M,M,M,M,M,M,KMTN 020742Z AUTO 00000KT 10SM CLR 22/21 A3010 RMK AO2 LTG DSNT SW
MTN,2019-08-02 04:03,71.60,69.80,94.06,0.00,0.00,0.00,30.10,M,10.00,M,CLR,M,M,M,M,M,M,M,M,M,M,M,M,M,M,M,KMTN 020803Z AUTO 00000KT 10SM CLR 22/21 A3010 RMK AO2
MTN,2019-08-02 04:21,71.60,71.60,100.00,0.00,0.00,0.00,30.10,M,10.00,M,SCT,M,M,M,1300.00,M,M,M,M,M,M,M,M,M,M,M,KMTN 020821Z AUTO 00000KT 10SM SCT013 22/22 A3010 RMK AO2 LTG DSNT S AND SW
MTN,2019-08-02 04:42,71.60,71.60,100.00,0.00,0.00,0.00,30.11,M,10.00,M,OVC,M,M,M,1100.00,M,M,M,M,M,M,M,M,M,M,M,KMTN 020842Z AUTO 00000KT 10SM OVC011 22/22 A3011 RMK AO2
MTN,2019-08-02 05:03,71.60,71.60,100.00,330.00,3.00,0.00,30.11,M,10.00,M,SCT,BKN,M,M,1100.00,11000.00,M,M,M,M,M,M,M,M,M,M,KMTN 020903Z AUTO 33003KT 10SM SCT011 BKN110 22/22 A3011 RMK AO2 LTG DSNT S
MTN,2019-08-02 05:21,71.60,71.60,100.00,0.00,0.00,0.00,30.11,M,10.00,M,SCT,M,M,M,11000.00,M,M,M,M,M,M,M,M,M,M,M,KMTN 020921Z AUTO 00000KT 10SM SCT110 22/22 A3011 RMK AO2 LTG DSNT S
MTN,2019-08-02 05:45,71.60,71.60,100.00,0.00,0.00,0.00,30.11,M,10.00,M,SCT,SCT,BKN,M,1100.00,2200.00,10000.00,M,M,M,M,M,M,M,M,M,KMTN 020945Z 00000KT 10SM SCT011 SCT022 BKN100 22/22 A3011 RMK LTG DSNT S AND SW
MTN,2019-08-02 06:45,71.60,71.60,100.00,0.00,0.00,0.00,30.13,M,7.00,M,SCT,BKN,BKN,M,1100.00,2200.00,10000.00,M,M,M,M,M,M,M,M,M,KMTN 021045Z 00000KT 7SM SCT011 BKN022 BKN100 22/22 A3013 RMK LTG DSNT S
MTN,2019-08-02 07:45,73.40,73.40,100.00,330.00,3.00,0.00,30.11,M,6.00,M,BKN,BKN,OVC,M,2800.00,10000.00,15000.00,M,HZ,M,M,M,M,M,M,M,KMTN 021145Z 33003KT 6SM HZ BKN028 BKN100 OVC150 23/23 A3011
MTN,2019-08-02 07:54,73.40,73.40,100.00,0.00,0.00,0.00,30.11,M,5.00,M,BKN,BKN,OVC,M,1900.00,2900.00,10000.00,M,HZ,M,M,M,M,M,M,M,KMTN 021154Z 00000KT 5SM HZ BKN019 BKN029 OVC100 23/23 A3011 RMK LTG DSNT S
MTN,2019-08-02 08:45,75.20,73.40,94.14,0.00,0.00,0.00,30.13,M,7.00,M,SCT,OVC,M,M,2000.00,10000.00,M,M,M,M,M,M,M,M,M,M,KMTN 021245Z 00000KT 7SM SCT020 OVC100 24/23 A3013
MTN,2019-08-02 08:55,75.20,75.20,100.00,110.00,5.00,0.00,30.14,M,6.00,M,SCT,BKN,OVC,M,900.00,2500.00,10000.00,M,HZ,M,M,M,M,M,M,M,KMTN 021255Z 11005KT 6SM HZ SCT009 BKN025 OVC100 24/24 A3014
MTN,2019-08-02 09:45,78.80,73.40,83.55,130.00,4.00,0.00,30.14,M,7.00,M,BKN,BKN,OVC,M,2300.00,2900.00,11000.00,M,M,M,M,M,M,M,M,M,KMTN 021345Z 13004KT 7SM BKN023 BKN029 OVC110 26/23 A3014
MTN,2019-08-02 10:45,78.80,71.60,78.62,260.00,5.00,0.00,30.13,M,10.00,M,BKN,BKN,OVC,M,1600.00,4000.00,11000.00,M,M,M,M,M,M,M,M,M,KMTN 021445Z 26005KT 10SM BKN016 BKN040 OVC110 26/22 A3013
MTN,2019-08-02 11:45,82.40,71.60,69.90,0.00,0.00,0.00,30.13,M,10.00,M,SCT,BKN,BKN,M,2000.00,12000.00,15000.00,M,M,M,M,M,M,M,M,87.18,KMTN 021545Z 00000KT 10SM SCT020 BKN120 BKN150 28/22 A3013
MTN,2019-08-02 12:45,82.40,71.60,69.90,160.00,3.00,0.00,30.13,M,10.00,M,SCT,BKN,BKN,M,2000.00,12000.00,15000.00,M,M,M,M,M,M,M,M,87.18,KMTN 021645Z 16003KT 10SM SCT020 BKN120 BKN150 28/22 A3013
MTN,2019-08-02 13:45,84.20,73.40,70.08,130.00,5.00,0.00,30.12,M,10.00,M,SCT,SCT,BKN,M,3000.00,12000.00,15000.00,M,M,M,M,M,M,M,M,90.94,KMTN 021745Z 13005KT 10SM SCT030 SCT120 BKN150 29/23 A3012
MTN,2019-08-02 14:50,84.20,73.40,70.08,100.00,5.00,0.00,30.11,M,10.00,M,SCT,BKN,M,M,3000.00,15000.00,M,M,M,M,M,M,M,M,M,90.94,KMTN 021850Z 10005KT 10SM SCT030 BKN150 29/23 A3011
MTN,2019-08-02 15:45,69.80,69.80,100.00,140.00,7.00,0.00,30.09,M,10.00,M,SCT,BKN,M,M,3000.00,12000.00,M,M,M,M,M,M,M,M,M,M,KMTN 021945Z 14007KT 10SM SCT030 BKN120 21/21 A3009
MTN,2019-08-02 16:50,86.00,71.60,62.25,150.00,8.00,0.00,30.09,M,10.00,M,SCT,BKN,M,M,3000.00,12000.00,M,M,M,M,M,M,M,M,M,91.92,KMTN 022050Z 15008KT 10SM SCT030 BKN120 30/22 A3009
MTN,2019-08-02 17:50,86.00,71.60,62.25,130.00,8.00,0.00,30.09,M,10.00,M,SCT,SCT,M,M,3000.00,12000.00,M,M,M,M,M,M,M,M,M,91.92,KMTN 022150Z 13008KT 10SM SCT030 SCT120 30/22 A3009
MTN,2019-08-02 18:10,80.60,71.60,74.11,110.00,14.00,0.00,30.09,M,10.00,18.00,SCT,SCT,M,M,2500.00,12000.00,M,M,M,M,M,M,M,M,M,84.57,KMTN 022210Z 11014G18KT 10SM SCT025 SCT120 27/22 A3009
MTN,2019-08-02 18:45,80.60,66.20,61.58,120.00,10.00,0.00,30.08,M,10.00,M,SCT,SCT,M,M,3000.00,6000.00,M,M,M,M,M,M,M,M,M,82.75,KMTN 022245Z 12010KT 10SM SCT030CB SCT060 27/19 A3008 RMK CB S MOV W
MTN,2019-08-02 19:50,80.60,69.80,69.71,130.00,6.00,0.00,30.09,M,10.00,M,SCT,SCT,M,M,3000.00,6000.00,M,M,M,M,M,M,M,M,M,83.90,KMTN 022350Z 13006KT 10SM SCT030 SCT060 27/21 A3009
MTN,2019-08-02 20:50,78.80,71.60,78.62,100.00,3.00,0.00,30.09,M,10.00,M,CLR,M,M,M,M,M,M,M,M,M,M,M,M,M,M,M,KMTN 030050Z 10003KT 10SM SKC 26/22 A3009
MTN,2019-08-02 21:45,78.80,73.40,83.55,120.00,6.00,0.00,30.10,M,10.00,M,CLR,M,M,M,M,M,M,M,M,M,M,M,M,M,M,M,KMTN 030145Z 12006KT 10SM SKC 26/23 A3010
MTN,2019-08-02 22:03,77.00,71.60,83.44,110.00,6.00,0.00,30.10,M,10.00,M,CLR,M,M,M,M,M,M,M,M,M,M,M,M,M,M,M,KMTN 030203Z AUTO 11006KT 10SM CLR 25/22 A3010 RMK AO2
MTN,2019-08-02 22:21,77.00,71.60,83.44,90.00,5.00,0.00,30.10,M,10.00,M,CLR,M,M,M,M,M,M,M,M,M,M,M,M,M,M,M,KMTN 030221Z AUTO 09005KT 10SM CLR 25/22 A3010 RMK AO2
MTN,2019-08-02 22:42,77.00,73.40,88.67,110.00,5.00,0.00,30.10,M,10.00,M,CLR,M,M,M,M,M,M,M,M,M,M,M,M,M,M,M,KMTN 030242Z AUTO 11005KT 10SM CLR 25/23 A3010 RMK AO2
MTN,2019-08-02 23:21,77.00,73.40,88.67,140.00,7.00,0.00,30.10,M,10.00,M,CLR,M,M,M,M,M,M,M,M,M,M,M,M,M,M,M,KMTN 030321Z AUTO 14007KT 10SM CLR 25/23 A3010 RMK AO2
MTN,2019-08-02 23:42,77.00,73.40,88.67,150.00,3.00,0.00,30.09,M,10.00,M,CLR,M,M,M,M,M,M,M,M,M,M,M,M,M,M,M,KMTN 030342Z AUTO 15003KT 10SM CLR 25/23 A3009 RMK AO2
MTN,2019-08-03 00:03,77.00,73.40,88.67,160.00,3.00,0.00,30.09,M,10.00,M,SCT,M,M,M,2100.00,M,M,M,M,M,M,M,M,M,M,M,KMTN 030403Z AUTO 16003KT 10SM SCT021 25/23 A3009 RMK AO2
MTN,2019-08-03 00:21,77.00,73.40,88.67,0.00,0.00,0.00,30.08,M,10.00,M,SCT,M,M,M,2100.00,M,M,M,M,M,M,M,M,M,M,M,KMTN 030421Z AUTO 00000KT 10SM SCT021 25/23 A3008 RMK AO2
MTN,2019-08-03 00:42,77.00,73.40,88.67,0.00,0.00,0.00,30.09,M,10.00,M,CLR,M,M,M,M,M,M,M,M,M,M,M,M,M,M,M,KMTN 030442Z AUTO 00000KT 10SM CLR 25/23 A3009 RMK AO2
MTN,2019-08-03 01:03,77.00,73.40,88.67,170.00,3.00,0.00,30.09,M,10.00,M,CLR,M,M,M,M,M,M,M,M,M,M,M,M,M,M,M,KMTN 030503Z AUTO 17003KT 10SM CLR 25/23 A3009 RMK AO2
MTN,2019-08-03 01:21,77.00,73.40,88.67,0.00,0.00,0.00,30.09,M,10.00,M,SCT,M,M,M,1800.00,M,M,M,M,M,M,M,M,M,M,M,KMTN 030521Z AUTO 00000KT 10SM SCT018 25/23 A3009 RMK AO2
MTN,2019-08-03 01:42,77.00,73.40,88.67,0.00,0.00,0.00,30.08,M,10.00,M,SCT,SCT,SCT,M,1600.00,2000.00,4900.00,M,M,M,M,M,M,M,M,M,KMTN 030542Z AUTO 00000KT 10SM SCT016 SCT020 SCT049 25/23 A3008 RMK AO2
MTN,2019-08-03 02:03,75.20,73.40,94.14,0.00,0.00,0.00,30.08,M,10.00,M,BKN,M,M,M,1400.00,M,M,M,M,M,M,M,M,M,M,M,KMTN 030603Z AUTO 00000KT 10SM BKN014 24/23 A3008 RMK AO2
MTN,2019-08-03 02:21,73.40,73.40,100.00,0.00,0.00,0.00,30.08,M,10.00,M,BKN,BKN,M,M,1400.00,2300.00,M,M,M,M,M,M,M,M,M,M,KMTN 030621Z AUTO 00000KT 10SM BKN014 BKN023 23/23 A3008 RMK AO2
MTN,2019-08-03 02:42,73.40,73.40,100.00,280.00,3.00,0.00,30.08,M,10.00,M,BKN,BKN,BKN,M,1500.00,2600.00,3700.00,M,M,M,M,M,M,M,M,M,KMTN 030642Z AUTO 28003KT 10SM BKN015 BKN026 BKN037 23/23 A3008 RMK AO2
MTN,2019-08-03 03:03,73.40,73.40,100.00,0.00,0.00,0.00,30.07,M,10.00,M,SCT,SCT,BKN,M,1700.00,2200.00,2700.00,M,M,M,M,M,M,M,M,M,KMTN 030703Z AUTO 00000KT 10SM SCT017 SCT022 BKN027 23/23 A3007 RMK AO2
MTN,2019-08-03 03:21,73.40,73.40,100.00,50.00,3.00,0.00,30.07,M,10.00,M,BKN,BKN,BKN,M,1100.00,1700.00,2300.00,M,M,M,M,M,M,M,M,M,KMTN 030721Z AUTO 05003KT 10SM BKN011 BKN017 BKN023 23/23 A3007 RMK AO2
MTN,2019-08-03 03:42,75.20,71.60,88.59,0.00,0.00,0.00,30.06,M,10.00,M,BKN,OVC,M,M,1200.00,2200.00,M,M,M,M,M,M,M,M,M,M,KMTN 030742Z AUTO 00000KT 10SM BKN012 OVC022 24/22 A3006 RMK AO2
MTN,2019-08-03 04:03,73.40,71.60,94.10,0.00,0.00,0.00,30.06,M,10.00,M,SCT,BKN,OVC,M,1400.00,1800.00,8000.00,M,M,M,M,M,M,M,M,M,KMTN 030803Z AUTO 00000KT 10SM SCT014 BKN018 OVC080 23/22 A3006 RMK AO2
MTN,2019-08-03 04:21,73.40,73.40,100.00,0.00,0.00,0.00,30.05,M,10.00,M,SCT,SCT,SCT,M,4500.00,5000.00,8000.00,M,M,M,M,M,M,M,M,M,KMTN 030821Z AUTO 00000KT 10SM SCT045 SCT050 SCT080 23/23 A3005 RMK AO2
MTN,2019-08-03 04:42,73.40,73.40,100.00,0.00,0.00,0.00,30.05,M,10.00,M,SCT,M,M,M,1900.00,M,M,M,M,M,M,M,M,M,M,M,KMTN 030842Z AUTO 00000KT 10SM SCT019 23/23 A3005 RMK AO2
MTN,2019-08-03 05:03,73.40,71.60,94.10,0.00,0.00,0.00,30.05,M,10.00,M,SCT,SCT,M,M,1700.00,2300.00,M,M,M,M,M,M,M,M,M,M,KMTN 030903Z AUTO 00000KT 10SM SCT017 SCT023 23/22 A3005 RMK AO2
MTN,2019-08-03 05:21,71.60,69.80,94.06,0.00,0.00,0.00,30.06,M,10.00,M,SCT,SCT,M,M,1500.00,2000.00,M,M,M,M,M,M,M,M,M,M,KMTN 030921Z AUTO 00000KT 10SM SCT015 SCT020 22/21 A3006 RMK AO2
MTN,2019-08-03 05:30,71.60,71.60,100.00,350.00,3.00,0.00,30.06,M,10.00,M,CLR,M,M,M,M,M,M,M,M,M,M,M,M,M,M,M,KMTN 030930Z AUTO 35003KT 10SM CLR 22/22 A3006 RMK AO2
MTN,2019-08-03 05:45,73.40,73.40,100.00,0.00,0.00,0.00,30.06,M,10.00,M,FEW,SCT,M,M,1000.00,2000.00,M,M,M,M,M,M,M,M,M,M,KMTN 030945Z 00000KT 10SM FEW010 SCT020TCU 23/23 A3006
MTN,2019-08-03 07:45,75.20,75.20,100.00,0.00,0.00,0.00,30.07,M,6.00,M,FEW,SCT,SCT,SCT,500.00,1300.00,2000.00,25000.00,HZ,M,M,M,M,M,M,M,KMTN 031145Z 00000KT 6SM HZ FEW005 SCT013TCU SCT020 SCT250 24/24 A3007
MTN,2019-08-03 08:45,80.60,75.20,83.66,0.00,0.00,0.00,30.06,M,10.00,M,SCT,BKN,M,M,1300.00,20000.00,M,M,M,M,M,M,M,M,M,86.17,KMTN 031245Z 00000KT 10SM SCT013 BKN200 27/24 A3006
MTN,2019-08-03 09:45,80.60,75.20,83.66,0.00,0.00,0.00,30.06,M,10.00,M,SCT,SCT,SCT,M,1300.00,6500.00,25000.00,M,M,M,M,M,M,M,M,86.17,KMTN 031345Z 00000KT 10SM SCT013 SCT065 SCT250 27/24 A3006
MTN,2019-08-03 10:45,82.40,75.20,78.90,150.00,7.00,0.00,30.05,M,10.00,M,SCT,SCT,SCT,M,1700.00,6500.00,25000.00,M,M,M,M,M,M,M,M,89.48,KMTN 031445Z 15007KT 10SM SCT017 SCT065 SCT250 28/24 A3005
MTN,2019-08-03 11:45,84.20,73.40,70.08,140.00,8.00,0.00,30.04,M,10.00,M,SCT,SCT,SCT,M,1700.00,5000.00,20000.00,M,M,M,M,M,M,M,M,90.94,KMTN 031545Z 14008KT 10SM SCT017 SCT050 SCT200 29/23 A3004
MTN,2019-08-03 12:55,86.00,73.40,66.15,130.00,8.00,0.00,30.02,M,10.00,M,SCT,SCT,M,M,2000.00,20000.00,M,M,M,M,M,M,M,M,M,93.45,KMTN 031655Z 13008KT 10SM SCT020 SCT200 30/23 A3002
MTN,2019-08-03 13:50,87.80,73.40,62.47,100.00,7.00,0.00,30.00,M,10.00,M,SCT,M,M,M,2000.00,M,M,M,M,M,M,M,M,M,M,95.86,KMTN 031750Z 10007KT 10SM SCT020 31/23 A3000
MTN,2019-08-03 14:54,89.60,69.80,52.23,150.00,8.00,0.00,29.98,M,10.00,M,SCT,SCT,M,M,4000.00,6000.00,M,M,M,M,M,M,M,M,M,94.85,KMTN 031854Z 15008KT 10SM SCT040 SCT060 32/21 A2998
MTN,2019-08-03 15:45,89.60,69.80,52.23,130.00,7.00,0.00,29.96,M,10.00,M,SCT,SCT,SCT,M,4000.00,6000.00,25000.00,M,M,M,M,M,M,M,M,94.85,KMTN 031945Z 13007KT 10SM SCT040 SCT060 SCT250 32/21 A2996
MTN,2019-08-03 16:54,89.60,68.00,49.10,140.00,5.00,0.00,29.94,M,10.00,M,SCT,SCT,M,M,6000.00,25000.00,M,M,M,M,M,M,M,M,M,93.47,KMTN 032054Z 14005KT 10SM SCT060 SCT250 32/20 A2994
MTN,2019-08-03 17:54,87.80,68.00,51.98,160.00,6.00,0.00,29.93,M,10.00,M,SCT,M,M,M,25000.00,M,M,M,M,M,M,M,M,M,M,91.43,KMTN 032154Z 16006KT 10SM SCT250 31/20 A2993
MTN,2019-08-03 18:45,87.80,69.80,55.29,150.00,5.00,0.00,29.92,M,10.00,M,SCT,M,M,M,20000.00,M,M,M,M,M,M,M,M,M,M,92.71,KMTN 032245Z 15005KT 10SM SCT200 31/21 A2992
MTN,2019-08-03 19:45,84.20,69.80,62.03,150.00,3.00,0.00,29.94,M,10.00,M,SCT,SCT,M,M,10000.00,20000.00,M,M,M,M,M,M,M,M,M,88.43,KMTN 032345Z 15003KT 10SM SCT100 SCT200 29/21 A2994
MTN,2019-08-03 20:54,82.40,69.80,65.74,140.00,3.00,0.00,29.94,M,10.00,M,SCT,M,M,M,25000.00,M,M,M,M,M,M,M,M,M,M,86.22,KMTN 040054Z 14003KT 10SM SCT250 28/21 A2994
MTN,2019-08-03 21:45,82.40,69.80,65.74,0.00,0.00,0.00,29.95,M,10.00,M,SCT,M,M,M,25000.00,M,M,M,M,M,M,M,M,M,M,86.22,KMTN 040145Z 00000KT 10SM SCT250 28/21 A2995 RMK LAST
MTN,2019-08-03 22:03,78.80,69.80,73.95,0.00,0.00,0.00,29.96,M,10.00,M,CLR,M,M,M,M,M,M,M,M,M,M,M,M,M,M,M,KMTN 040203Z AUTO 00000KT 10SM CLR 26/21 A2996 RMK AO2
MTN,2019-08-03 22:21,78.80,69.80,73.95,0.00,0.00,0.00,29.95,M,10.00,M,CLR,M,M,M,M,M,M,M,M,M,M,M,M,M,M,M,KMTN 040221Z AUTO 00000KT 10SM CLR 26/21 A2995 RMK AO2
MTN,2019-08-03 22:42,78.80,69.80,73.95,0.00,0.00,0.00,29.95,M,10.00,M,CLR,M,M,M,M,M,M,M,M,M,M,M,M,M,M,M,KMTN 040242Z AUTO 00000KT 10SM CLR 26/21 A2995 RMK AO2
MTN,2019-08-03 23:00,78.80,71.60,78.62,0.00,0.00,0.00,29.94,M,10.00,M,CLR,M,M,M,M,M,M,M,M,M,M,M,M,M,M,M,KMTN 040300Z AUTO 00000KT 10SM CLR 26/22 A2994 RMK AO2
MTN,2019-08-03 23:21,78.80,71.60,78.62,0.00,0.00,0.00,29.95,M,10.00,M,CLR,M,M,M,M,M,M,M,M,M,M,M,M,M,M,M,KMTN 040321Z AUTO 00000KT 10SM CLR 26/22 A2995 RMK AO2 LTG DSNT W
MTN,2019-08-03 23:42,78.80,71.60,78.62,0.00,0.00,0.00,29.95,M,10.00,M,CLR,M,M,M,M,M,M,M,M,M,M,M,M,M,M,M,KMTN 040342Z AUTO 00000KT 10SM CLR 26/22 A2995 RMK AO2 LTG DSNT W
MTN,2019-08-04 00:21,78.80,68.00,69.52,250.00,8.00,0.00,29.97,M,10.00,16.00,SCT,BKN,OVC,M,3600.00,5500.00,7000.00,M,M,M,M,M,M,M,M,M,KMTN 040421Z AUTO 25008G16KT 10SM SCT036 BKN055 OVC070 26/20 A2997 RMK AO2 LTG DSNT SW
MTN,2019-08-04 00:42,77.00,66.20,69.33,260.00,6.00,0.00,29.97,M,10.00,M,SCT,SCT,SCT,M,4000.00,5500.00,7000.00,M,M,M,M,M,M,M,M,M,KMTN 040442Z AUTO 26006KT 10SM SCT040 SCT055 SCT070 25/19 A2997 RMK AO2 LTG DSNT SW
MTN,2019-08-04 01:03,77.00,68.00,73.78,250.00,5.00,0.00,29.96,M,10.00,M,SCT,M,M,M,10000.00,M,M,M,VCTS,M,M,M,M,M,M,M,KMTN 040503Z AUTO 25005KT 10SM VCTS SCT100 25/20 A2996 RMK AO2 LTG DSNT SW
MTN,2019-08-04 01:21,77.00,66.20,69.33,280.00,4.00,0.00,29.97,M,10.00,M,BKN,M,M,M,10000.00,M,M,M,M,M,M,M,M,M,M,M,KMTN 040521Z AUTO 28004KT 10SM BKN100 25/19 A2997 RMK AO2 LTG DSNT SW
MTN,2019-08-04 02:03,73.40,68.00,83.21,0.00,0.00,0.00,29.96,M,10.00,M,SCT,M,M,M,11000.00,M,M,M,M,M,M,M,M,M,M,M,KMTN 040603Z AUTO 00000KT 10SM SCT110 23/20 A2996 RMK AO2
MTN,2019-08-04 02:21,75.20,68.00,78.34,250.00,3.00,0.00,29.96,M,10.00,M,CLR,M,M,M,M,M,M,M,M,M,M,M,M,M,M,M,KMTN 040621Z AUTO 25003KT 10SM CLR 24/20 A2996 RMK AO2
MTN,2019-08-04 03:03,75.20,68.00,78.34,0.00,0.00,0.00,29.94,M,10.00,M,CLR,M,M,M,M,M,M,M,M,M,M,M,M,M,M,M,KMTN 040703Z AUTO 00000KT 10SM CLR 24/20 A2994 RMK AO2
MTN,2019-08-04 03:21,73.40,69.80,88.51,0.00,0.00,0.00,29.94,M,10.00,M,CLR,M,M,M,M,M,M,M,M,M,M,M,M,M,M,M,KMTN 040721Z AUTO 00000KT 10SM CLR 23/21 A2994 RMK AO2
MTN,2019-08-04 03:42,73.40,69.80,88.51,0.00,0.00,0.00,29.95,M,10.00,M,CLR,M,M,M,M,M,M,M,M,M,M,M,M,M,M,M,KMTN 040742Z AUTO 00000KT 10SM CLR 23/21 A2995 RMK AO2
MTN,2019-08-04 04:03,73.40,69.80,88.51,0.00,0.00,0.00,29.94,M,10.00,M,CLR,M,M,M,M,M,M,M,M,M,M,M,M,M,M,M,KMTN 040803Z AUTO 00000KT 10SM CLR 23/21 A2994 RMK AO2
MTN,2019-08-04 04:21,71.60,69.80,94.06,0.00,0.00,0.00,29.94,M,10.00,M,CLR,M,M,M,M,M,M,M,M,M,M,M,M,M,M,M,KMTN 040821Z AUTO 00000KT 10SM CLR 22/21 A2994 RMK AO2
MTN,2019-08-04 04:42,71.60,69.80,94.06,0.00,0.00,0.00,29.94,M,10.00,M,CLR,M,M,M,M,M,M,M,M,M,M,M,M,M,M,M,KMTN 040842Z AUTO 00000KT 10SM CLR 22/21 A2994 RMK AO2
MTN,2019-08-04 05:03,71.60,69.80,94.06,0.00,0.00,0.00,29.93,M,10.00,M,CLR,M,M,M,M,M,M,M,M,M,M,M,M,M,M,M,KMTN 040903Z AUTO 00000KT 10SM CLR 22/21 A2993 RMK AO2
MTN,2019-08-04 05:21,71.60,69.80,94.06,0.00,0.00,0.00,29.93,M,10.00,M,CLR,M,M,M,M,M,M,M,M,M,M,M,M,M,M,M,KMTN 040921Z AUTO 00000KT 10SM CLR 22/21 A2993 RMK AO2
MTN,2019-08-04 05:30,71.60,69.80,94.06,0.00,0.00,0.00,29.93,M,10.00,M,CLR,M,M,M,M,M,M,M,M,M,M,M,M,M,M,M,KMTN 040930Z AUTO 00000KT 10SM CLR 22/21 A2993 RMK AO2
MTN,2019-08-04 05:45,73.40,69.80,88.51,350.00,3.00,0.00,29.93,M,10.00,M,SCT,BKN,M,M,12000.00,20000.00,M,M,M,M,M,M,M,M,M,M,KMTN 040945Z 35003KT 10SM SCT120 BKN200 23/21 A2993 RMK FIRST
MTN,2019-08-04 06:45,73.40,71.60,94.10,0.00,0.00,0.00,29.94,M,10.00,M,BKN,BKN,M,M,10000.00,20000.00,M,M,M,M,M,M,M,M,M,M,KMTN 041045Z 00000KT 10SM BKN100 BKN200 23/22 A2994
MTN,2019-08-04 07:45,75.20,71.60,88.59,0.00,0.00,0.00,29.96,M,10.00,M,BKN,M,M,M,10000.00,M,M,M,M,M,M,M,M,M,M,M,KMTN 041145Z 00000KT 10SM BKN100 24/22 A2996
MTN,2019-08-04 08:50,78.80,71.60,78.62,300.00,3.00,0.00,29.96,M,10.00,M,BKN,M,M,M,10000.00,M,M,M,M,M,M,M,M,M,M,M,KMTN 041250Z 30003KT 10SM BKN100 26/22 A2996
MTN,2019-08-04 09:45,78.80,71.60,78.62,350.00,4.00,0.00,29.96,M,10.00,M,BKN,BKN,M,M,10000.00,20000.00,M,M,M,M,M,M,M,M,M,M,KMTN 041345Z 35004KT 10SM BKN100 BKN200 26/22 A2996
MTN,2019-08-04 10:50,86.00,71.60,62.25,290.00,5.00,0.00,29.96,M,10.00,M,SCT,M,M,M,9000.00,M,M,M,M,M,M,M,M,M,M,91.92,KMTN 041450Z 29005KT 10SM SCT090 30/22 A2996
MTN,2019-08-04 11:50,89.60,71.60,55.53,290.00,7.00,0.00,29.95,M,10.00,15.00,SCT,SCT,M,M,3000.00,10000.00,M,M,M,M,M,M,M,M,M,96.41,KMTN 041550Z 29007G15KT 10SM SCT030 SCT100 32/22 A2995
MTN,2019-08-04 12:50,M,M,M,330.00,5.00,0.00,29.94,M,10.00,M,SCT,SCT,M,M,3500.00,10000.00,M,M,M,M,M,M,M,M,M,M,KMTN 041650Z 33005KT 10SM SCT035 SCT100 /21 A2994
MTN,2019-08-04 13:55,87.80,69.80,55.29,310.00,6.00,0.00,29.93,M,10.00,M,BKN,BKN,M,M,4000.00,6500.00,M,M,M,M,M,M,M,M,M,92.71,KMTN 041755Z 31006KT 10SM BKN040 BKN065 31/21 A2993
MTN,2019-08-04 14:54,87.80,68.00,51.98,350.00,5.00,0.00,29.92,M,10.00,M,SCT,SCT,BKN,M,5000.00,6500.00,8000.00,M,M,M,M,M,M,M,M,91.43,KMTN 041854Z 35005KT 10SM SCT050 SCT065 BKN080 31/20 A2992
MTN,2019-08-04 15:45,87.80,71.60,58.78,60.00,4.00,0.00,29.90,M,10.00,M,SCT,BKN,BKN,M,6500.00,7500.00,8500.00,M,M,M,M,M,M,M,M,94.18,KMTN 041945Z 06004KT 10SM SCT065 BKN075 BKN085 31/22 A2990
MTN,2019-08-04 16:54,87.80,71.60,58.78,40.00,3.00,0.00,29.91,M,10.00,M,BKN,M,M,M,5500.00,M,M,M,M,M,M,M,M,M,M,94.18,KMTN 042054Z 04003KT 10SM BKN055 31/22 A2991
MTN,2019-08-04 17:45,86.00,71.60,62.25,180.00,6.00,0.00,29.91,M,10.00,M,SCT,BKN,M,M,4900.00,5500.00,M,M,M,M,M,M,M,M,M,91.92,KMTN 042145Z 18006KT 10SM SCT049 BKN055 30/22 A2991
MTN,2019-08-04 18:45,87.80,71.60,58.78,130.00,5.00,0.00,29.91,M,10.00,M,SCT,M,M,M,6000.00,M,M,M,M,M,M,M,M,M,M,94.18,KMTN 042245Z 13005KT 10SM SCT060 31/22 A2991
MTN,2019-08-04 19:45,84.20,69.80,62.03,100.00,3.00,0.00,29.92,M,10.00,M,SCT,M,M,M,8500.00,M,M,M,M,M,M,M,M,M,M,88.43,KMTN 042345Z 10003KT 10SM SCT085 29/21 A2992
MTN,2019-08-04 20:45,80.60,71.60,74.11,0.00,0.00,0.00,29.94,M,10.00,M,FEW,M,M,M,20000.00,M,M,M,M,M,M,M,M,M,M,84.57,KMTN 050045Z 00000KT 10SM FEW200 27/22 A2994
MTN,2019-08-04 21:45,78.80,73.40,83.55,0.00,0.00,0.00,29.94,M,10.00,M,FEW,M,M,M,20000.00,M,M,M,M,M,M,M,M,M,M,M,KMTN 050145Z 00000KT 10SM FEW200 26/23 A2994 RMK LAST
MTN,2019-08-04 22:03,77.00,73.40,88.67,0.00,0.00,0.00,29.95,M,10.00,M,CLR,M,M,M,M,M,M,M,M,M,M,M,M,M,M,M,KMTN 050203Z AUTO 00000KT 10SM CLR 25/23 A2995 RMK AO2
MTN,2019-08-04 22:21,77.00,73.40,88.67,0.00,0.00,0.00,29.95,M,10.00,M,CLR,M,M,M,M,M,M,M,M,M,M,M,M,M,M,M,KMTN 050221Z AUTO 00000KT 10SM CLR 25/23 A2995 RMK AO2
MTN,2019-08-04 22:42,77.00,73.40,88.67,0.00,0.00,0.00,29.95,M,10.00,M,CLR,M,M,M,M,M,M,M,M,M,M,M,M,M,M,M,KMTN 050242Z AUTO 00000KT 10SM CLR 25/23 A2995 RMK AO2
MTN,2019-08-04 23:00,75.20,71.60,88.59,0.00,0.00,0.00,29.94,M,10.00,M,CLR,M,M,M,M,M,M,M,M,M,M,M,M,M,M,M,KMTN 050300Z AUTO 00000KT 10SM CLR 24/22 A2994 RMK AO2
MTN,2019-08-04 23:21,73.40,71.60,94.10,0.00,0.00,0.00,29.95,M,10.00,M,CLR,M,M,M,M,M,M,M,M,M,M,M,M,M,M,M,KMTN 050321Z AUTO 00000KT 10SM CLR 23/22 A2995 RMK AO2
MTN,2019-08-04 23:42,73.40,71.60,94.10,0.00,0.00,0.00,29.95,M,10.00,M,CLR,M,M,M,M,M,M,M,M,M,M,M,M,M,M,M,KMTN 050342Z AUTO 00000KT 10SM CLR 23/22 A2995 RMK AO2
MTN,2019-08-05 00:00,73.40,71.60,94.10,0.00,0.00,0.00,29.95,M,10.00,M,CLR,M,M,M,M,M,M,M,M,M,M,M,M,M,M,M,KMTN 050400Z AUTO 00000KT 10SM CLR 23/22 A2995 RMK AO2
MTN,2019-08-05 00:21,73.40,71.60,94.10,0.00,0.00,0.00,29.95,M,10.00,M,CLR,M,M,M,M,M,M,M,M,M,M,M,M,M,M,M,KMTN 050421Z AUTO 00000KT 10SM CLR 23/22 A2995 RMK AO2
MTN,2019-08-05 00:42,73.40,71.60,94.10,0.00,0.00,0.00,29.95,M,10.00,M,CLR,M,M,M,M,M,M,M,M,M,M,M,M,M,M,M,KMTN 050442Z AUTO 00000KT 10SM CLR 23/22 A2995 RMK AO2
MTN,2019-08-05 01:00,73.40,71.60,94.10,100.00,3.00,0.00,29.95,M,10.00,M,CLR,M,M,M,M,M,M,M,M,M,M,M,M,M,M,M,KMTN 050500Z AUTO 10003KT 10SM CLR 23/22 A2995 RMK AO2
MTN,2019-08-05 01:21,73.40,71.60,94.10,0.00,0.00,0.00,29.95,M,10.00,M,CLR,M,M,M,M,M,M,M,M,M,M,M,M,M,M,M,KMTN 050521Z AUTO 00000KT 10SM CLR 23/22 A2995 RMK AO2
MTN,2019-08-05 01:42,73.40,71.60,94.10,0.00,0.00,0.00,29.94,M,10.00,M,CLR,M,M,M,M,M,M,M,M,M,M,M,M,M,M,M,KMTN 050542Z AUTO 00000KT 10SM CLR 23/22 A2994 RMK AO2
MTN,2019-08-05 02:00,73.40,71.60,94.10,0.00,0.00,0.00,29.94,M,10.00,M,CLR,M,M,M,M,M,M,M,M,M,M,M,M,M,M,M,KMTN 050600Z AUTO 00000KT 10SM CLR 23/22 A2994 RMK AO2
MTN,2019-08-05 02:21,71.60,71.60,100.00,0.00,0.00,0.00,29.94,M,10.00,M,CLR,M,M,M,M,M,M,M,M,M,M,M,M,M,M,M,KMTN 050621Z AUTO 00000KT 10SM CLR 22/22 A2994 RMK AO2
MTN,2019-08-05 02:42,71.60,71.60,100.00,0.00,0.00,0.00,29.94,M,10.00,M,CLR,M,M,M,M,M,M,M,M,M,M,M,M,M,M,M,KMTN 050642Z AUTO 00000KT 10SM CLR 22/22 A2994 RMK AO2
MTN,2019-08-05 03:00,71.60,71.60,100.00,310.00,3.00,0.00,29.95,M,10.00,M,CLR,M,M,M,M,M,M,M,M,M,M,M,M,M,M,M,KMTN 050700Z AUTO 31003KT 10SM CLR 22/22 A2995 RMK AO2
MTN,2019-08-05 03:21,73.40,71.60,94.10,340.00,4.00,0.00,29.95,M,10.00,M,CLR,M,M,M,M,M,M,M,M,M,M,M,M,M,M,M,KMTN 050721Z AUTO 34004KT 10SM CLR 23/22 A2995 RMK AO2
MTN,2019-08-05 03:42,73.40,69.80,88.51,0.00,0.00,0.00,29.95,M,10.00,M,CLR,M,M,M,M,M,M,M,M,M,M,M,M,M,M,M,KMTN 050742Z AUTO 00000KT 10SM CLR 23/21 A2995 RMK AO2
MTN,2019-08-05 04:00,71.60,69.80,94.06,0.00,0.00,0.00,29.95,M,10.00,M,CLR,M,M,M,M,M,M,M,M,M,M,M,M,M,M,M,KMTN 050800Z AUTO 00000KT 10SM CLR 22/21 A2995 RMK AO2
MTN,2019-08-05 04:21,71.60,69.80,94.06,0.00,0.00,0.00,29.95,M,10.00,M,CLR,M,M,M,M,M,M,M,M,M,M,M,M,M,M,M,KMTN 050821Z AUTO 00000KT 10SM CLR 22/21 A2995 RMK AO2
MTN,2019-08-05 04:42,71.60,69.80,94.06,0.00,0.00,0.00,29.96,M,10.00,M,CLR,M,M,M,M,M,M,M,M,M,M,M,M,M,M,M,KMTN 050842Z AUTO 00000KT 10SM CLR 22/21 A2996 RMK AO2 LTG DSNT S
MTN,2019-08-05 05:03,71.60,69.80,94.06,0.00,0.00,0.00,29.96,M,10.00,M,CLR,M,M,M,M,M,M,M,M,M,M,M,M,M,M,M,KMTN 050903Z AUTO 00000KT 10SM CLR 22/21 A2996 RMK AO2
MTN,2019-08-05 05:21,71.60,68.00,88.43,0.00,0.00,0.00,29.96,M,10.00,M,CLR,M,M,M,M,M,M,M,M,M,M,M,M,M,M,M,KMTN 050921Z AUTO 00000KT 10SM CLR 22/20 A2996 RMK AO2
MTN,2019-08-05 05:45,73.40,69.80,88.51,0.00,0.00,0.00,29.96,M,10.00,M,BKN,M,M,M,10000.00,M,M,M,M,M,M,M,M,M,M,M,KMTN 050945Z 00000KT 10SM BKN100 23/21 A2996 RMK FIRST
MTN,2019-08-05 06:45,73.40,69.80,88.51,0.00,0.00,0.00,29.98,M,10.00,M,OVC,M,M,M,15000.00,M,M,M,M,M,M,M,M,M,M,M,KMTN 051045Z 00000KT 10SM OVC150 23/21 A2998
MTN,2019-08-05 07:45,73.40,69.80,88.51,0.00,0.00,0.00,29.99,M,10.00,M,OVC,M,M,M,15000.00,M,M,M,M,M,M,M,M,M,M,M,KMTN 051145Z 00000KT 10SM OVC150 23/21 A2999
MTN,2019-08-05 08:55,78.80,66.20,65.33,0.00,0.00,0.00,30.01,M,10.00,M,BKN,M,M,M,15000.00,M,M,M,M,M,M,M,M,M,M,M,KMTN 051255Z 00000KT 10SM BKN150 26/19 A3001
MTN,2019-08-05 09:50,78.80,64.40,61.36,0.00,0.00,0.00,30.01,M,10.00,M,BKN,M,M,M,11000.00,M,M,M,M,M,M,M,M,M,M,M,KMTN 051350Z 00000KT 10SM BKN110 26/18 A3001
MTN,2019-08-05 10:45,80.60,64.40,57.84,30.00,3.00,0.00,30.01,M,10.00,M,BKN,M,M,M,10000.00,M,M,M,M,M,M,M,M,M,M,82.27,KMTN 051445Z 03003KT 10SM BKN100 27/18 A3001
MTN,2019-08-05 11:45,82.40,66.20,58.08,60.00,4.00,0.00,30.00,M,10.00,M,OVC,M,M,M,10000.00,M,M,M,M,M,M,M,M,M,M,84.63,KMTN 051545Z 06004KT 10SM OVC100 28/19 A3000
MTN,2019-08-05 12:45,84.20,66.20,54.80,70.00,3.00,0.00,29.99,M,10.00,M,BKN,M,M,M,15000.00,M,M,M,M,M,M,M,M,M,M,86.50,KMTN 051645Z 07003KT 10SM BKN150 29/19 A2999
MTN,2019-08-05 13:45,84.20,66.20,54.80,70.00,5.00,0.00,29.97,M,10.00,M,BKN,M,M,M,15000.00,M,M,M,M,M,M,M,M,M,M,86.50,KMTN 051745Z 07005KT 10SM BKN150 29/19 A2997
MTN,2019-08-05 14:45,87.80,68.00,51.98,90.00,6.00,0.00,29.96,M,10.00,M,BKN,M,M,M,15000.00,M,M,M,M,M,M,M,M,M,M,91.43,KMTN 051845Z 09006KT 10SM BKN150 31/20 A2996
MTN,2019-08-05 15:50,86.00,69.80,58.55,110.00,6.00,0.00,29.95,M,10.00,M,BKN,OVC,M,M,20000.00,25000.00,M,M,M,M,M,M,M,M,M,90.58,KMTN 051950Z 11006KT 10SM BKN200 OVC250 30/21 A2995
MTN,2019-08-05 16:45,86.00,68.00,55.04,110.00,6.00,0.00,29.94,M,10.00,M,BKN,OVC,M,M,20000.00,25000.00,M,M,M,M,M,M,M,M,M,89.41,KMTN 052045Z 11006KT 10SM BKN200 OVC250 30/20 A2994
MTN,2019-08-05 17:45,84.20,69.80,62.03,100.00,4.00,0.00,29.94,M,10.00,M,BKN,OVC,M,M,20000.00,25000.00,M,M,M,M,M,M,M,M,M,88.43,KMTN 052145Z 10004KT 10SM BKN200 OVC250 29/21 A2994
MTN,2019-08-05 18:54,82.40,71.60,69.90,100.00,4.00,0.00,29.94,M,10.00,M,BKN,OVC,M,M,20000.00,25000.00,M,M,M,M,M,M,M,M,M,87.18,KMTN 052254Z 10004KT 10SM BKN200 OVC250 28/22 A2994
MTN,2019-08-05 19:50,82.40,75.20,78.90,110.00,8.00,0.00,29.94,M,10.00,M,SCT,BKN,BKN,M,3200.00,16000.00,20000.00,M,M,M,M,M,M,M,M,89.48,KMTN 052350Z 11008KT 10SM SCT032 BKN160 BKN200 28/24 A2994
MTN,2019-08-05 20:45,80.60,75.20,83.66,130.00,6.00,0.00,29.93,M,10.00,M,BKN,M,M,M,20000.00,M,M,M,M,M,M,M,M,M,M,86.17,KMTN 060045Z 13006KT 10SM BKN200 27/24 A2993
MTN,2019-08-05 21:45,80.60,77.00,88.83,140.00,4.00,0.00,29.95,M,10.00,M,BKN,M,M,M,20000.00,M,M,M,M,M,M,M,M,M,M,87.59,KMTN 060145Z 14004KT 10SM BKN200 27/25 A2995
MTN,2019-08-05 22:03,80.60,77.00,88.83,140.00,4.00,0.00,29.94,M,10.00,M,CLR,M,M,M,M,M,M,M,M,M,M,M,M,M,M,87.59,KMTN 060203Z AUTO 14004KT 10SM CLR 27/25 A2994 RMK AO2
MTN,2019-08-05 22:21,80.60,77.00,88.83,150.00,4.00,0.00,29.94,M,10.00,M,CLR,M,M,M,M,M,M,M,M,M,M,M,M,M,M,87.59,KMTN 060221Z AUTO 15004KT 10SM CLR 27/25 A2994 RMK AO2
MTN,2019-08-05 22:42,78.80,75.20,88.75,90.00,3.00,0.00,29.94,M,10.00,M,CLR,M,M,M,M,M,M,M,M,M,M,M,M,M,M,M,KMTN 060242Z AUTO 09003KT 10SM CLR 26/24 A2994 RMK AO2
MTN,2019-08-05 23:00,78.80,75.20,88.75,0.00,0.00,0.00,29.94,M,10.00,M,CLR,M,M,M,M,M,M,M,M,M,M,M,M,M,M,M,KMTN 060300Z AUTO 00000KT 10SM CLR 26/24 A2994 RMK AO2
MTN,2019-08-05 23:21,78.80,75.20,88.75,180.00,3.00,0.00,29.94,M,10.00,M,CLR,M,M,M,M,M,M,M,M,M,M,M,M,M,M,M,KMTN 060321Z AUTO 18003KT 10SM CLR 26/24 A2994 RMK AO2
MTN,2019-08-05 23:42,78.80,75.20,88.75,0.00,0.00,0.00,29.94,M,10.00,M,CLR,M,M,M,M,M,M,M,M,M,M,M,M,M,M,M,KMTN 060342Z AUTO 00000KT 10SM CLR 26/24 A2994 RMK AO2
MTN,2019-08-05 23:51,78.80,73.40,83.55,220.00,3.00,0.00,29.94,M,10.00,M,CLR,M,M,M,M,M,M,M,M,M,M,M,M,M,M,M,KMTN 060351Z AUTO 22003KT 10SM CLR 26/23 A2994 RMK AO2
MTN,2019-08-06 00:42,78.80,71.60,78.62,0.00,0.00,0.00,29.93,M,10.00,M,CLR,M,M,M,M,M,M,M,M,M,M,M,M,M,M,M,KMTN 060442Z AUTO 00000KT 10SM CLR 26/22 A2993 RMK AO2
MTN,2019-08-06 01:00,78.80,71.60,78.62,0.00,0.00,0.00,29.93,M,10.00,M,CLR,M,M,M,M,M,M,M,M,M,M,M,M,M,M,M,KMTN 060500Z AUTO 00000KT 10SM CLR 26/22 A2993 RMK AO2
MTN,2019-08-06 01:21,78.80,71.60,78.62,170.00,3.00,0.00,29.92,M,10.00,M,CLR,M,M,M,M,M,M,M,M,M,M,M,M,M,M,M,KMTN 060521Z AUTO 17003KT 10SM CLR 26/22 A2992 RMK AO2
MTN,2019-08-06 01:42,78.80,71.60,78.62,0.00,0.00,0.00,29.92,M,10.00,M,CLR,M,M,M,M,M,M,M,M,M,M,M,M,M,M,M,KMTN 060542Z AUTO 00000KT 10SM CLR 26/22 A2992 RMK AO2
MTN,2019-08-06 02:00,77.00,71.60,83.44,0.00,0.00,0.00,29.91,M,10.00,M,CLR,M,M,M,M,M,M,M,M,M,M,M,M,M,M,M,KMTN 060600Z AUTO 00000KT 10SM CLR 25/22 A2991 RMK AO2
MTN,2019-08-06 02:21,77.00,71.60,83.44,0.00,0.00,0.00,29.91,M,7.00,M,CLR,M,M,M,M,M,M,M,M,M,M,M,M,M,M,M,KMTN 060621Z AUTO 00000KT 7SM CLR 25/22 A2991 RMK AO2
MTN,2019-08-06 02:42,77.00,71.60,83.44,0.00,0.00,0.00,29.90,M,10.00,M,CLR,M,M,M,M,M,M,M,M,M,M,M,M,M,M,M,KMTN 060642Z AUTO 00000KT 10SM CLR 25/22 A2990 RMK AO2
MTN,2019-08-06 03:03,77.00,71.60,83.44,0.00,0.00,0.00,29.90,M,10.00,M,CLR,M,M,M,M,M,M,M,M,M,M,M,M,M,M,M,KMTN 060703Z AUTO 00000KT 10SM CLR 25/22 A2990 RMK AO2
MTN,2019-08-06 03:21,77.00,71.60,83.44,0.00,0.00,0.00,29.91,M,10.00,M,CLR,M,M,M,M,M,M,M,M,M,M,M,M,M,M,M,KMTN 060721Z AUTO 00000KT 10SM CLR 25/22 A2991 RMK AO2
MTN,2019-08-06 03:42,77.00,71.60,83.44,220.00,3.00,0.00,29.91,M,10.00,M,SCT,M,M,M,2600.00,M,M,M,M,M,M,M,M,M,M,M,KMTN 060742Z AUTO 22003KT 10SM SCT026 25/22 A2991 RMK AO2
MTN,2019-08-06 04:03,77.00,69.80,78.48,250.00,4.00,0.00,29.91,M,10.00,M,SCT,SCT,M,M,2600.00,3200.00,M,M,M,M,M,M,M,M,M,M,KMTN 060803Z AUTO 25004KT 10SM SCT026 SCT032 25/21 A2991 RMK AO2
MTN,2019-08-06 04:21,77.00,69.80,78.48,250.00,3.00,0.00,29.91,M,10.00,M,SCT,M,M,M,3000.00,M,M,M,M,M,M,M,M,M,M,M,KMTN 060821Z AUTO 25003KT 10SM SCT030 25/21 A2991 RMK AO2
MTN,2019-08-06 04:42,77.00,69.80,78.48,260.00,5.00,0.00,29.91,M,10.00,M,SCT,M,M,M,3000.00,M,M,M,M,M,M,M,M,M,M,M,KMTN 060842Z AUTO 26005KT 10SM SCT030 25/21 A2991 RMK AO2
MTN,2019-08-06 05:03,75.20,69.80,83.32,280.00,3.00,0.00,29.91,M,10.00,M,SCT,M,M,M,3200.00,M,M,M,M,M,M,M,M,M,M,M,KMTN 060903Z AUTO 28003KT 10SM SCT032 24/21 A2991 RMK AO2
MTN,2019-08-06 05:21,73.40,69.80,88.51,0.00,0.00,0.00,29.90,M,10.00,M,CLR,M,M,M,M,M,M,M,M,M,M,M,M,M,M,M,KMTN 060921Z AUTO 00000KT 10SM CLR 23/21 A2990 RMK AO2
MTN,2019-08-06 05:30,73.40,69.80,88.51,0.00,0.00,0.00,29.90,M,10.00,M,CLR,M,M,M,M,M,M,M,M,M,M,M,M,M,M,M,KMTN 060930Z AUTO 00000KT 10SM CLR 23/21 A2990 RMK AO2
MTN,2019-08-06 05:45,75.20,69.80,83.32,140.00,4.00,0.00,29.90,M,10.00,M,OVC,M,M,M,20000.00,M,M,M,M,M,M,M,M,M,M,M,KMTN 060945Z 14004KT 10SM OVC200 24/21 A2990
MTN,2019-08-06 06:45,73.40,69.80,88.51,0.00,0.00,0.00,29.90,M,10.00,M,BKN,M,M,M,20000.00,M,M,M,M,M,M,M,M,M,M,M,KMTN 061045Z 00000KT 10SM BKN200 23/21 A2990
MTN,2019-08-06 07:45,75.20,71.60,88.59,0.00,0.00,0.00,29.90,M,10.00,M,SCT,BKN,M,M,14000.00,19000.00,M,M,M,M,M,M,M,M,M,M,KMTN 061145Z 00000KT 10SM SCT140 BKN190 24/22 A2990
MTN,2019-08-06 08:45,78.80,69.80,73.95,0.00,0.00,0.00,29.90,M,10.00,M,SCT,SCT,M,M,14000.00,19000.00,M,M,M,M,M,M,M,M,M,M,KMTN 061245Z 00000KT 10SM SCT140 SCT190 26/21 A2990
MTN,2019-08-06 09:45,82.40,71.60,69.90,130.00,4.00,0.00,29.90,M,10.00,M,SCT,M,M,M,19000.00,M,M,M,M,M,M,M,M,M,M,87.18,KMTN 061345Z 13004KT 10SM SCT190 28/22 A2990
MTN,2019-08-06 10:45,84.20,71.60,65.95,140.00,5.00,0.00,29.90,M,10.00,M,FEW,SCT,M,M,14000.00,19000.00,M,M,M,M,M,M,M,M,M,89.60,KMTN 061445Z 14005KT 10SM FEW140 SCT190 29/22 A2990
MTN,2019-08-06 11:45,84.20,69.80,62.03,110.00,9.00,0.00,29.90,M,10.00,M,SCT,SCT,M,M,14000.00,19000.00,M,M,M,M,M,M,M,M,M,88.43,KMTN 061545Z 11009KT 10SM SCT140 SCT190 29/21 A2990
MTN,2019-08-06 12:45,87.80,69.80,55.29,140.00,9.00,0.00,29.89,M,10.00,M,SCT,SCT,M,M,3900.00,14000.00,M,M,M,M,M,M,M,M,M,92.71,KMTN 061645Z 14009KT 10SM SCT039 SCT140 31/21 A2989
MTN,2019-08-06 13:45,87.80,69.80,55.29,140.00,8.00,0.00,29.87,M,10.00,M,SCT,SCT,SCT,M,3900.00,19000.00,25000.00,M,M,M,M,M,M,M,M,92.71,KMTN 061745Z 14008KT 10SM SCT039 SCT190 SCT250 31/21 A2987
MTN,2019-08-06 14:50,87.80,71.60,58.78,120.00,10.00,0.00,29.84,M,10.00,M,SCT,SCT,M,M,5500.00,25000.00,M,M,M,M,M,M,M,M,M,94.18,KMTN 061850Z 12010KT 10SM SCT055 SCT250 31/22 A2984
MTN,2019-08-06 15:45,87.80,69.80,55.29,130.00,9.00,0.00,29.82,M,10.00,M,SCT,SCT,BKN,M,6000.00,9000.00,25000.00,M,M,M,M,M,M,M,M,92.71,KMTN 061945Z 13009KT 10SM SCT060TCU SCT090 BKN250 31/21 A2982 RMK LTG DSNT SE
MTN,2019-08-06 16:45,87.80,69.80,55.29,140.00,9.00,0.00,29.82,M,10.00,M,SCT,SCT,M,M,7000.00,25000.00,M,M,M,M,M,M,M,M,M,92.71,KMTN 062045Z 14009KT 10SM SCT070TCU SCT250 31/21 A2982
MTN,2019-08-06 17:45,84.20,71.60,65.95,150.00,9.00,0.00,29.82,M,10.00,M,SCT,SCT,M,M,7000.00,12000.00,M,M,M,M,M,M,M,M,M,89.60,KMTN 062145Z 15009KT 10SM SCT070TCU SCT120 29/22 A2982 RMK LTGCG SW-W
MTN,2019-08-06 18:45,77.00,71.60,83.44,210.00,7.00,0.00,29.84,M,6.00,17.00,SCT,SCT,BKN,M,3000.00,4800.00,10000.00,M,-TSRA,M,M,M,M,M,M,M,KMTN 062245Z 21007G17KT 6SM -TSRA SCT030 SCT048 BKN100 25/22 A2984 RMK OCNL LTGIC DSNT ALQS TS SW MOV SE
MTN,2019-08-06 19:45,75.20,73.40,94.14,0.00,0.00,0.00,29.82,M,10.00,M,SCT,M,M,M,12000.00,M,M,M,M,M,M,M,M,M,M,M,KMTN 062345Z 00000KT 10SM SCT120 24/23 A2982
MTN,2019-08-06 20:45,75.20,75.20,100.00,270.00,3.00,0.00,29.83,M,10.00,M,SCT,M,M,M,12000.00,M,M,M,M,M,M,M,M,M,M,M,KMTN 070045Z 27003KT 10SM SCT120 24/24 A2983
MTN,2019-08-06 21:45,77.00,73.40,88.67,0.00,0.00,0.00,29.85,M,10.00,M,SCT,M,M,M,12000.00,M,M,M,M,M,M,M,M,M,M,M,KMTN 070145Z 00000KT 10SM SCT120 25/23 A2985
MTN,2019-08-06 22:03,77.00,73.40,88.67,0.00,0.00,0.00,29.85,M,10.00,M,CLR,M,M,M,M,M,M,M,-RA,M,M,M,M,M,M,M,KMTN 070203Z AUTO 00000KT 10SM -RA CLR 25/23 A2985 RMK AO2
MTN,2019-08-06 22:21,75.20,73.40,94.14,0.00,0.00,0.00,29.85,M,10.00,M,SCT,SCT,M,M,10000.00,12000.00,M,M,M,M,M,M,M,M,M,M,KMTN 070221Z AUTO 00000KT 10SM SCT100 SCT120 24/23 A2985 RMK AO2 LTG DSNT S
MTN,2019-08-06 22:42,75.20,71.60,88.59,90.00,4.00,0.00,29.83,M,10.00,M,SCT,M,M,M,12000.00,M,M,M,RA,M,M,M,M,M,M,M,KMTN 070242Z AUTO 09004KT 10SM RA SCT120 24/22 A2983 RMK AO2 LTG DSNT S
MTN,2019-08-06 23:00,73.40,71.60,94.10,260.00,3.00,0.00,29.84,M,10.00,M,CLR,M,M,M,M,M,M,M,M,M,M,M,M,M,M,M,KMTN 070300Z AUTO 26003KT 10SM CLR 23/22 A2984 RMK AO2 LTG DSNT S
MTN,2019-08-06 23:21,75.20,73.40,94.14,230.00,3.00,0.00,29.84,M,10.00,M,CLR,M,M,M,M,M,M,M,M,M,M,M,M,M,M,M,KMTN 070321Z AUTO 23003KT 10SM CLR 24/23 A2984 RMK AO2
MTN,2019-08-06 23:33,75.20,71.60,88.59,0.00,0.00,0.00,29.84,M,10.00,M,CLR,M,M,M,M,M,M,M,M,M,M,M,M,M,M,M,KMTN 070333Z AUTO 00000KT 10SM CLR 24/22 A2984 RMK AO2
MTN,2019-08-07 05:45,75.20,73.40,94.14,0.00,0.00,0.00,29.82,M,10.00,M,SCT,BKN,M,M,12000.00,20000.00,M,M,M,M,M,M,M,M,M,M,KMTN 070945Z 00000KT 10SM SCT120 BKN200 24/23 A2982
MTN,2019-08-07 06:45,75.20,75.20,100.00,0.00,0.00,0.00,29.84,M,7.00,M,SCT,SCT,M,M,7500.00,9000.00,M,M,M,M,M,M,M,M,M,M,KMTN 071045Z 00000KT 7SM SCT075 SCT090 24/24 A2984
MTN,2019-08-07 07:45,78.80,75.20,88.75,0.00,0.00,0.00,29.84,M,6.00,M,FEW,SCT,SCT,M,8000.00,16000.00,25000.00,M,HZ,M,M,M,M,M,M,M,KMTN 071145Z 00000KT 6SM HZ FEW080 SCT160 SCT250 26/24 A2984
MTN,2019-08-07 08:45,80.60,75.20,83.66,220.00,4.00,0.00,29.84,M,6.00,M,SCT,SCT,M,M,16000.00,25000.00,M,M,HZ,M,M,M,M,M,M,86.17,KMTN 071245Z 22004KT 6SM HZ SCT160 SCT250 27/24 A2984
MTN,2019-08-07 09:45,82.40,75.20,78.90,160.00,4.00,0.00,29.83,M,6.00,M,SCT,SCT,M,M,16000.00,20000.00,M,M,HZ,M,M,M,M,M,M,89.48,KMTN 071345Z 16004KT 6SM HZ SCT160 SCT200 28/24 A2983
MTN,2019-08-07 10:45,84.20,77.00,79.04,120.00,6.00,0.00,29.83,M,10.00,M,SCT,M,M,M,20000.00,M,M,M,M,M,M,M,M,M,M,94.16,KMTN 071445Z 12006KT 10SM SCT200 29/25 A2983
MTN,2019-08-07 11:45,86.00,77.00,74.61,130.00,9.00,0.00,29.82,M,7.00,M,SCT,M,M,M,20000.00,M,M,M,M,M,M,M,M,M,M,97.15,KMTN 071545Z 13009KT 7SM SCT200 30/25 A2982
MTN,2019-08-07 12:45,87.80,77.00,70.45,130.00,9.00,0.00,29.81,M,10.00,M,SCT,SCT,M,M,19000.00,25000.00,M,M,M,M,M,M,M,M,M,99.92,KMTN 071645Z 13009KT 10SM SCT190 SCT250 31/25 A2981
MTN,2019-08-07 13:50,87.80,77.00,70.45,150.00,11.00,0.00,29.81,M,10.00,M,SCT,SCT,M,M,18000.00,25000.00,M,M,M,M,M,M,M,M,M,99.92,KMTN 071750Z 15011KT 10SM SCT180 SCT250 31/25 A2981
MTN,2019-08-07 14:45,89.60,77.00,66.55,140.00,16.00,0.00,29.73,M,10.00,M,SCT,SCT,BKN,M,5500.00,16000.00,25000.00,M,M,M,M,M,M,M,M,102.54,KMTN 071845Z 14016KT 10SM SCT055TCU SCT160 BKN250 32/25 A2973
MTN,2019-08-07 14:58,89.60,77.00,66.55,150.00,15.00,0.00,29.72,M,6.00,M,SCT,SCT,BKN,M,4500.00,16000.00,25000.00,M,TS,M,M,M,M,M,M,102.54,KMTN 071858Z 15015KT 6SM TS SCT045 SCT160 BKN250 32/25 A2972 RMK TSB57 OCNL LTGCCCG W TS MOV NE
MTN,2019-08-07 15:28,86.00,73.40,66.15,280.00,22.00,0.00,29.76,M,5.00,35.00,SCT,SCT,BKN,M,2800.00,5000.00,11000.00,M,+TSRA,M,M,M,M,M,M,93.45,KMTN 071928Z 28022G35KT 5SM +TSRA SCT028 SCT050 BKN110 30/23 A2976 RMK OCNL LTGCCCG OHD TS OHD MOV NE
MTN,2019-08-07 15:45,73.40,73.40,100.00,280.00,20.00,0.00,29.78,M,1.50,30.00,SCT,BKN,BKN,M,1800.00,3000.00,3900.00,M,+TSRA,M,M,M,M,M,M,M,KMTN 071945Z 28020G30KT 1 1/2SM +TSRA SCT018 BKN030 BKN039 23/23 A2978 RMK OCNL LTGCCCG OHD TS OHD MOV NE
MTN,2019-08-07 16:18,71.60,71.60,100.00,40.00,7.00,0.00,29.77,M,7.00,M,SCT,SCT,OVC,M,1000.00,2600.00,5000.00,M,-TSRA,M,M,M,M,M,M,M,KMTN 072018Z 04007KT 010V100 7SM -TSRA SCT010 SCT026 OVC050 22/22 A2977 RMK OCNL LTGCCCG OHD-E TS OHD-E MOV E
MTN,2019-08-07 16:45,71.60,71.60,100.00,290.00,5.00,0.00,29.79,M,1.75,M,SCT,BKN,OVC,M,3400.00,4500.00,5000.00,M,-TSRA,M,M,M,M,M,M,M,KMTN 072045Z 29005KT 1 3/4SM -TSRA SCT034 BKN045 OVC050 22/22 A2979 RMK OCNL LTGCCCG OHD-E TS OHD-E MOV E
MTN,2019-08-07 17:12,71.60,71.60,100.00,0.00,0.00,0.00,29.78,M,7.00,M,SCT,SCT,BKN,M,3300.00,4400.00,12000.00,M,-RA,M,M,M,M,M,M,M,KMTN 072112Z 00000KT 7SM -RA SCT033 SCT044 BKN120 22/22 A2978 RMK TSE11 TS MOVD E
MTN,2019-08-07 17:45,71.60,71.60,100.00,260.00,3.00,0.00,29.76,M,10.00,M,SCT,SCT,BKN,M,4800.00,6000.00,7000.00,M,M,M,M,M,M,M,M,M,KMTN 072145Z 26003KT 10SM SCT048 SCT060 BKN070 22/22 A2976
MTN,2019-08-07 18:45,75.20,73.40,94.14,180.00,6.00,0.00,29.80,M,10.00,M,SCT,M,M,M,8500.00,M,M,M,M,M,M,M,M,M,M,M,KMTN 072245Z 18006KT 10SM SCT085 24/23 A2980
MTN,2019-08-07 19:54,75.20,73.40,94.14,0.00,0.00,0.00,29.80,M,10.00,M,SCT,M,M,M,12000.00,M,M,M,M,M,M,M,M,M,M,M,KMTN 072354Z 00000KT 10SM SCT120 24/23 A2980
MTN,2019-08-07 20:45,73.40,71.60,94.10,0.00,0.00,0.00,29.81,M,10.00,M,SCT,M,M,M,20000.00,M,M,M,M,M,M,M,M,M,M,M,KMTN 080045Z 00000KT 10SM SCT200 23/22 A2981
MTN,2019-08-07 21:45,71.60,71.60,100.00,0.00,0.00,0.00,29.81,M,10.00,M,FEW,SCT,M,M,800.00,16000.00,M,M,M,M,M,M,M,M,M,M,KMTN 080145Z 00000KT 10SM FEW008 SCT160 22/22 A2981 RMK LAST
MTN,2019-08-07 22:03,71.60,71.60,100.00,0.00,0.00,0.00,29.81,M,10.00,M,CLR,M,M,M,M,M,M,M,M,M,M,M,M,M,M,M,KMTN 080203Z AUTO 00000KT 10SM CLR 22/22 A2981 RMK AO2
MTN,2019-08-07 22:21,71.60,71.60,100.00,0.00,0.00,0.00,29.81,M,10.00,M,CLR,M,M,M,M,M,M,M,M,M,M,M,M,M,M,M,KMTN 080221Z AUTO 00000KT 10SM CLR 22/22 A2981 RMK AO2
MTN,2019-08-07 22:42,71.60,71.60,100.00,0.00,0.00,0.00,29.81,M,10.00,M,CLR,M,M,M,M,M,M,M,M,M,M,M,M,M,M,M,KMTN 080242Z AUTO 00000KT 10SM CLR 22/22 A2981 RMK AO2
MTN,2019-08-07 23:03,71.60,71.60,100.00,220.00,3.00,0.00,29.82,M,10.00,M,SCT,M,M,M,1300.00,M,M,M,M,M,M,M,M,M,M,M,KMTN 080303Z AUTO 22003KT 10SM SCT013 22/22 A2982 RMK AO2
MTN,2019-08-07 23:21,71.60,71.60,100.00,0.00,0.00,0.00,29.82,M,10.00,M,CLR,M,M,M,M,M,M,M,M,M,M,M,M,M,M,M,KMTN 080321Z AUTO 00000KT 10SM CLR 22/22 A2982 RMK AO2 LTG DSNT N
MTN,2019-08-07 23:42,71.60,71.60,100.00,220.00,3.00,0.00,29.82,M,10.00,M,CLR,M,M,M,M,M,M,M,M,M,M,M,M,M,M,M,KMTN 080342Z AUTO 22003KT 10SM CLR 22/22 A2982 RMK AO2
